name,kana,food,map,map_iflame,prefecture,municipalities,street_address,station,transportation,phone_number,shop_url,tabelog_url,latitude,longitude
庄助,しょうすけ,焼鳥、ホッケスティック、信玄袋、つくねとピーマン、和風焼きめし,"https://www.google.com/maps/place/%E3%82%84%E3%81%8D%E3%81%A8%E3%82%8A+%E5%BA%84%E5%8A%A9/@35.6713451,139.7958566,19.06z/data=!4m15!1m8!3m7!1s0x601889127b311631:0x93117347ae07cce8!2z44CSMTM1LTAwNDcg5p2x5Lqs6YO95rGf5p2x5Yy65a-M5bKh77yR5LiB55uu77yS4oiS77yY!3b1!8m2!3d35.6710895!4d139.7963144!16s%2Fg%2F11fx4fv2n_!3m5!1s0x601889127ae43617:0x8e4a4e91e1ed6ea8!8m2!3d35.6711489!4d139.7964293!16s%2Fg%2F1tkshscp?entry=ttu","<iframe src=""https://www.google.com/maps/embed?pb=!1m14!1m8!1m3!1d810.3074311392718!2d139.7958566!3d35.6713451!3m2!1i1024!2i768!4f13.1!3m3!1m2!1s0x601889127ae43617%3A0x8e4a4e91e1ed6ea8!2z44KE44GN44Go44KKIOW6hOWKqQ!5e0!3m2!1sja!2sjp!4v1710648284300!5m2!1sja!2sjp"" width=""600"" height=""450"" style=""border:0;"" allowfullscreen="""" loading=""lazy"" referrerpolicy=""no-referrer-when-downgrade""></iframe>",東京都,江東区,富岡1-2-8,門前仲町駅,"・東京メトロ東西線　門前仲町駅徒歩3分
・門前仲町駅から105m",03-3643-9648,,https://tabelog.com/tokyo/A1313/A131303/13065350/,35.67126318242751,139.79641015831834
中国家庭料理 楊 2号店,ちゅうごくかていりょうりやんにごうてん,焼餃子、拌三絲、汁なし坦々麺,"https://www.google.com/maps/place/%E4%B8%AD%E5%9B%BD%E5%AE%B6%E5%BA%AD%E6%96%99%E7%90%86+%E6%A5%8A+2%E5%8F%B7%E5%BA%97/@35.7300994,139.706404,18.31z/data=!4m15!1m8!3m7!1s0x60188d5c6cc53ed5:0xc67115fe8f135177!2z44CSMTcxLTAwMjEg5p2x5Lqs6YO96LGK5bO25Yy66KW_5rGg6KKL77yT5LiB55uu77yS77yV4oiS77yVIOmrmOafs-ODk-ODqw!3b1!8m2!3d35.7300379!4d139.7072826!16s%2Fg%2F11c4z8tddn!3m5!1s0x60188d5c132a97d3:0xe0d68bdc8561d7b5!8m2!3d35.730042!4d139.7072349!16s%2Fg%2F1tm0t4jc?entry=ttu","<iframe src=""https://www.google.com/maps/embed?pb=!1m18!1m12!1m3!1d1306.8878256076882!2d139.70640398974604!3d35.730099409741065!2m3!1f0!2f0!3f0!3m2!1i1024!2i768!4f13.1!3m3!1m2!1s0x60188d5c132a97d3%3A0xe0d68bdc8561d7b5!2z5Lit5Zu95a625bqt5paZ55CGIOaliiAy5Y-35bqX!5e0!3m2!1sja!2sjp!4v1710650861650!5m2!1sja!2sjp"" width=""600"" height=""450"" style=""border:0;"" allowfullscreen="""" loading=""lazy"" referrerpolicy=""no-referrer-when-downgrade""></iframe>",東京都,豊島区,西池袋3-25-5,池袋駅,"・東京メトロ丸ノ内線池袋駅1b出口より徒歩1分
・山手線池袋駅西口より徒歩3分",50-5869-2587,,https://tabelog.com/tokyo/A1305/A130501/13009261/,35.730143338373786,139.70724817100648
つり堀 武蔵野園,つりぼりむさしのえん,焼うどん、親子丼、おしるこ,"https://www.google.com/maps/place/%E6%AD%A6%E8%94%B5%E9%87%8E%E5%9C%92/@35.6854647,139.6382694,17.93z/data=!4m15!1m8!3m7!1s0x6018f2435714b589:0x60ccb5bcf0bf097c!2z44CSMTY4LTAwNjEg5p2x5Lqs6YO95p2J5Lim5Yy65aSn5a6u77yS5LiB55uu77yS77yS4oiS77yT!3b1!8m2!3d35.6858559!4d139.63965!16s%2Fg%2F11crrk6h6j!3m5!1s0x6018f35ae426673d:0x852ba13a48a28016!8m2!3d35.6858354!4d139.6395443!16s%2Fg%2F1vhly6q9?entry=ttu","<iframe src=""https://www.google.com/maps/embed?pb=!1m18!1m12!1m3!1d1701.3349869435774!2d139.6382693640432!3d35.68546469824256!2m3!1f0!2f0!3f0!3m2!1i1024!2i768!4f13.1!3m3!1m2!1s0x6018f35ae426673d%3A0x852ba13a48a28016!2z5q2m6JS16YeO5ZyS!5e0!3m2!1sja!2sjp!4v1710654681819!5m2!1sja!2sjp"" width=""600"" height=""450"" style=""border:0;"" allowfullscreen="""" loading=""lazy"" referrerpolicy=""no-referrer-when-downgrade""></iframe>",東京都,杉並区,大宮2-22-3 和田掘公園,西永福駅	,"・京王井の頭線永福町駅より京王バス新高円寺行5分、和田堀公園入口より徒歩2分
・西永福駅から873m",03-3312-2723,,https://tabelog.com/tokyo/A1318/A131805/13140021/,35.685906182706695,139.63955359839505
大和屋,やまとや,栗大福,"https://www.google.com/maps/place/%E5%A4%A7%E5%92%8C%E5%B1%8B/@35.7238123,139.6371551,18.49z/data=!3m1!5s0x6018ed97aec08a5d:0xbb4dfd01330f46b!4m6!3m5!1s0x6018ed97af2860cb:0xe7be1cf6b9912114!8m2!3d35.724302!4d139.638048!16s%2Fg%2F12m98qnkk?entry=ttu","<iframe src=""https://www.google.com/maps/embed?pb=!1m18!1m12!1m3!1d1153.6990991492332!2d139.63715506678295!3d35.7238123410377!2m3!1f0!2f0!3f0!3m2!1i1024!2i768!4f13.1!3m3!1m2!1s0x6018ed97af2860cb%3A0xe7be1cf6b9912114!2z5aSn5ZKM5bGL!5e0!3m2!1sja!2sjp!4v1710815485808!5m2!1sja!2sjp"" width=""600"" height=""450"" style=""border:0;"" allowfullscreen="""" loading=""lazy"" referrerpolicy=""no-referrer-when-downgrade""></iframe>",東京都,中野区,鷺宮4-34-9,鷺ノ宮駅,"・西武新宿線 鷺ノ宮駅より徒歩３分
・鷺ノ宮駅から228m",03-3338-3768,,https://tabelog.com/tokyo/A1321/A132104/13191818/,35.724394031202166,139.63804927141828
みやこや,みやこや,ミックスかつ定食、ロースにんにく焼,"https://www.google.com/maps/place/%E3%81%A8%E3%82%93%E3%81%8B%E3%81%A4+%E3%81%BF%E3%82%84%E3%81%93%E3%82%84/@35.7234502,139.6380674,18.64z/data=!4m6!3m5!1s0x6018ed9712c899b3:0x97b3c560fa6ab069!8m2!3d35.7236271!4d139.6387953!16s%2Fg%2F1thml0jt?entry=ttu","<iframe src=""https://www.google.com/maps/embed?pb=!1m18!1m12!1m3!1d1039.1017002190026!2d139.638067393581!3d35.7234502451315!2m3!1f0!2f0!3f0!3m2!1i1024!2i768!4f13.1!3m3!1m2!1s0x6018ed9712c899b3%3A0x97b3c560fa6ab069!2z44Go44KT44GL44GkIOOBv-OChOOBk-OChA!5e0!3m2!1sja!2sjp!4v1710655218843!5m2!1sja!2sjp"" width=""600"" height=""450"" style=""border:0;"" allowfullscreen="""" loading=""lazy"" referrerpolicy=""no-referrer-when-downgrade""></iframe>",東京都,中野区,鷺宮3-21-6,鷺ノ宮駅,"・西武新宿線【鷺ノ宮駅】徒歩２分
・鷺ノ宮駅から128m",03-3336-7037,,https://tabelog.com/tokyo/A1321/A132104/13011853/,35.723669589553616,139.63874542655284
吉祥寺さとう,きちじょうじさとう,メンチカツ,"https://www.google.com/maps/place/%E5%90%89%E7%A5%A5%E5%AF%BA%E3%81%95%E3%81%A8%E3%81%86/@35.7039762,139.5776644,18z/data=!3m2!4b1!5s0x6018ee47d8c18605:0x539265902d5b40fd!4m6!3m5!1s0x6018ee47d8c3ea11:0x480a2b9bf5253a37!8m2!3d35.703975!4d139.579041!16s%2Fg%2F1tfnt0vk?entry=ttu","<iframe src=""https://www.google.com/maps/embed?pb=!1m18!1m12!1m3!1d915.677496943664!2d139.57796517151226!3d35.70366380085952!2m3!1f0!2f0!3f0!3m2!1i1024!2i768!4f13.1!3m3!1m2!1s0x6018ee47d8c3ea11%3A0x480a2b9bf5253a37!2z5ZCJ56Wl5a-644GV44Go44GG!5e0!3m2!1sja!2sjp!4v1710816233974!5m2!1sja!2sjp"" width=""600"" height=""450"" style=""border:0;"" allowfullscreen="""" loading=""lazy"" referrerpolicy=""no-referrer-when-downgrade""></iframe>",東京都,武蔵野市,吉祥寺本町1-1-8,吉祥寺駅,"・吉祥寺駅北口より徒歩３分
・吉祥寺駅から118m",0422-22-3130,,https://tabelog.com/tokyo/A1320/A132001/13005807/,35.70402206557637,139.57905980429578
カヤシマ,かやしま,わくわくセット（ナポリタン＆ハンバーグ）,"https://www.google.com/maps/place/%E9%A3%9F%E4%BA%8B%E3%81%A8%E3%81%8A%E9%85%92+%E3%82%AB%E3%83%A4%E3%82%B7%E3%83%9E/@35.705247,139.5774077,17.43z/data=!3m1!5s0x6018ee48a07f9861:0xdfb6e13216ad3eff!4m15!1m8!3m7!1s0x6018ee461fd034c7:0x8cbaa70322ea4c73!2z44CSMTgwLTAwMDQg5p2x5Lqs6YO95q2m6JS16YeO5biC5ZCJ56Wl5a-65pys55S677yR5LiB55uu77yR77yQ4oiS77yZIOWvjOa-pOODk-ODqw!3b1!8m2!3d35.7060013!4d139.5789614!16s%2Fg%2F11g6ysv501!3m5!1s0x6018ee461fd4628b:0x4dea2c0ffa75cabf!8m2!3d35.7060218!4d139.5789151!16s%2Fg%2F1tfbsxzx?entry=ttu","<iframe src=""https://www.google.com/maps/embed?pb=!1m18!1m12!1m3!1d2397.5954584561064!2d139.57740765681802!3d35.70524696224252!2m3!1f0!2f0!3f0!3m2!1i1024!2i768!4f13.1!3m3!1m2!1s0x6018ee461fd4628b%3A0x4dea2c0ffa75cabf!2z6aOf5LqL44Go44GK6YWSIOOCq-ODpOOCt-ODng!5e0!3m2!1sja!2sjp!4v1710686746996!5m2!1sja!2sjp"" width=""600"" height=""450"" style=""border:0;"" allowfullscreen="""" loading=""lazy"" referrerpolicy=""no-referrer-when-downgrade""></iframe>",東京都,武蔵野市,吉祥寺本町1-10-9,吉祥寺駅,"・JR、京王電鉄　吉祥寺駅下車　徒歩５分
・吉祥寺第一ホテル向かい
・吉祥寺駅から331m",0422-21-6461,,https://tabelog.com/tokyo/A1320/A132001/13040521/,35.706200935589095,139.57890969378235
つるや,つるや,キャベツ（お通し）、カルビ、ハラミ、コプチャン（小腸）、キムチ、ジンギスカン、シビレ（胸腺）、チャンジャ,"https://www.google.com/maps/place/%E3%80%92210-0024+%E7%A5%9E%E5%A5%88%E5%B7%9D%E7%9C%8C%E5%B7%9D%E5%B4%8E%E5%B8%82%E5%B7%9D%E5%B4%8E%E5%8C%BA%E6%97%A5%E9%80%B2%E7%94%BA%EF%BC%91%EF%BC%99%E2%88%92%EF%BC%97/@35.5237058,139.6904967,16.82z/data=!4m6!3m5!1s0x601860a13c005d99:0xb2ca3001eb33615f!8m2!3d35.5249734!4d139.6946573!16s%2Fg%2F12hncj67b?entry=ttu","<iframe src=""https://www.google.com/maps/embed?pb=!1m18!1m12!1m3!1d3669.476166829853!2d139.69049674025933!3d35.52370576555531!2m3!1f0!2f0!3f0!3m2!1i1024!2i768!4f13.1!3m3!1m2!1s0x601860a13c005d99%3A0xb2ca3001eb33615f!2z44CSMjEwLTAwMjQg56We5aWI5bed55yM5bed5bSO5biC5bed5bSO5Yy65pel6YCy55S677yR77yZ4oiS77yX!5e0!3m2!1sja!2sjp!4v1710737596817!5m2!1sja!2sjp"" width=""600"" height=""450"" style=""border:0;"" allowfullscreen="""" loading=""lazy"" referrerpolicy=""no-referrer-when-downgrade""></iframe>",神奈川県,川崎市川崎区,日進町19-7,八丁畷駅,"・JR浜川崎線、京浜急行、「八丁畷駅」より徒歩５分。
・JR南武線、東海道線、京浜東北線、「川崎駅」より徒歩15分
・八丁畷駅から360m",044-211-0697,,https://tabelog.com/kanagawa/A1405/A140502/14018525/,35.525180931076314,139.6946552702222
ニックンロール,にっくんろーる,ニックンロール,"https://www.google.com/maps/place/%E3%83%8B%E3%83%83%E3%82%AF%E3%83%B3%E3%83%AD%E3%83%BC%E3%83%AB/@35.6603125,139.6669709,18z/data=!3m1!5s0x6018f3697b868d07:0x1e4568af819f4e83!4m14!1m7!3m6!1s0x6018f3697b77f407:0x3ae3073a26d40e25!2z44CSMTU1LTAwMzEg5p2x5Lqs6YO95LiW55Sw6LC35Yy65YyX5rKi77yS5LiB55uu77yR77yU4oiS77yR77yVIDFm!3b1!8m2!3d35.6599451!4d139.6677232!3m5!1s0x6018f3697b867053:0x3520638bd461f23e!8m2!3d35.659927!4d139.6677465!16s%2Fg%2F1tfj_wzx?entry=ttu","<iframe src=""https://www.google.com/maps/embed?pb=!1m18!1m12!1m3!1d1249.3472978786212!2d139.66697092369068!3d35.66031251646168!2m3!1f0!2f0!3f0!3m2!1i1024!2i768!4f13.1!3m3!1m2!1s0x6018f3697b867053%3A0x3520638bd461f23e!2z44OL44OD44Kv44Oz44Ot44O844Or!5e0!3m2!1sja!2sjp!4v1710816603257!5m2!1sja!2sjp"" width=""600"" height=""450"" style=""border:0;"" allowfullscreen="""" loading=""lazy"" referrerpolicy=""no-referrer-when-downgrade""></iframe>",東京都,世田谷区,北沢2-14-15 １Ｆ,下北沢駅,・下北沢駅から179m,070-5579-9897,,https://tabelog.com/tokyo/A1318/A131802/13099819/,35.65994464357356,139.66774415161825
ヒロキ 下北沢店 ,ひろきしもきたざわてん,タコの広島ネギとゆずポン酢、ホタテのガーリック焼、カキの香草バター焼、HIROKIスペシャル,"https://www.google.com/maps/place/%E3%81%8A%E5%A5%BD%E3%81%BF%E7%84%BC%E3%81%8D%E3%81%B2%E3%82%8D%E3%81%8D%E4%B8%8B%E5%8C%97%E6%B2%A2%E5%BA%97/@35.660586,139.6668738,18z/data=!3m1!5s0x6018f3697e9f716b:0xdce3239509256ab7!4m6!3m5!1s0x6018f3697ea6aaab:0x3a0199a6b4940d1c!8m2!3d35.6601056!4d139.66783!16s%2Fg%2F1tdn43md?entry=ttu","<iframe src=""https://www.google.com/maps/embed?pb=!1m18!1m12!1m3!1d1620.8332798561485!2d139.66687384592424!3d35.66058602835207!2m3!1f0!2f0!3f0!3m2!1i1024!2i768!4f13.1!3m3!1m2!1s0x6018f3697ea6aaab%3A0x3a0199a6b4940d1c!2z44GK5aW944G_54S844GN44Gy44KN44GN5LiL5YyX5rKi5bqX!5e0!3m2!1sja!2sjp!4v1710738563326!5m2!1sja!2sjp"" width=""600"" height=""450"" style=""border:0;"" allowfullscreen="""" loading=""lazy"" referrerpolicy=""no-referrer-when-downgrade""></iframe>",東京都,世田谷区,北沢2-14-14 ハニー下北沢 1F,下北沢駅,"・下北沢駅 中央口・東口より徒歩3分
・下北沢駅から163m",03-3412-3908,,https://tabelog.com/tokyo/A1318/A131802/13001391/,35.660195940952704,139.66782871225115
福丸饅頭,ふくまるまんじゅう,かりんとう饅頭,"https://www.google.com/maps/place/%E7%A6%8F%E4%B8%B8%E9%A5%85%E9%A0%AD/@35.7258412,139.7635365,18.73z/data=!4m6!3m5!1s0x60188dd23abe9861:0xc4b22748b82e1045!8m2!3d35.7260068!4d139.7644396!16s%2Fg%2F1tjv3hts?entry=ttu","<iframe src=""https://www.google.com/maps/embed?pb=!1m18!1m12!1m3!1d978.2386374661977!2d139.763536457503!3d35.72584122025423!2m3!1f0!2f0!3f0!3m2!1i1024!2i768!4f13.1!3m3!1m2!1s0x60188dd23abe9861%3A0xc4b22748b82e1045!2z56aP5Li46aWF6aCt!5e0!3m2!1sja!2sjp!4v1710818384341!5m2!1sja!2sjp"" width=""600"" height=""450"" style=""border:0;"" allowfullscreen="""" loading=""lazy"" referrerpolicy=""no-referrer-when-downgrade""></iframe>",東京都,台東区,谷中3-7-8,千駄木駅,"・東京メトロ千代田線　千駄木駅より徒歩3分
・千駄木駅から133m",03-3823-0709,,https://tabelog.com/tokyo/A1311/A131106/13022554/,35.726045086553555,139.76444698003772
すみれ,すみれ,鳥の煮込み、鯖のサンドイッチ、特辛カレー,"https://www.google.com/maps/place/%E5%AD%A3%E7%AF%80%E6%96%99%E7%90%86+%E3%81%99%E3%81%BF%E3%82%8C/@35.7188941,139.7634361,17.59z/data=!4m15!1m8!3m7!1s0x60188c2daa480f3d:0xde0ac5771d5e8e48!2z44CSMTEzLTAwMzEg5p2x5Lqs6YO95paH5Lqs5Yy65qC55rSl77yS5LiB55uu77yS77yU4oiS77yY!3b1!8m2!3d35.7198509!4d139.7649784!16s%2Fg%2F11clm0hnd6!3m5!1s0x60188c2daa4e69ef:0x4826fc379bf065cc!8m2!3d35.7198173!4d139.7649856!16s%2Fg%2F1tgdt3r_?entry=ttu","<iframe src=""https://www.google.com/maps/embed?pb=!1m18!1m12!1m3!1d2154.7365213247526!2d139.7634360616185!3d35.71889406742104!2m3!1f0!2f0!3f0!3m2!1i1024!2i768!4f13.1!3m3!1m2!1s0x60188c2daa4e69ef%3A0x4826fc379bf065cc!2z5a2j56-A5paZ55CGIOOBmeOBv-OCjA!5e0!3m2!1sja!2sjp!4v1710739286619!5m2!1sja!2sjp"" width=""600"" height=""450"" style=""border:0;"" allowfullscreen="""" loading=""lazy"" referrerpolicy=""no-referrer-when-downgrade""></iframe>",東京都,文京区,根津2-24-8,根津駅,"・東京メトロ千代田線【根津駅】徒歩４分
・根津駅から272m",03-3821-8941,,https://tabelog.com/tokyo/A1311/A131106/13018386/,35.719867476146234,139.76496492067147
草花木果-SokaBokka-,そーかぼっか,パイナップルジュース、黒豚アグーの沖縄天然塩焼き、にんじんシリシリー、タコライス、ソーキ（豚の骨つき肉）そば、ブルーシールアイスクリーム,"https://www.google.com/maps/place/%E8%8D%89%E8%8A%B1%E6%9C%A8%E6%9E%9C-SokaBokka-/@35.6434697,139.6986735,18.73z/data=!3m1!5s0x60188b4856b84a71:0x474d12f75ff35afa!4m14!1m7!3m6!1s0x60188b4856cde773:0x2565f22024e12094!2z44CSMTUzLTAwNTEg5p2x5Lqs6YO955uu6buS5Yy65LiK55uu6buS77yS5LiB55uu77yX4oiSMTEgMkbjg7szRiAyZiAzZg!3b1!8m2!3d35.6428219!4d139.6992534!3m5!1s0x60188b4856d2ff5b:0x8e56b80f64afeea5!8m2!3d35.6429072!4d139.6992731!16s%2Fg%2F1tg_x278?entry=ttu","<iframe src=""https://www.google.com/maps/embed?pb=!1m18!1m12!1m3!1d980.7336644000017!2d139.6986734776474!3d35.64346969152625!2m3!1f0!2f0!3f0!3m2!1i1024!2i768!4f13.1!3m3!1m2!1s0x60188b4856d2ff5b%3A0x8e56b80f64afeea5!2z6I2J6Iqx5pyo5p6cLVNva2FCb2trYS0!5e0!3m2!1sja!2sjp!4v1710739787821!5m2!1sja!2sjp"" width=""600"" height=""450"" style=""border:0;"" allowfullscreen="""" loading=""lazy"" referrerpolicy=""no-referrer-when-downgrade""></iframe>",東京都,目黒区,上目黒2-7-11 2F・3F,中目黒駅,"・中目黒駅徒歩1分。山手通り沿い元TSUTAYA裏のファミリーマートの角から細い路地を入り、1本目を右折したすぐ左側。
・中目黒駅から155m",050-5869-3607,,https://tabelog.com/tokyo/A1317/A131701/13015531/,35.6429454669247,139.6992662458065
三ちゃん食堂,さんちゃんしょくどう,みょうがの天ぷら、チーズ入りウインナー、ネギ肉イタメ、海鮮春巻き（えび・いか・たこ・カニ入り）,"https://www.google.com/maps/place/%E4%B8%89%E3%81%A1%E3%82%83%E3%82%93%E9%A3%9F%E5%A0%82/@35.5807777,139.6607969,19z/data=!4m15!1m8!3m7!1s0x6018f56fdb5092f9:0x12b2cf1dcefa5f9d!2z44CSMjExLTAwMDUg56We5aWI5bed55yM5bed5bSO5biC5Lit5Y6f5Yy65paw5Li45a2Q55S677yX77yT77yTIOOCt-ODo-ODs-ODhue-jumHjA!3b1!8m2!3d35.5810291!4d139.6611443!16s%2Fg%2F12hkfjs4p!3m5!1s0x6018f56fdb5b95b7:0xa096e36b0a08962b!8m2!3d35.5808805!4d139.6611988!16s%2Fg%2F1v4k6k7y?entry=ttu","<iframe src=""https://www.google.com/maps/embed?pb=!1m18!1m12!1m3!1d811.2258331523257!2d139.6607968727025!3d35.5807777109102!2m3!1f0!2f0!3f0!3m2!1i1024!2i768!4f13.1!3m3!1m2!1s0x6018f56fdb5b95b7%3A0xa096e36b0a08962b!2z5LiJ44Gh44KD44KT6aOf5aCC!5e0!3m2!1sja!2sjp!4v1710740315228!5m2!1sja!2sjp"" width=""600"" height=""450"" style=""border:0;"" allowfullscreen="""" loading=""lazy"" referrerpolicy=""no-referrer-when-downgrade""></iframe>",神奈川県,川崎市中原区,新丸子町733,新丸子駅,"・東急東横線・東急目黒線　新丸子駅　徒歩3分
・JR南武線　武蔵小杉駅　徒歩8分
・JR横須賀線　武蔵小杉駅
・駅構内連絡通路(徒歩10～15分)を経由し、南武線改札口より北口下車、徒歩7～8分
・新丸子駅から80m",044-722-2863,,https://tabelog.com/kanagawa/A1405/A140504/14003565/,35.580909687307724,139.66119652182334
森乃園,もりのえん,抹茶ぜんざい（冷）,"https://www.google.com/maps/place/%E6%A3%AE%E4%B9%83%E5%9C%92/@35.6854627,139.7819119,18.42z/data=!4m10!1m2!2m1!1z5Lq65b2i55S644CA5qOu5LmD5ZyS!3m6!1s0x6018894fdb1df54f:0x332211b243dc9244!8m2!3d35.6853588!4d139.7836339!15sChXkurrlvaLnlLrjgIDmo67kuYPlnJJaGCIW5Lq65b2iIOeUuiDmo64g5LmDIOWckpIBCXRlYV9zdG9yZeABAA!16s%2Fg%2F1ttdmzrw?entry=ttu","<iframe src=""https://www.google.com/maps/embed?pb=!1m18!1m12!1m3!1d1214.2534952975914!2d139.7819119373095!3d35.68546270526209!2m3!1f0!2f0!3f0!3m2!1i1024!2i768!4f13.1!3m3!1m2!1s0x6018894fdb1df54f%3A0x332211b243dc9244!2z5qOu5LmD5ZyS!5e0!3m2!1sja!2sjp!4v1710762630974!5m2!1sja!2sjp"" width=""600"" height=""450"" style=""border:0;"" allowfullscreen="""" loading=""lazy"" referrerpolicy=""no-referrer-when-downgrade""></iframe>",東京都,中央区,日本橋人形町2-4-9,"
人形町駅","・日比谷線　人形町駅　Ａ１出口より徒歩３０秒
・人形町駅から135m",03-3667-2666,,https://tabelog.com/tokyo/A1302/A130204/13041947/,35.68541862514583,139.78365260893636
天ぷら 中山,てんぷらなかやま,新香（きゅうり・かぶ・白ウリ）、天ぷら（めごち・玉ねぎ・はす）、天丼,"https://www.google.com/maps/place/%E5%A4%A9%E3%81%B7%E3%82%89+%E4%B8%AD%E5%B1%B1/@35.6845461,139.7813492,17.57z/data=!4m15!1m8!3m7!1s0x601889501b1719df:0x57a2346340ba95f9!2z44CSMTAzLTAwMTMg5p2x5Lqs6YO95Lit5aSu5Yy65pel5pys5qmL5Lq65b2i55S677yR5LiB55uu77yR77yQ4oiS77yY!3b1!8m2!3d35.684099!4d139.7826544!16s%2Fg%2F12jblrp2f!3m5!1s0x601889501b176ba7:0xfc112d41fd41729c!8m2!3d35.6840743!4d139.7826777!16s%2Fg%2F1ywqfnwqg?entry=ttu","<iframe src=""https://www.google.com/maps/embed?pb=!1m18!1m12!1m3!1d2189.1113047072176!2d139.78134923852244!3d35.68454611895761!2m3!1f0!2f0!3f0!3m2!1i1024!2i768!4f13.1!3m3!1m2!1s0x601889501b176ba7%3A0xfc112d41fd41729c!2z5aSp44G344KJIOS4reWxsQ!5e0!3m2!1sja!2sjp!4v1710742733769!5m2!1sja!2sjp"" width=""600"" height=""450"" style=""border:0;"" allowfullscreen="""" loading=""lazy"" referrerpolicy=""no-referrer-when-downgrade""></iframe>",東京都,中央区,日本橋人形町1-10-8,人形町駅,"・地下鉄浅草線・日比谷線人形町駅
・地下鉄半蔵門線水天宮前駅から、徒歩３分程度
・人形町駅から226m",03-3661-4538,,https://tabelog.com/tokyo/A1302/A130204/13018093/,35.68421940988369,139.7826392763585
AlcolicCafeロジェ,あるこりっくかふぇろじぇ,チョコバナナクリームタルト,"https://www.google.com/maps/place/AlcolicCafe%E3%83%AD%E3%82%B8%E3%82%A7/@35.7196252,139.6636136,19.66z/data=!3m1!5s0x6018ed6251a4ba7d:0x3b366adbd8928242!4m6!3m5!1s0x6018ed62447b3023:0x6e1f034c58387a5f!8m2!3d35.7197668!4d139.6638652!16s%2Fg%2F1hg4w8vpl?entry=ttu","<iframe src=""https://www.google.com/maps/embed?pb=!1m18!1m12!1m3!1d512.2199259905524!2d139.66361358035093!3d35.71962517577474!2m3!1f0!2f0!3f0!3m2!1i1024!2i768!4f13.1!3m3!1m2!1s0x6018ed62447b3023%3A0x6e1f034c58387a5f!2zQWxjb2xpY0NhZmXjg63jgrjjgqc!5e0!3m2!1sja!2sjp!4v1710773262563!5m2!1sja!2sjp"" width=""600"" height=""450"" style=""border:0;"" allowfullscreen="""" loading=""lazy"" referrerpolicy=""no-referrer-when-downgrade""></iframe>",東京都,中野区,沼袋1-39-3 ヤジマビル 2F,沼袋駅,"・西武新宿線　沼袋駅北口　徒歩すぐ
・沼袋駅から73m",03-5318-9543,,https://tabelog.com/tokyo/A1321/A132104/13143898/,35.719804924563,139.6638663636741
焼肉 平和苑,やきにくへいわえん,わさびカルビ、三角、丸、オススメカルビ、卵かけご飯セット,"https://www.google.com/maps/place/%E7%84%BC%E8%82%89+%E5%B9%B3%E5%92%8C%E8%8B%91/@35.7188349,139.6595379,17.58z/data=!4m15!1m8!3m7!1s0x6018ed7d2f114ebb:0x5fc5a4bce1569585!2z44CSMTY1LTAwMjUg5p2x5Lqs6YO95Lit6YeO5Yy65rK86KKL77yT5LiB55uu77yS77yT4oiS77ySIOS4ieeUsOayvOiii-OCs-ODvOODnQ!3b1!8m2!3d35.7186755!4d139.6599964!16s%2Fg%2F12h_h4873!3m5!1s0x6018ed7d2e398093:0xda969f5b2d1966df!8m2!3d35.7186762!4d139.6601997!16s%2Fg%2F1tdr3bh8?entry=ttu","<iframe src=""https://www.google.com/maps/embed?pb=!1m18!1m12!1m3!1d2165.102492067691!2d139.6595379076613!3d35.7188349343451!2m3!1f0!2f0!3f0!3m2!1i1024!2i768!4f13.1!3m3!1m2!1s0x6018ed7d2e398093%3A0xda969f5b2d1966df!2z54S86IKJIOW5s-WSjOiLkQ!5e0!3m2!1sja!2sjp!4v1710743147967!5m2!1sja!2sjp"" width=""600"" height=""450"" style=""border:0;"" allowfullscreen="""" loading=""lazy"" referrerpolicy=""no-referrer-when-downgrade""></iframe>",東京都,中野区,沼袋3-23-2,沼袋駅,"・西武新宿線「沼袋駅」から徒歩7分
・沼袋駅から390m",03-3388-9762,,https://tabelog.com/tokyo/A1321/A132104/13006939/,35.71875045786892,139.66014658405848
レストラン ブラジル,れすとらんぶらじる,ブラジル風チュロス、サラダ、フェイジョアーダ・コンプレッタ、エスペトン・デ・ピカニャ（シュラスコ）,"https://www.google.com/maps/place/%E3%83%AC%E3%82%B9%E3%83%88%E3%83%A9%E3%83%B3+%E3%83%96%E3%83%A9%E3%82%B8%E3%83%AB/@36.2597939,139.4064999,17.77z/data=!4m15!1m8!3m7!1s0x601f26d8677262b5:0x48d39f0aaf64ec8b!2z44CSMzcwLTA1MTcg576k6aas55yM6YKR5qW96YOh5aSn5rOJ55S66KW_5bCP5rOJ77yV5LiB55uu77yV4oiS77yT!3b1!8m2!3d36.2605131!4d139.407154!16s%2Fg%2F11clmwmtmx!3m5!1s0x601f26d8677262b5:0xd321d6b42952f5df!8m2!3d36.2605607!4d139.4071525!16s%2Fg%2F1wtbtzwd?entry=ttu","<iframe src=""https://www.google.com/maps/embed?pb=!1m18!1m12!1m3!1d1891.5038938174284!2d139.40649993357945!3d36.25979387984852!2m3!1f0!2f0!3f0!3m2!1i1024!2i768!4f13.1!3m3!1m2!1s0x601f26d8677262b5%3A0xd321d6b42952f5df!2z44Os44K544OI44Op44OzIOODluODqeOCuOODqw!5e0!3m2!1sja!2sjp!4v1710744376295!5m2!1sja!2sjp"" width=""600"" height=""450"" style=""border:0;"" allowfullscreen="""" loading=""lazy"" referrerpolicy=""no-referrer-when-downgrade""></iframe>",群馬県,邑楽郡大泉町,西小泉5-5-3,西小泉駅,"・東武小泉線西小泉駅徒歩５分
・西小泉駅から244m",0276-62-0994,,https://tabelog.com/gunma/A1002/A100203/10004487/,36.26066115053879,139.40716512137794
chiffon,しふぉん,神大ソフト フルーツミックス,"https://www.google.com/maps/place/%E3%82%B7%E3%83%95%E3%82%A9%E3%83%B3/@35.4847109,139.6192936,18.1z/data=!3m1!5s0x60185ea6051c60a1:0xea219317d054f787!4m6!3m5!1s0x60185ea6156398ff:0x4880e3aa5245e31f!8m2!3d35.4847718!4d139.6200123!16s%2Fg%2F12qgl530g?entry=ttu","<iframe src=""https://www.google.com/maps/embed?pb=!1m18!1m12!1m3!1d1518.1807354519085!2d139.61929357722715!3d35.48471085545764!2m3!1f0!2f0!3f0!3m2!1i1024!2i768!4f13.1!3m3!1m2!1s0x60185ea6156398ff%3A0x4880e3aa5245e31f!2z44K344OV44Kp44Oz!5e0!3m2!1sja!2sjp!4v1711128198387!5m2!1sja!2sjp"" width=""600"" height=""450"" style=""border:0;"" allowfullscreen="""" loading=""lazy"" referrerpolicy=""no-referrer-when-downgrade""></iframe>",神奈川県,横浜市神奈川区,六角橋3-27-1 神奈川大学 10号館 3F,東白楽駅,・東白楽駅から861m,045-481-3600,,https://tabelog.com/kanagawa/A1401/A140205/14050330/,35.48485616813302,139.62001575999608
珈琲文明,こーひーぶんめい,仲見世ブレンド,"https://www.google.com/maps/place/%E7%8F%88%E7%90%B2%E6%96%87%E6%98%8E/@35.4879207,139.6254674,18.07z/data=!4m14!1m7!3m6!1s0x60185ea3dccfc85f:0x3fb2972183be43b7!2z54-I55Cy5paH5piO!8m2!3d35.4881182!4d139.6263449!16s%2Fg%2F1tdpg4w2!3m5!1s0x60185ea3dccfc85f:0x3fb2972183be43b7!8m2!3d35.4881182!4d139.6263449!16s%2Fg%2F1tdpg4w2?entry=ttu","<iframe src=""https://www.google.com/maps/embed?pb=!1m18!1m12!1m3!1d1546.1359217295972!2d139.6254673853582!3d35.487920696638014!2m3!1f0!2f0!3f0!3m2!1i1024!2i768!4f13.1!3m3!1m2!1s0x60185ea3dccfc85f%3A0x3fb2972183be43b7!2z54-I55Cy5paH5piO!5e0!3m2!1sja!2sjp!4v1710774552041!5m2!1sja!2sjp"" width=""600"" height=""450"" style=""border:0;"" allowfullscreen="""" loading=""lazy"" referrerpolicy=""no-referrer-when-downgrade""></iframe>",神奈川県,横浜市神奈川区,六角橋1-9-2,白楽駅,"・東急東横線白楽駅から徒歩約3分
・白楽駅から206m",045-432-4185,,https://tabelog.com/kanagawa/A1401/A140205/14015734/,35.488201337021664,139.6263660723641
キッチン 友,きっちんとも,スペシャル友風焼き、とん汁、ハムポテトサラダ,"https://www.google.com/maps/place/%E3%82%AD%E3%83%83%E3%83%81%E3%83%B3+%E5%8F%8B/@35.4889739,139.6260859,18.63z/data=!4m15!1m8!3m7!1s0x60185ea3b9e754af:0x8f657293e20e088e!2z44CSMjIxLTA4MDIg56We5aWI5bed55yM5qiq5rWc5biC56We5aWI5bed5Yy65YWt6KeS5qmL77yR5LiB55uu77yX4oiS77yS77yR!3b1!8m2!3d35.4889673!4d139.626846!16s%2Fg%2F11cll_115_!3m5!1s0x60185ea3b9e754af:0xd5e16a551ed89b06!8m2!3d35.4889673!4d139.626846!16s%2Fg%2F1vzg269k?entry=ttu","<iframe src=""https://www.google.com/maps/embed?pb=!1m18!1m12!1m3!1d1052.6574399039612!2d139.62608585292506!3d35.48897393446095!2m3!1f0!2f0!3f0!3m2!1i1024!2i768!4f13.1!3m3!1m2!1s0x60185ea3b9e754af%3A0xd5e16a551ed89b06!2z44Kt44OD44OB44OzIOWPiw!5e0!3m2!1sja!2sjp!4v1710747184303!5m2!1sja!2sjp"" width=""600"" height=""450"" style=""border:0;"" allowfullscreen="""" loading=""lazy"" referrerpolicy=""no-referrer-when-downgrade""></iframe>",神奈川県,横浜市神奈川区,六角橋1-7-21,白楽駅,"・東急東横線白楽駅西口
・白楽駅から112m",045-431-1152,,https://tabelog.com/kanagawa/A1401/A140205/14002176/,35.488975349787154,139.62688544543357
ラトリエ ドゥ シュクル,らとりえどぅしゅくる,ガトーフレーズ,"https://www.google.com/maps/place/%E3%83%A9%E3%83%88%E3%83%AA%E3%82%A8+%E3%83%89%E3%82%A5+%E3%82%B7%E3%83%A5%E3%82%AF%E3%83%AB/@35.7446324,139.881482,17.21z/data=!4m15!1m8!3m7!1s0x601885c5a6898eb9:0x54ad6a91f25d2988!2z44CSMTMzLTAwNTEg5p2x5Lqs6YO95rGf5oi45bed5Yy65YyX5bCP5bKp77yW5LiB55uu77yV4oiS77yVIOOCs-ODvOODneWkp-a5ig!3b1!8m2!3d35.7447532!4d139.8836691!16s%2Fg%2F12hykbp3s!3m5!1s0x601885c5a67cc4a3:0x86533cacc2e4d136!8m2!3d35.7447522!4d139.8837686!16s%2Fg%2F1v8y3_vc?entry=ttu","<iframe src=""https://www.google.com/maps/embed?pb=!1m18!1m12!1m3!1d2806.7298189610437!2d139.88148197902115!3d35.74463244962867!2m3!1f0!2f0!3f0!3m2!1i1024!2i768!4f13.1!3m3!1m2!1s0x601885c5a67cc4a3%3A0x86533cacc2e4d136!2z44Op44OI44Oq44KoIOODieOCpSDjgrfjg6Xjgq_jg6s!5e0!3m2!1sja!2sjp!4v1710775082919!5m2!1sja!2sjp"" width=""600"" height=""450"" style=""border:0;"" allowfullscreen="""" loading=""lazy"" referrerpolicy=""no-referrer-when-downgrade""></iframe>",東京都,江戸川区,北小岩6-5-5,京成小岩駅,"・京成本線「京成小岩駅」北口より徒歩3～4分
・京成小岩駅から286m",03-6458-9205,,https://tabelog.com/tokyo/A1312/A131204/13133707/,35.744938120657416,139.8838160624734
珍々,ぜんぜん,泡菜魚（魚の四川漬物煮込み）、豆腐のニンニクタレかけ、じゃがとろ,"https://www.google.com/maps/place/%E7%8F%8D%E3%80%85+%E3%82%BC%E3%83%B3%E3%82%BC%E3%83%B3/@35.7386772,139.8741451,16.37z/data=!4m10!1m2!2m1!1z5p2x5Lqs6YO95rGf5oi45bed5Yy66KW_5bCP5bKpNC05LTIwIOWztuadkeODk-ODqw!3m6!1s0x601885dc78ec7e07:0xc90a37c5cc96a610!8m2!3d35.73814!4d139.8802252!15sCjHmnbHkuqzpg73msZ_miLjlt53ljLropb_lsI_lsqk0LTktMjAg5bO25p2R44OT44OrWjoiOOadseS6rCDpg70g5rGf5oi45bedIOWMuiDopb8g5bCP5bKpIDQgOSAyMCDls7bmnZEg44OT44OrkgESc2ljaHVhbl9yZXN0YXVyYW50mgEkQ2hkRFNVaE5NRzluUzBWSlEwRm5TVU5IZGpseFpYRkJSUkFC4AEA!16s%2Fg%2F1tfbyfqd?entry=ttu","<iframe src=""https://www.google.com/maps/embed?pb=!1m18!1m12!1m3!1d5020.938725168197!2d139.87414513164077!3d35.738677230607216!2m3!1f0!2f0!3f0!3m2!1i1024!2i768!4f13.1!3m3!1m2!1s0x601885dc78ec7e07%3A0xc90a37c5cc96a610!2z54-N44CFIOOCvOODs-OCvOODsw!5e0!3m2!1sja!2sjp!4v1710747795109!5m2!1sja!2sjp"" width=""600"" height=""450"" style=""border:0;"" allowfullscreen="""" loading=""lazy"" referrerpolicy=""no-referrer-when-downgrade""></iframe>",東京都,江戸川区,西小岩4-9-20 島村ビル,京成小岩駅,"・京成本線,JR東日本総武本線小岩駅
・小岩駅から547m",03-3671-8777,,https://tabelog.com/tokyo/A1312/A131204/13020918/,35.73835994298545,139.88019987679775
ライトハウス,らいとはうす,レアチーズケーキ（ケーキセット）,"https://www.google.com/maps/place/%E3%83%A9%E3%82%A4%E3%83%88%E3%83%8F%E3%82%A6%E3%82%B9/@35.6952377,140.7354353,16.02z/data=!4m15!1m8!3m7!1s0x602321dd082f3c81:0xf250c5697d8cc9b6!2z44CSMjg5LTI3MDQg5Y2D6JGJ55yM5pet5biC5LiK5rC45LqV77yR77yS77yS77yY4oiS77yT!3b1!8m2!3d35.6938195!4d140.7398651!16s%2Fg%2F11clmc9387!3m5!1s0x602321dd08268d6f:0xa928499f35fe2085!8m2!3d35.6938361!4d140.7398833!16s%2Fg%2F1tl9mpyg?entry=ttu","<iframe src=""https://www.google.com/maps/embed?pb=!1m18!1m12!1m3!1d6404.91902303904!2d140.73543534138756!3d35.69523766785538!2m3!1f0!2f0!3f0!3m2!1i1024!2i768!4f13.1!3m3!1m2!1s0x602321dd08268d6f%3A0xa928499f35fe2085!2z44Op44Kk44OI44OP44Km44K5!5e0!3m2!1sja!2sjp!4v1710776887640!5m2!1sja!2sjp"" width=""600"" height=""450"" style=""border:0;"" allowfullscreen="""" loading=""lazy"" referrerpolicy=""no-referrer-when-downgrade""></iframe>",千葉県,旭市,上永井1228-3,,,0479-57-2971,,https://tabelog.com/chiba/A1205/A120502/12023910/,35.69610183108891,140.74012970794624
両国國技堂,りょうごくこくぎどう,だんごセット,"https://www.google.com/maps/place/%E4%B8%A1%E5%9B%BD%E5%9C%8B%E6%8A%80%E5%A0%82/@35.6947523,139.7913314,17.85z/data=!4m6!3m5!1s0x6018894a8d0cd2b9:0x236018d300479b33!8m2!3d35.69473!4d139.7921393!16s%2Fg%2F1tg6kjsb?entry=ttu","<iframe src=""https://www.google.com/maps/embed?pb=!1m18!1m12!1m3!1d1801.1292882770426!2d139.79133144717332!3d35.69475229337129!2m3!1f0!2f0!3f0!3m2!1i1024!2i768!4f13.1!3m3!1m2!1s0x6018894a8d0cd2b9%3A0x236018d300479b33!2z5Lih5Zu95ZyL5oqA5aCC!5e0!3m2!1sja!2sjp!4v1710777658568!5m2!1sja!2sjp"" width=""600"" height=""450"" style=""border:0;"" allowfullscreen="""" loading=""lazy"" referrerpolicy=""no-referrer-when-downgrade""></iframe>",東京都,墨田区,両国2-17-3,両国駅,"・JR両国駅　徒歩
・都営大江戸線両国駅　徒歩
・両国駅から195m",03-3631-3856,,https://tabelog.com/tokyo/A1312/A131201/13066478/,35.6947539008234,139.79210499704953
ちゃんこ割烹 大内,ちゃんこかっぽうおおうち,山芋千切り、ちゃんこ鍋（鳥そっぷ）、しめのうどん,"https://www.google.com/maps/place/%E3%81%A1%E3%82%83%E3%82%93%E3%81%93%E5%89%B2%E7%83%B9+%E5%A4%A7%E5%86%85/@35.694228,139.7916416,17.35z/data=!4m15!1m8!3m7!1s0x6018894a7440ec2b:0xf7b0152892583b4f!2z44CSMTMwLTAwMjYg5p2x5Lqs6YO95aKo55Sw5Yy65Lih5Zu977yS5LiB55uu77yZ4oiS77yWIOWkp-WGheODk-ODqw!3b1!8m2!3d35.6935635!4d139.7930782!16s%2Fg%2F12hlt55p3!3m5!1s0x6018894a743e0b07:0xa257210e8b73b4d5!8m2!3d35.6935885!4d139.793093!16s%2Fg%2F1v8x254g?entry=ttu","<iframe src=""https://www.google.com/maps/embed?pb=!1m18!1m12!1m3!1d2550.2527551963954!2d139.79164158919238!3d35.6942280347514!2m3!1f0!2f0!3f0!3m2!1i1024!2i768!4f13.1!3m3!1m2!1s0x6018894a743e0b07%3A0xa257210e8b73b4d5!2z44Gh44KD44KT44GT5Ymy54O5IOWkp-WGhQ!5e0!3m2!1sja!2sjp!4v1710749748358!5m2!1sja!2sjp"" width=""600"" height=""450"" style=""border:0;"" allowfullscreen="""" loading=""lazy"" referrerpolicy=""no-referrer-when-downgrade""></iframe>",東京都,墨田区,両国2-9-6,両国駅,・両国駅から271m,03-3635-5349,,https://tabelog.com/tokyo/A1312/A131201/13023529/,35.69366226699245,139.79315307325498
珈琲道場 侍,こーひーどうじょうさむらい,フレーバーコーヒー（ブルーベリー）とコーヒーゼリー,"https://www.google.com/maps/place/%E7%8F%88%E7%90%B2%E9%81%93%E5%A0%B4+%E4%BE%8D/@35.6970262,139.8267954,17.99z/data=!3m1!5s0x601888c3f9f56bd7:0xd846029f8145af03!4m14!1m7!3m6!1s0x601888c3f9eb9c83:0x70be573c25ebae10!2z44CSMTM2LTAwNzEg5p2x5Lqs6YO95rGf5p2x5Yy65LqA5oi477yW5LiB55uu77yV77yX4oiS77yS77ySIOOCteODs-ODneODvOODk-ODqyAyZg!3b1!8m2!3d35.697003!4d139.8285708!3m5!1s0x601888c3f9ea7a13:0x5e2c65665033c418!8m2!3d35.6969586!4d139.8285677!16s%2Fg%2F1tkl3936?entry=ttu","<iframe src=""https://www.google.com/maps/embed?pb=!1m18!1m12!1m3!1d1631.7399330761293!2d139.8267953727191!3d35.6970262216262!2m3!1f0!2f0!3f0!3m2!1i1024!2i768!4f13.1!3m3!1m2!1s0x601888c3f9ea7a13%3A0x5e2c65665033c418!2z54-I55Cy6YGT5aC0IOS-jQ!5e0!3m2!1sja!2sjp!4v1710806629348!5m2!1sja!2sjp"" width=""600"" height=""450"" style=""border:0;"" allowfullscreen="""" loading=""lazy"" referrerpolicy=""no-referrer-when-downgrade""></iframe>",東京都,江東区,亀戸6-57-22 サンポービル2F,亀戸駅,"・JR総武本線亀戸駅東口より徒歩1分
・東武亀戸線亀戸駅より徒歩3分
・亀戸駅から144m",03-3638-4003,https://www.samurai-cafe.jp/,https://tabelog.com/tokyo/A1312/A131202/13018018/,35.696997700684776,139.828556744752
竹沢商店,たけざわしょうてん,牛豚煮込み,"https://www.google.com/maps/place/%E7%AB%B9%E6%B2%A2%E5%95%86%E5%BA%97/@35.6800907,139.833794,18.39z/data=!4m6!3m5!1s0x6018888b3666c7c7:0xb1bb55432f16ade6!8m2!3d35.6800142!4d139.8346386!16s%2Fg%2F1tdx_wfj?entry=ttu","<iframe src=""https://www.google.com/maps/embed?pb=!1m18!1m12!1m3!1d1239.2541202378954!2d139.83379402460898!3d35.68009069012367!2m3!1f0!2f0!3f0!3m2!1i1024!2i768!4f13.1!3m3!1m2!1s0x6018888b3666c7c7%3A0xb1bb55432f16ade6!2z56u55rKi5ZWG5bqX!5e0!3m2!1sja!2sjp!4v1710750933668!5m2!1sja!2sjp"" width=""600"" height=""450"" style=""border:0;"" allowfullscreen="""" loading=""lazy"" referrerpolicy=""no-referrer-when-downgrade""></iframe>",東京都,江東区,北砂4-40-11,大島駅,"・大島駅から1,099m",03-5634-3248,https://sunagin.goemon.tokyo/listings/takezawasyouten/,https://tabelog.com/tokyo/A1312/A131202/13112594/,35.68068795797556,139.83476336043336
あさり屋さん,あさりやさん,あさり御飯,"https://www.google.com/maps/place/%E3%81%82%E3%81%95%E3%82%8A%E5%B1%8B%E3%81%95%E3%82%93/@35.6798219,139.8323335,19.38z/data=!4m6!3m5!1s0x601888f490db6201:0xea00452373cc4414!8m2!3d35.6798258!4d139.8326557!16s%2Fg%2F1tdbfdr9?entry=ttu","<iframe src=""https://www.google.com/maps/embed?pb=!1m18!1m12!1m3!1d620.9930316245685!2d139.83233348518772!3d35.67982191820583!2m3!1f0!2f0!3f0!3m2!1i1024!2i768!4f13.1!3m3!1m2!1s0x601888f490db6201%3A0xea00452373cc4414!2z44GC44GV44KK5bGL44GV44KT!5e0!3m2!1sja!2sjp!4v1710751333751!5m2!1sja!2sjp"" width=""600"" height=""450"" style=""border:0;"" allowfullscreen="""" loading=""lazy"" referrerpolicy=""no-referrer-when-downgrade""></iframe>",東京都,江東区,北砂4-25-5,大島駅,"・大島駅から1,150m",090-3545-8395,https://sunagin.goemon.tokyo/listings/asariya/,https://tabelog.com/tokyo/A1312/A131202/13130563/,35.67989270865443,139.8326607294716
増英蒲鉾店,ますえいかまぼこてん,おでん（しゅうまい巻・中華揚）,"https://www.google.com/maps/place/%E5%A2%97%E8%8B%B1%E8%92%B2%E9%89%BE%E5%BA%97/@35.6800379,139.8290064,16.47z/data=!4m6!3m5!1s0x601888f155e5da59:0xfd46f290de25d747!8m2!3d35.6797361!4d139.8317722!16s%2Fg%2F1tt1sp4s?entry=ttu","<iframe src=""https://www.google.com/maps/embed?pb=!1m18!1m12!1m3!1d4666.043154433019!2d139.82900642639612!3d35.680037916249475!2m3!1f0!2f0!3f0!3m2!1i1024!2i768!4f13.1!3m3!1m2!1s0x601888f155e5da59%3A0xfd46f290de25d747!2z5aKX6Iux6JKy6Ym-5bqX!5e0!3m2!1sja!2sjp!4v1710750779111!5m2!1sja!2sjp"" width=""600"" height=""450"" style=""border:0;"" allowfullscreen="""" loading=""lazy"" referrerpolicy=""no-referrer-when-downgrade""></iframe>",東京都,江東区,北砂4-24-5,西大島駅,"・砂町銀座商店街内
・西大島駅から1,180m",03-3645-1802,https://sunagin.goemon.tokyo/listings/masueikamaboko/,https://tabelog.com/tokyo/A1312/A131202/13127445/,35.67979324467943,139.83177140544836
手づくりの店 さかい,てづくりのみせさかい,まぐろメンチ,"https://www.google.com/maps/place/%E6%89%8B%E3%81%A5%E3%81%8F%E3%82%8A%E3%81%AE%E5%BA%97+%E3%81%95%E3%81%8B%E3%81%84/@35.6798491,139.8311383,19.39z/data=!4m6!3m5!1s0x601888f47e45b4c9:0x40f03661fb742ae!8m2!3d35.6797972!4d139.8315729!16s%2Fg%2F1tgg9yy_?entry=ttu","<iframe src=""https://www.google.com/maps/embed?pb=!1m18!1m12!1m3!1d618.5259515093909!2d139.83113831239856!3d35.67984909771586!2m3!1f0!2f0!3f0!3m2!1i1024!2i768!4f13.1!3m3!1m2!1s0x601888f47e45b4c9%3A0x40f03661fb742ae!2z5omL44Gl44GP44KK44Gu5bqXIOOBleOBi-OBhA!5e0!3m2!1sja!2sjp!4v1710751658637!5m2!1sja!2sjp"" width=""600"" height=""450"" style=""border:0;"" allowfullscreen="""" loading=""lazy"" referrerpolicy=""no-referrer-when-downgrade""></iframe>",東京都,江東区,北砂5-1-33,西大島駅,"・西大島駅から1,162m",03-3646-5670,https://sunagin.goemon.tokyo/listings/sakai/,https://tabelog.com/tokyo/A1312/A131202/13133414/,35.67984741936718,139.83156851721262
だるまや餅菓子店,だるまやもちがしてん,自家製かき氷（くり）,"https://www.google.com/maps/place/%E3%81%A0%E3%82%8B%E3%81%BE%E3%82%84%E9%A4%85%E8%8F%93%E5%AD%90%E5%BA%97/@35.7621908,139.7211881,19.79z/data=!4m15!1m8!3m7!1s0x601892ed8206961f:0x9c6170ef1f3f611d!2z44CSMTE0LTAwMzEg5p2x5Lqs6YO95YyX5Yy65Y2B5p2h5Luy5Y6f77yR5LiB55uu77yT4oiS77yWIOOBi-OBhOOBmuOChOODk-ODqw!3b1!8m2!3d35.7621233!4d139.721397!16s%2Fg%2F12hkx9rj5!3m5!1s0x601892ed82476d85:0x56a88bdd0611bf4f!8m2!3d35.7622283!4d139.7213893!16s%2Fg%2F1trc4zb9?entry=ttu","<iframe src=""https://www.google.com/maps/embed?pb=!1m18!1m12!1m3!1d2075.340553465732!2d139.7200232057271!3d35.76189790812193!2m3!1f0!2f0!3f0!3m2!1i1024!2i768!4f13.1!3m3!1m2!1s0x601892ed82476d85%3A0x56a88bdd0611bf4f!2z44Gg44KL44G-44KE6aSF6I-T5a2Q5bqX!5e0!3m2!1sja!2sjp!4v1710807829194!5m2!1sja!2sjp"" width=""600"" height=""450"" style=""border:0;"" allowfullscreen="""" loading=""lazy"" referrerpolicy=""no-referrer-when-downgrade""></iframe>",東京都,北区,十条仲原1-3-6,十条駅,"・ＪＲ埼京線　十条駅北口徒歩3分
・十条銀座商店街
・十条駅から232m",03-3908-6644,,https://tabelog.com/tokyo/A1323/A132304/13008769/,35.762263443280425,139.7213505480896
大衆割烹 田や,たいしゅうかっぽうたや,今日のお通し（一口肉団子・おくら・一口唐揚げ）、鯖のくんせい、ももハムとキムチ、かきフライ、とんぶりしらす、玉子焼,"https://www.google.com/maps/place/%E5%A4%A7%E8%A1%86%E5%89%B2%E7%83%B9+%E7%94%B0%E3%82%84%EF%BC%88%E3%81%9F%E3%82%84%EF%BC%89/@35.7613364,139.7222652,19.56z/data=!4m15!1m8!3m7!1s0x601892f2bfd561cd:0xf04e0f07ab6a82f2!2z44CSMTE0LTAwMzIg5p2x5Lqs6YO95YyX5Yy65Lit5Y2B5p2h77yS5LiB55uu77yS77yS4oiS77yS!3b1!8m2!3d35.7615705!4d139.7228783!16s%2Fg%2F12hkbr9dp!3m5!1s0x601892f2941c117b:0xf61d87583e5c6493!8m2!3d35.7615241!4d139.7229075!16s%2Fg%2F1tftr2hm?entry=ttu","<iframe src=""https://www.google.com/maps/embed?pb=!1m18!1m12!1m3!1d548.2557270343597!2d139.72226519461628!3d35.761336401885686!2m3!1f0!2f0!3f0!3m2!1i1024!2i768!4f13.1!3m3!1m2!1s0x601892f2941c117b%3A0xf61d87583e5c6493!2z5aSn6KGG5Ymy54O5IOeUsOOChO-8iOOBn-OChO-8iQ!5e0!3m2!1sja!2sjp!4v1710752082652!5m2!1sja!2sjp"" width=""600"" height=""450"" style=""border:0;"" allowfullscreen="""" loading=""lazy"" referrerpolicy=""no-referrer-when-downgrade""></iframe>",東京都,北区,中十条2-22-2,"
十条駅","・十条駅より徒歩5分
・十条駅から152m",03-3909-1881,,https://tabelog.com/tokyo/A1323/A132304/13044760/,35.761565653511944,139.72290835553574
cafe. わかば堂,かふぇわかばどう,フォンダンショコラ バニラアイス添え,"https://www.google.com/maps/place/cafe.+%E3%82%8F%E3%81%8B%E3%81%B0%E5%A0%82/@35.7483834,139.8034369,18.61z/data=!4m15!1m8!3m7!1s0x60188e4f8a8ac7b1:0x53e5a3b428999d68!2z44CSMTIwLTAwMzQg5p2x5Lqs6YO96Laz56uL5Yy65Y2D5L2P77yR5LiB55uu77yT77yR4oiS77yY!3b1!8m2!3d35.7482146!4d139.8036266!16s%2Fg%2F11g6ytv054!3m5!1s0x60188e4f8aeec535:0x7ae66fa3c4362a4f!8m2!3d35.7481629!4d139.8036885!16s%2Fg%2F1tjxfng7?entry=ttu","<iframe src=""https://www.google.com/maps/embed?pb=!1m18!1m12!1m3!1d1064.0580710639965!2d139.80343694208383!3d35.74838339509818!2m3!1f0!2f0!3f0!3m2!1i1024!2i768!4f13.1!3m3!1m2!1s0x60188e4f8aeec535%3A0x7ae66fa3c4362a4f!2zY2FmZS4g44KP44GL44Gw5aCC!5e0!3m2!1sja!2sjp!4v1710809264561!5m2!1sja!2sjp"" width=""600"" height=""450"" style=""border:0;"" allowfullscreen="""" loading=""lazy"" referrerpolicy=""no-referrer-when-downgrade""></iframe>",東京都,足立区,千住1丁目31-8,北千住駅,"・北千住駅より徒歩5分以内
・北千住駅から176m",050-5890-6194,,https://tabelog.com/tokyo/A1324/A132402/13026497/,35.74819884043251,139.80369783336457
ライカノ,らいかの,タイ野菜（カイラン）の炒め、タイ東北部ソーセージ焼き、牛挽肉とタイスパイシーハーブ、煮込み鶏肉とジャガイモカレー、汁無し麺 鶏肉トッピング、カノムトイ（おもちとココナッツミルク蒸し）,"https://www.google.com/maps/place/%E3%83%A9%E3%82%A4%E3%82%AB%E3%83%8E/@35.749231,139.8025335,18.27z/data=!3m1!5s0x60188e45806825d5:0x9432199bd20ae1e8!4m6!3m5!1s0x60188e45805dc917:0x1967ef99fe1399ce!8m2!3d35.7492834!4d139.8034846!16s%2Fg%2F1vfwcvw9?entry=ttu","<iframe src=""https://www.google.com/maps/embed?pb=!1m18!1m12!1m3!1d1340.3932260358133!2d139.8025334708404!3d35.74923096910659!2m3!1f0!2f0!3f0!3m2!1i1024!2i768!4f13.1!3m3!1m2!1s0x60188e45805dc917%3A0x1967ef99fe1399ce!2z44Op44Kk44Kr44OO!5e0!3m2!1sja!2sjp!4v1710752928396!5m2!1sja!2sjp"" width=""600"" height=""450"" style=""border:0;"" allowfullscreen="""" loading=""lazy"" referrerpolicy=""no-referrer-when-downgrade""></iframe>",東京都,足立区,千住2-62 ラ・フェットビル１Ｆ,北千住駅,"・北千住駅西口より徒歩3分
・北千住駅から143m",050-5600-0328,,https://tabelog.com/tokyo/A1324/A132402/13003768/,35.749344507292,139.8034927679039
お食事 樹,おしょくじいつき,三品定食（鴨と青菜のマリネ、ナス味噌炒め、ぶり大根）、コロッケ,"https://www.google.com/maps/place/%E3%81%8A%E9%A3%9F%E4%BA%8B+%E6%A8%B9/@35.7004007,139.5583346,18.86z/data=!4m14!1m7!3m6!1s0x6018efb09f493225:0xfe0fda2108a1cc0f!2z44GK6aOf5LqLIOaouQ!8m2!3d35.700059!4d139.5588799!16s%2Fg%2F1tm8kmbh!3m5!1s0x6018efb09f493225:0xfe0fda2108a1cc0f!8m2!3d35.700059!4d139.5588799!16s%2Fg%2F1tm8kmbh?entry=ttu","<iframe src=""https://www.google.com/maps/embed?pb=!1m18!1m12!1m3!1d894.0118076991337!2d139.5583345976823!3d35.70040067010448!2m3!1f0!2f0!3f0!3m2!1i1024!2i768!4f13.1!3m3!1m2!1s0x6018efb09f493225%3A0xfe0fda2108a1cc0f!2z44GK6aOf5LqLIOaouQ!5e0!3m2!1sja!2sjp!4v1710810401244!5m2!1sja!2sjp"" width=""600"" height=""450"" style=""border:0;"" allowfullscreen="""" loading=""lazy"" referrerpolicy=""no-referrer-when-downgrade""></iframe>",東京都,三鷹市,上連雀2-3-7,三鷹駅,"・三鷹駅から徒歩６分
・三鷹駅から352m",0422-48-1338,,https://tabelog.com/tokyo/A1320/A132002/13059752/,35.700147042870306,139.5588881845693
プチモンド,ぷちもんど,フルーツサンドセット,"https://www.google.com/maps/place/%E3%83%97%E3%83%81%E3%83%A2%E3%83%B3%E3%83%89/@35.781059,139.7166136,18.1z/data=!3m1!5s0x6018931c73a35a53:0x52f0acf0b89773e1!4m6!3m5!1s0x6018931c730ba5af:0xbcfb4c5baa1fdbe3!8m2!3d35.7810781!4d139.7181325!16s%2Fg%2F1tfhzlkw?entry=ttu","<iframe src=""https://www.google.com/maps/embed?pb=!1m18!1m12!1m3!1d809.1919560403715!2d139.71748876961456!3d35.78107918626542!2m3!1f0!2f0!3f0!3m2!1i1024!2i768!4f13.1!3m3!1m2!1s0x6018931c730ba5af%3A0xbcfb4c5baa1fdbe3!2z44OX44OB44Oi44Oz44OJ!5e0!3m2!1sja!2sjp!4v1710820468709!5m2!1sja!2sjp"" width=""600"" height=""450"" style=""border:0;"" allowfullscreen="""" loading=""lazy"" referrerpolicy=""no-referrer-when-downgrade""></iframe>",東京都,北区,赤羽台3-1-18,赤羽岩淵駅,"・東京メトロ南北線 赤羽岩淵駅2番出口から徒歩６分
・赤羽岩淵駅から432m",03-3907-0750,,https://tabelog.com/tokyo/A1323/A132305/13008765/,35.78152873838994,139.71807699338225
川栄,かわえい,ほろほろ鳥の合わせ盛り、ほろあぶら串・ほろバラ串、ほろスープ、鰻のオムレツ、うな丼,"https://www.google.com/maps/place/%E5%B7%9D%E6%A0%84/@35.7795063,139.7185466,16.93z/data=!4m15!1m8!3m7!1s0x6018931ce3d2d2cd:0x944a317319ed30d5!2z44CSMTE1LTAwNDUg5p2x5Lqs6YO95YyX5Yy66LWk576977yR5LiB55uu77yR77yZ4oiS77yR77yW!3b1!8m2!3d35.7800952!4d139.72015!16s%2Fg%2F11c71j24l3!3m5!1s0x6018931ce3ce60f9:0x6af9ba4fa2b0a7e7!8m2!3d35.7800778!4d139.720191!16s%2Fg%2F1tpf73v5?entry=ttu","<iframe src=""https://www.google.com/maps/embed?pb=!1m18!1m12!1m3!1d3407.2030830967833!2d139.7185465860555!3d35.77950634573669!2m3!1f0!2f0!3f0!3m2!1i1024!2i768!4f13.1!3m3!1m2!1s0x6018931ce3ce60f9%3A0x6af9ba4fa2b0a7e7!2z5bed5qCE!5e0!3m2!1sja!2sjp!4v1710821102462!5m2!1sja!2sjp"" width=""600"" height=""450"" style=""border:0;"" allowfullscreen="""" loading=""lazy"" referrerpolicy=""no-referrer-when-downgrade""></iframe>",東京都,北区,赤羽1-19-16,赤羽駅,"・ＪＲ埼京線・京浜東北線 赤羽駅東口より徒歩３分
・赤羽駅から264m",050-5869-0614,,https://tabelog.com/tokyo/A1323/A132305/13008753/,35.78027138176213,139.7201841507015
手作りケーキ Petit,てづくりけーきぷち,シロの生シュー,"https://www.google.com/maps/place/%E6%89%8B%E4%BD%9C%E3%82%8A%E3%82%B1%E3%83%BC%E3%82%AD+Petit+%E3%83%97%E3%83%81/@35.4500057,139.6285581,18.25z/data=!4m15!1m8!3m7!1s0x60185c6092957ad7:0x325b233570a538ca!2z44CSMjMxLTAwNjMg56We5aWI5bed55yM5qiq5rWc5biC5Lit5Yy66Iqx5ZKy55S677yS5LiB55uu77yX77yR!3b1!8m2!3d35.4500221!4d139.6287224!16s%2Fg%2F12hn2tl0j!3m5!1s0x60185c608d4ae319:0xe9be023c2fd0187a!8m2!3d35.4500318!4d139.6287413!16s%2Fg%2F1tw1dt1t?entry=ttu","<iframe src=""https://www.google.com/maps/embed?pb=!1m18!1m12!1m3!1d1369.2738479135467!2d139.62855809765117!3d35.45000565497743!2m3!1f0!2f0!3f0!3m2!1i1024!2i768!4f13.1!3m3!1m2!1s0x60185c608d4ae319%3A0xe9be023c2fd0187a!2z5omL5L2c44KK44Kx44O844KtIFBldGl0IOODl-ODgQ!5e0!3m2!1sja!2sjp!4v1710822285890!5m2!1sja!2sjp"" width=""600"" height=""450"" style=""border:0;"" allowfullscreen="""" loading=""lazy"" referrerpolicy=""no-referrer-when-downgrade""></iframe>",神奈川県,横浜市中区,花咲町2-71,桜木町駅,・桜木町駅から203m,045-241-3520,,https://tabelog.com/kanagawa/A1401/A140102/14002497/,35.45011427540726,139.6287795752255
台湾料理 第一亭,たいわんりょうりだいいちてい,チート（豚胃）のしょうが炒め、ホルモン炒め、豚舌、パタン,"https://www.google.com/maps/place/%E5%8F%B0%E6%B9%BE%E6%96%99%E7%90%86+%E7%AC%AC%E4%B8%80%E4%BA%AD/@35.4455726,139.627035,17.96z/data=!3m1!5s0x60185c8aed3dec47:0x46f744332152ed04!4m15!1m8!3m7!1s0x60185c8aed1615f3:0x3b6d74d148318070!2z44CSMjMxLTAwNjYg56We5aWI5bed55yM5qiq5rWc5biC5Lit5Yy65pel44OO5Ye655S677yR5LiB55uu77yS77yQIOS4reiPr-esrOS4gOS6rQ!3b1!8m2!3d35.4456075!4d139.6281049!16s%2Fg%2F12hv7xyw0!3m5!1s0x60185c8aed81d66d:0xc3c5dffaf8a33407!8m2!3d35.4456444!4d139.6280667!16s%2Fg%2F1tx_6b5r?entry=ttu","<iframe src=""https://www.google.com/maps/embed?pb=!1m18!1m12!1m3!1d1673.6945025414768!2d139.62703504328437!3d35.44557260923838!2m3!1f0!2f0!3f0!3m2!1i1024!2i768!4f13.1!3m3!1m2!1s0x60185c8aed81d66d%3A0xc3c5dffaf8a33407!2z5Y-w5rm-5paZ55CGIOesrOS4gOS6rQ!5e0!3m2!1sja!2sjp!4v1710825780215!5m2!1sja!2sjp"" width=""600"" height=""450"" style=""border:0;"" allowfullscreen="""" loading=""lazy"" referrerpolicy=""no-referrer-when-downgrade""></iframe>",神奈川県,横浜市中区,日ノ出町1-20,日ノ出町駅,"・京急本線日ノ出町駅より徒歩2分程度
・日ノ出町駅から122m",045-231-6137,,https://tabelog.com/kanagawa/A1401/A140102/14004194/,35.44572788166717,139.62807918016696
七滝茶屋,ななだるぢゃや,クラッシュド・ストロベリー,"https://www.google.com/maps/place/%E4%B8%83%E6%BB%9D%E8%8C%B6%E5%B1%8B/@34.7935742,138.9348405,17z/data=!4m6!3m5!1s0x6019e44959e254ef:0x9e40b29bc4101100!8m2!3d34.7937993!4d138.9360968!16s%2Fg%2F1tjfgxbq?entry=ttu","<iframe src=""https://www.google.com/maps/embed?pb=!1m18!1m12!1m3!1d3275.1322302484978!2d138.93484053085203!3d34.79357417301086!2m3!1f0!2f0!3f0!3m2!1i1024!2i768!4f13.1!3m3!1m2!1s0x6019e44959e254ef%3A0x9e40b29bc4101100!2z5LiD5rud6Iy25bGL!5e0!3m2!1sja!2sjp!4v1710831816668!5m2!1sja!2sjp"" width=""600"" height=""450"" style=""border:0;"" allowfullscreen="""" loading=""lazy"" referrerpolicy=""no-referrer-when-downgrade""></iframe>",静岡県,賀茂郡河津町,梨本363-4,,・伊豆急伊豆急行線河津駅より東海バス河津七滝停留所下車,0558-36-8070,,https://tabelog.com/shizuoka/A2205/A220503/22000301/,34.79412360228771,138.93607614407912
わさび園 かどや,わさびえんかどや,生ワサビ付わさび丼,"https://www.google.com/maps/place/%E3%82%8F%E3%81%95%E3%81%B3%E5%9C%92+%E3%81%8B%E3%81%A9%E3%82%84/@34.7942428,138.9322825,16.83z/data=!4m15!1m8!3m7!1s0x6019e44c073c4581:0xe35dfa6885c04dd4!2z44CSNDEzLTA1MDEg6Z2Z5bKh55yM6LOA6IyC6YOh5rKz5rSl55S65qKo5pys77yT77yX77yR4oiS77yR!3b1!8m2!3d34.7940968!4d138.9353356!16s%2Fg%2F11clpwnmff!3m5!1s0x6019e44c073c4581:0xafaad901f241d025!8m2!3d34.79403!4d138.9353391!16s%2Fg%2F1wl4qnv5?entry=ttu","<iframe src=""https://www.google.com/maps/embed?pb=!1m18!1m12!1m3!1d3696.164098742805!2d138.93228251424225!3d34.794242768113016!2m3!1f0!2f0!3f0!3m2!1i1024!2i768!4f13.1!3m3!1m2!1s0x6019e44c073c4581%3A0xafaad901f241d025!2z44KP44GV44Gz5ZySIOOBi-OBqeOChA!5e0!3m2!1sja!2sjp!4v1710832944398!5m2!1sja!2sjp"" width=""600"" height=""450"" style=""border:0;"" allowfullscreen="""" loading=""lazy"" referrerpolicy=""no-referrer-when-downgrade""></iframe>",静岡県,賀茂郡河津町,梨本371-1,,・伊豆急伊豆急行線河津駅より東海バス「河津七滝」停留所,0558-35-7290,,https://tabelog.com/shizuoka/A2205/A220503/22014866/,34.79410858902158,138.93535671345404
本手焼きせんべい 喜作,ほんてやきせんべいきさく,わざとこわし割煎（二度付）,"https://www.google.com/maps/place/%E6%9C%AC%E6%89%8B%E7%84%BC%E3%81%8D%E3%81%9B%E3%82%93%E3%81%B9%E3%81%84+%E5%96%9C%E4%BD%9C/@35.708584,139.7309879,17.79z/data=!4m15!1m8!3m7!1s0x60188cfff7f0b9c3:0x374c777f67556e09!2z44CSMTEyLTAwMTQg5p2x5Lqs6YO95paH5Lqs5Yy66Zai5Y-j77yR5LiB55uu77yX4oiS77ySIDctMiDnrKzkuow!3b1!8m2!3d35.7083602!4d139.7319192!16s%2Fg%2F12hkqym53!3m5!1s0x60188cfff81c22d9:0xba5a83a1f3e4b2c1!8m2!3d35.7083463!4d139.7319803!16s%2Fg%2F1tdqnnf2?entry=ttu","<iframe src=""https://www.google.com/maps/embed?pb=!1m18!1m12!1m3!1d1874.6330068777734!2d139.73098794507285!3d35.708584018995104!2m3!1f0!2f0!3f0!3m2!1i1024!2i768!4f13.1!3m3!1m2!1s0x60188cfff81c22d9%3A0xba5a83a1f3e4b2c1!2z5pys5omL54S844GN44Gb44KT44G544GEIOWWnOS9nA!5e0!3m2!1sja!2sjp!4v1710833659041!5m2!1sja!2sjp"" width=""600"" height=""450"" style=""border:0;"" allowfullscreen="""" loading=""lazy"" referrerpolicy=""no-referrer-when-downgrade""></iframe>",東京都,文京区,関口1-7-2,江戸川橋駅,・江戸川橋駅から191m,03-3268-1121,,https://tabelog.com/tokyo/A1309/A130905/13050868/,35.70846051467172,139.73197503994598
魚谷,うおたに,きんめ鯛刺身、銀だら西京焼、えんがわポン酢、ばくだん納豆、きんきの煮付け,"https://www.google.com/maps/place/%E9%AD%9A%E8%B0%B7/@35.7085248,139.733451,18.13z/data=!4m15!1m8!3m7!1s0x60188c5513ba8b8d:0x154fb5732249b99f!2z44CSMTEyLTAwMTQg5p2x5Lqs6YO95paH5Lqs5Yy66Zai5Y-j77yR5LiB55uu77yS4oiS77yY!3b1!8m2!3d35.7080902!4d139.7334792!16s%2Fg%2F11bw3xw6vz!3m5!1s0x60188c551398f035:0xe58da60003ea5259!8m2!3d35.7081313!4d139.7334991!16s%2Fg%2F1tdkrsyn?entry=ttu","<iframe src=""https://www.google.com/maps/embed?pb=!1m18!1m12!1m3!1d1477.4649197307735!2d139.73345100559678!3d35.708524815984035!2m3!1f0!2f0!3f0!3m2!1i1024!2i768!4f13.1!3m3!1m2!1s0x60188c551398f035%3A0xe58da60003ea5259!2z6a2a6LC3!5e0!3m2!1sja!2sjp!4v1710833952512!5m2!1sja!2sjp"" width=""600"" height=""450"" style=""border:0;"" allowfullscreen="""" loading=""lazy"" referrerpolicy=""no-referrer-when-downgrade""></iframe>",東京都,文京区,関口1-2-8,江戸川橋駅,・江戸川橋駅から191m,03-3268-8129,,https://tabelog.com/tokyo/A1309/A130905/13091985/,35.70822882823388,139.73349014843882
洋菓子＆ジェラート ドーカン,ようがしあんどじぇらーとどーかん,桜塩ミルクジェラート,"https://www.google.com/maps/place/%E6%B4%8B%E8%8F%93%E5%AD%90%EF%BC%86%E3%82%B8%E3%82%A7%E3%83%A9%E3%83%BC%E3%83%88+%E3%83%89%E3%83%BC%E3%82%AB%E3%83%B3/@35.7064956,139.6814966,18.45z/data=!4m15!1m8!3m7!1s0x6018f2c8058d282f:0x379ebb8b05266af4!2z44CSMTY0LTAwMDMg5p2x5Lqs6YO95Lit6YeO5Yy65p2x5Lit6YeO77yT5LiB55uu77yS4oiS77yS!3b1!8m2!3d35.706509!4d139.681267!16s%2Fg%2F11clmnsg1t!3m5!1s0x6018f2c8058d57a9:0xa202ceebd81ca5a!8m2!3d35.7064242!4d139.6812718!16s%2Fg%2F1tyyx4bl?entry=ttu","<iframe src=""https://www.google.com/maps/embed?pb=!1m18!1m12!1m3!1d1186.1244863757006!2d139.68149656509968!3d35.706495564660436!2m3!1f0!2f0!3f0!3m2!1i1024!2i768!4f13.1!3m3!1m2!1s0x6018f2c8058d57a9%3A0xa202ceebd81ca5a!2z5rSL6I-T5a2Q77yG44K444Kn44Op44O844OIIOODieODvOOCq-ODsw!5e0!3m2!1sja!2sjp!4v1710835543758!5m2!1sja!2sjp"" width=""600"" height=""450"" style=""border:0;"" allowfullscreen="""" loading=""lazy"" referrerpolicy=""no-referrer-when-downgrade""></iframe>",東京都,中野区,東中野3-2-2,東中野駅,"・JR総武線 東中野駅西口より徒歩３分
・東中野駅から197m",03-5386-3666,,https://tabelog.com/tokyo/A1319/A131901/13004346/,35.70649715943666,139.68125303306613
パオ・キャラヴァンサライ,ぱおきゃらゔぁんさらい,ドーグ、カバブ・コフタ、ラムロースのたたき、カラヒィ（羊）、ラグマン,"https://www.google.com/maps/place/%E3%83%91%E3%82%AA%E3%83%BB%E3%82%AD%E3%83%A3%E3%83%A9%E3%83%B4%E3%82%A1%E3%83%B3%E3%82%B5%E3%83%A9%E3%82%A4/@35.7061619,139.6821309,19.03z/data=!3m1!5s0x6018f2c842f7f29f:0x38bbfccadfb782a5!4m15!1m8!3m7!1s0x6018f2c842e35823:0xa87ad65e26c2e47e!2z44CSMTY0LTAwMDMg5p2x5Lqs6YO95Lit6YeO5Yy65p2x5Lit6YeO77yS5LiB55uu77yS77yV4oiS77yWIOODkeOCqiDjgrPjg7Pjg5Hjgqbjg7Pjg4k!3b1!8m2!3d35.7058313!4d139.6823437!16s%2Fg%2F12hrd_ggm!3m5!1s0x6018f2c842e44af5:0x258869133ea2c683!8m2!3d35.7058495!4d139.6824089!16s%2Fg%2F1tdyqv08?entry=ttu","<iframe src=""https://www.google.com/maps/embed?pb=!1m18!1m12!1m3!1d795.2297960587848!2d139.68213092739538!3d35.70616194761724!2m3!1f0!2f0!3f0!3m2!1i1024!2i768!4f13.1!3m3!1m2!1s0x6018f2c842e44af5%3A0x258869133ea2c683!2z44OR44Kq44O744Kt44Oj44Op44O044Kh44Oz44K144Op44Kk!5e0!3m2!1sja!2sjp!4v1710835928013!5m2!1sja!2sjp"" width=""600"" height=""450"" style=""border:0;"" allowfullscreen="""" loading=""lazy"" referrerpolicy=""no-referrer-when-downgrade""></iframe>",東京都,中野区,東中野2-25-6,東中野駅,"・JR東中野駅西口 大江戸線A3出口から徒歩２分
・東中野駅から169m",03-3371-3750,,https://tabelog.com/tokyo/A1319/A131901/13006879/,35.705895714423974,139.6823995392234
山源,やまげん,和風キムチ、ホルモン（塩）、ハツ、ナンコツ、コメカミ、ホルモン（タレ）、ハツ,"https://www.google.com/maps/place/%E5%B1%B1%E6%BA%90/@35.7468995,139.7173493,17.32z/data=!3m1!5s0x6018929bacbaed5b:0xbb08103b50c095fc!4m15!1m8!3m7!1s0x6018929bac98945f:0x603ae0cddb79cc55!2z44CSMTczLTAwMDQg5p2x5Lqs6YO95p2_5qmL5Yy65p2_5qmL77yR5LiB55uu77yS77yS4oiS77yR77yQ!3b1!8m2!3d35.7472429!4d139.7188951!16s%2Fg%2F1q5blcs6m!3m5!1s0x6018929ba5bbfad1:0xfd31a34e6a7014fe!8m2!3d35.7472884!4d139.7188629!16s%2Fg%2F1tf8t2x5?entry=ttu","<iframe src=""https://www.google.com/maps/embed?pb=!1m18!1m12!1m3!1d2585.498205849739!2d139.71734925052746!3d35.746899491280274!2m3!1f0!2f0!3f0!3m2!1i1024!2i768!4f13.1!3m3!1m2!1s0x6018929ba5bbfad1%3A0xfd31a34e6a7014fe!2z5bGx5rqQ!5e0!3m2!1sja!2sjp!4v1710836639048!5m2!1sja!2sjp"" width=""600"" height=""450"" style=""border:0;"" allowfullscreen="""" loading=""lazy"" referrerpolicy=""no-referrer-when-downgrade""></iframe>",東京都,板橋区,板橋1-22-10,新板橋駅,"・ＪＲ埼京線　板橋駅西口より徒歩３分
・新板橋駅から188m",03-3963-4656,,https://tabelog.com/tokyo/A1322/A132201/13025646/,35.747507836520896,139.71888263722002
BORRACHO,ぼらーちょ,プチハッシュ、マッシュルームガーリック、カキグラタン、ボラーチョスープ,"https://www.google.com/maps/place/BORRACHO/@35.6553017,139.6884515,17.46z/data=!4m15!1m8!3m7!1s0x6018f3557c051a8f:0x269969b026f4b174!2z44CSMTUzLTAwNDQg5p2x5Lqs6YO955uu6buS5Yy65aSn5qmL77yS5LiB55uu77yW4oiS77yR77yYIOOCueOCv-ODvOODnuODs-OCt-ODp-ODsw!3b1!8m2!3d35.6552847!4d139.6889239!16s%2Fg%2F12hq288qv!3m5!1s0x6018f3557c1b3997:0xc8f0834f34a7135b!8m2!3d35.6552904!4d139.6889917!16s%2Fg%2F1tp08469?entry=ttu","<iframe src=""https://www.google.com/maps/embed?pb=!1m18!1m12!1m3!1d2361.3094632994766!2d139.68845154561464!3d35.65530168320344!2m3!1f0!2f0!3f0!3m2!1i1024!2i768!4f13.1!3m3!1m2!1s0x6018f3557c1b3997%3A0xc8f0834f34a7135b!2sBORRACHO!5e0!3m2!1sja!2sjp!4v1710837124224!5m2!1sja!2sjp"" width=""600"" height=""450"" style=""border:0;"" allowfullscreen="""" loading=""lazy"" referrerpolicy=""no-referrer-when-downgrade""></iframe>",東京都,目黒区,大橋2-6-18,神泉駅,"・京王井の頭線 神泉駅南口より徒歩9分
・神泉駅から473m",03-3465-4452,,https://tabelog.com/tokyo/A1318/A131801/13020966/,35.65546994975897,139.68898294043078
喫茶デン,きっさでん,コーヒーフロート,"https://www.google.com/maps/place/%E5%96%AB%E8%8C%B6%E3%83%87%E3%83%B3/@35.7224681,139.7793156,16.87z/data=!4m6!3m5!1s0x60188e85a4dffdc7:0xb5e31dd5c41111a5!8m2!3d35.7221666!4d139.7814632!16s%2Fg%2F1tftr28t?entry=ttu","<iframe src=""https://www.google.com/maps/embed?pb=!1m18!1m12!1m3!1d3551.3318164361303!2d139.77931561357187!3d35.72246805645958!2m3!1f0!2f0!3f0!3m2!1i1024!2i768!4f13.1!3m3!1m2!1s0x60188e85a4dffdc7%3A0xb5e31dd5c41111a5!2z5Zar6Iy244OH44Oz!5e0!3m2!1sja!2sjp!4v1710837476364!5m2!1sja!2sjp"" width=""600"" height=""450"" style=""border:0;"" allowfullscreen="""" loading=""lazy"" referrerpolicy=""no-referrer-when-downgrade""></iframe>",東京都,台東区,根岸3-3-18 メゾン根岸（鶯谷）１Ｆ,,"・JR山手線・京浜東北線 鶯谷駅南口より徒歩５分
・鶯谷駅から312m",03-3875-3009,,https://tabelog.com/tokyo/A1311/A131104/13041212/,35.72246328159841,139.7815035030222
鳥椿 鶯谷朝顔通り店,とりつばきうぐいすだにあさがおどおりてん,油淋肝、名物ハムカツ、アボカド鶏メンチ、おろしポン酢、鳥鍋めし,"https://www.google.com/maps/place/%E9%B3%A5%E6%A4%BF+%E9%B6%AF%E8%B0%B7%E6%9C%9D%E9%A1%94%E9%80%9A%E3%82%8A%E5%BA%97/@35.7206958,139.7785438,18.01z/data=!4m14!1m7!3m6!1s0x60188e84e1d3e71f:0x6cf78b3d7ed168e2!2z44CSMTEwLTAwMDMg5p2x5Lqs6YO95Y-w5p2x5Yy65qC55bK477yR5LiB55uu77yR4oiS77yR77yVIOa4oei-uuODk-ODqyAxZg!3b1!8m2!3d35.7206422!4d139.7805612!3m5!1s0x60188e84e1d25573:0x5395910690bcda60!8m2!3d35.7206497!4d139.7805719!16s%2Fg%2F1thnnsc3?entry=ttu","<iframe src=""https://www.google.com/maps/embed?pb=!1m18!1m12!1m3!1d1605.5980756828696!2d139.77854384980824!3d35.72069575489409!2m3!1f0!2f0!3f0!3m2!1i1024!2i768!4f13.1!3m3!1m2!1s0x60188e84e1d25573%3A0x5395910690bcda60!2z6bOl5qS_IOm2r-iwt-acnemhlOmAmuOCiuW6lw!5e0!3m2!1sja!2sjp!4v1710837836501!5m2!1sja!2sjp"" width=""600"" height=""450"" style=""border:0;"" allowfullscreen="""" loading=""lazy"" referrerpolicy=""no-referrer-when-downgrade""></iframe>",東京都,台東区,根岸1-1-15 渡辺ビル１F,鶯谷駅,"・鶯谷駅南口より徒歩4分
・鶯谷駅から243m",03-5808-9188,,https://tabelog.com/tokyo/A1311/A131104/13132192/,35.72074006237245,139.7806144971314
フランス菓子屋シュルプリース小竹向原店,ふらんすがしやしゅるぷりーすこたけむかいはらてん,トンネルロール,"https://www.google.com/maps/place/%E3%83%95%E3%83%A9%E3%83%B3%E3%82%B9%E8%8F%93%E5%AD%90%E5%B1%8B%E3%82%B7%E3%83%A5%E3%83%AB%E3%83%97%E3%83%AA%E3%83%BC%E3%82%B9%E5%B0%8F%E7%AB%B9%E5%90%91%E5%8E%9F%E5%BA%97/@35.7429371,139.6803884,18.04z/data=!4m6!3m5!1s0x6018ed48125223a9:0x470039a05c91581e!8m2!3d35.742935!4d139.6814924!16s%2Fg%2F1tmk8jmq?entry=ttu","<iframe src=""https://www.google.com/maps/embed?pb=!1m18!1m12!1m3!1d1572.8325636907482!2d139.68038844223582!3d35.74293711300167!2m3!1f0!2f0!3f0!3m2!1i1024!2i768!4f13.1!3m3!1m2!1s0x6018ed48125223a9%3A0x470039a05c91581e!2z44OV44Op44Oz44K56I-T5a2Q5bGL44K344Ol44Or44OX44Oq44O844K55bCP56u55ZCR5Y6f5bqX!5e0!3m2!1sja!2sjp!4v1710838202453!5m2!1sja!2sjp"" width=""600"" height=""450"" style=""border:0;"" allowfullscreen="""" loading=""lazy"" referrerpolicy=""no-referrer-when-downgrade""></iframe>",東京都,板橋区,向原3-10-6 レジデンス大畠ビル２Ｆ,小竹向原駅,"・地下鉄有楽町線 小竹向原 ３番出口
・小竹向原駅から183m",03-3958-1120,,https://tabelog.com/tokyo/A1321/A132101/13047532/,35.743023816295654,139.68149315953215
まちのパーラー,まちのぱーらー,ローストポークサンドイッチ、自家製黒糖ジンジャーエール、ほうれん草とリコッタチーズのキッシュ、サルシッチャセット,"https://www.google.com/maps/place/%E3%81%BE%E3%81%A1%E3%81%AE%E3%83%91%E3%83%BC%E3%83%A9%E3%83%BC/@35.7434133,139.6754383,17.9z/data=!4m14!1m7!3m6!1s0x6018ed3f29c981c3:0xd81022f10a456e46!2z44CSMTc2LTAwMDQg5p2x5Lqs6YO957e06aas5Yy65bCP56u555S677yS5LiB55uu77yU77yQ4oiS77yUIDHpmo4!3b1!8m2!3d35.7435449!4d139.6753846!3m5!1s0x6018ed3ed66468b3:0x1ac3387d5fe7e51e!8m2!3d35.74352!4d139.675324!16s%2Fg%2F1tj45yq1?entry=ttu","<iframe src=""https://www.google.com/maps/embed?pb=!1m18!1m12!1m3!1d1740.1411748089556!2d139.67543829296253!3d35.74341326308973!2m3!1f0!2f0!3f0!3m2!1i1024!2i768!4f13.1!3m3!1m2!1s0x6018ed3ed66468b3%3A0x1ac3387d5fe7e51e!2z44G-44Gh44Gu44OR44O844Op44O8!5e0!3m2!1sja!2sjp!4v1710838506502!5m2!1sja!2sjp"" width=""600"" height=""450"" style=""border:0;"" allowfullscreen="""" loading=""lazy"" referrerpolicy=""no-referrer-when-downgrade""></iframe>",東京都,練馬区,小竹町2-40-4 1階,小竹向原駅,"・東京メトロ有楽町線 小竹向原駅２番出口より徒歩５分
・小竹向原駅から383m",03-6312-1333,,https://tabelog.com/tokyo/A1321/A132101/13126515/,35.743640210422704,139.67527686531682
ふく扇,ふくせん,たこせん,"https://www.google.com/maps/place/%E3%81%B5%E3%81%8F%E6%89%87/@35.7513109,139.7579011,18.32z/data=!4m15!1m8!3m7!1s0x60188df14ec9c373:0x235a8f888bcd1ee6!2z44CSMTE2LTAwMTEg5p2x5Lqs6YO96I2S5bed5Yy66KW_5bC-5LmF77yW5LiB55uu77yS77yZ4oiS77yX!3b1!8m2!3d35.7514322!4d139.7584795!16s%2Fg%2F12hkmlhpk!3m5!1s0x60188df14eb51b0b:0x931afd38646acccb!8m2!3d35.751427!4d139.7584926!16s%2Fg%2F1tf7b2n8?entry=ttu","<iframe src=""https://www.google.com/maps/embed?pb=!1m18!1m12!1m3!1d1292.4924394362313!2d139.75790107342254!3d35.75131088514964!2m3!1f0!2f0!3f0!3m2!1i1024!2i768!4f13.1!3m3!1m2!1s0x60188df14eb51b0b%3A0x931afd38646acccb!2z44G144GP5omH!5e0!3m2!1sja!2sjp!4v1710838898254!5m2!1sja!2sjp"" width=""600"" height=""450"" style=""border:0;"" allowfullscreen="""" loading=""lazy"" referrerpolicy=""no-referrer-when-downgrade""></iframe>",東京都,荒川区,西尾久6-29-7,荒川遊園地前駅,・荒川遊園地前駅から87m,,,https://tabelog.com/tokyo/A1323/A132303/13008441/,35.751500304122516,139.758457810125
どん平,どんぺい,炎の酒鍋セット、とんかつ麦とろミニミニセット定食（麦とろ飯・とんかつ）,"https://www.google.com/maps/place/%E3%81%A9%E3%82%93%E5%B9%B3/@35.7491463,139.7643856,18.23z/data=!4m15!1m8!3m7!1s0x60188de4df534801:0xcf0695fdb3554fa3!2z44CSMTE2LTAwMTEg5p2x5Lqs6YO96I2S5bed5Yy66KW_5bC-5LmF77yS5LiB55uu77yS4oiS77yV!3b1!8m2!3d35.7489987!4d139.765188!16s%2Fg%2F12hkszx_z!3m5!1s0x60188de4df582b93:0x6b6ed3ed3db6b21b!8m2!3d35.7490506!4d139.7652064!16s%2Fg%2F1thnns9_?entry=ttu","<iframe src=""https://www.google.com/maps/embed?pb=!1m18!1m12!1m3!1d1384.6255263703229!2d139.76438563326346!3d35.749146318391944!2m3!1f0!2f0!3f0!3m2!1i1024!2i768!4f13.1!3m3!1m2!1s0x60188de4df582b93%3A0x6b6ed3ed3db6b21b!2z44Gp44KT5bmz!5e0!3m2!1sja!2sjp!4v1710839642604!5m2!1sja!2sjp"" width=""600"" height=""450"" style=""border:0;"" allowfullscreen="""" loading=""lazy"" referrerpolicy=""no-referrer-when-downgrade""></iframe>",東京都,荒川区,西尾久2-2-5,宮ノ前駅,・宮ノ前駅から117m,03-3893-8982,,https://tabelog.com/tokyo/A1323/A132303/13012282/,35.74906999004028,139.76517013719035
木村屋　駅通り本店,きむらやえきどおりほんてん,だんだんどうも、あささささ,"https://www.google.com/maps/place/%EF%BC%88%E6%A0%AA%EF%BC%89%E6%9C%A8%E6%9D%91%E5%B1%8B+%E9%A7%85%E9%80%9A%E5%BA%97/@37.1338816,138.7575742,17.44z/data=!4m6!3m5!1s0x5ff5ee9e90babde7:0x2d3da5179fa76a3e!8m2!3d37.1339708!4d138.7596986!16s%2Fg%2F1tfcynjb?entry=ttu","<iframe src=""https://www.google.com/maps/embed?pb=!1m18!1m12!1m3!1d2351.119898466137!2d138.7575741740758!3d37.13388164149598!2m3!1f0!2f0!3f0!3m2!1i1024!2i768!4f13.1!3m3!1m2!1s0x5ff5ee9e90babde7%3A0x2d3da5179fa76a3e!2z77yI5qCq77yJ5pyo5p2R5bGLIOmnhemAmuW6lw!5e0!3m2!1sja!2sjp!4v1710857076848!5m2!1sja!2sjp"" width=""600"" height=""450"" style=""border:0;"" allowfullscreen="""" loading=""lazy"" referrerpolicy=""no-referrer-when-downgrade""></iframe>",新潟県,十日町市,駅通り98−1,十日町駅,・十日町駅から290m,025-752-2280,,https://tabelog.com/niigata/A1504/A150403/15009024/,37.134042859661626,138.75972329807877
臚雷亭,ろーらいてい,ピータン、エビのマヨネーズ合え,"https://www.google.com/maps/place/%E8%87%9A%E9%9B%B7%E4%BA%AD/@35.6076036,139.7359973,20.37z/data=!4m6!3m5!1s0x60188a7c891d10e9:0xdf5675e487763c39!8m2!3d35.6076153!4d139.7363414!16s%2Fg%2F11c0pz7b8_?entry=ttu","<iframe src=""https://www.google.com/maps/embed?pb=!1m18!1m12!1m3!1d314.5579478851122!2d139.7359972696525!3d35.607603607268!2m3!1f0!2f0!3f0!3m2!1i1024!2i768!4f13.1!3m3!1m2!1s0x60188a7c891d10e9%3A0xdf5675e487763c39!2z6Iea6Zu35Lqt!5e0!3m2!1sja!2sjp!4v1710857489982!5m2!1sja!2sjp"" width=""600"" height=""450"" style=""border:0;"" allowfullscreen="""" loading=""lazy"" referrerpolicy=""no-referrer-when-downgrade""></iframe>",東京都,品川区,東大井5-4-15,大井町駅,"・JR京浜東北線大井町駅より徒歩2～3分
・大井町駅から164m",,,https://tabelog.com/tokyo/A1315/A131501/13113876/,35.6076370188584,139.73633955862897
だるまや,だるまや,生姜のみじん切り載せ冷奴（お通し）、いわしユッケ、いわしのつみれ汁、いわしのチーズロール、いわしの蒲焼、いわしの握り寿司,"https://www.google.com/maps/place/%E3%81%A0%E3%82%8B%E3%81%BE%E3%82%84/@35.6092149,139.7331925,17.22z/data=!4m6!3m5!1s0x60188a7ccada4b2d:0x475c0e65488e3522!8m2!3d35.6094611!4d139.7356806!16s%2Fg%2F1v2jcxb7?entry=ttu","<iframe src=""https://www.google.com/maps/embed?pb=!1m18!1m12!1m3!1d2788.2899957139807!2d139.73319254117376!3d35.60921493888719!2m3!1f0!2f0!3f0!3m2!1i1024!2i768!4f13.1!3m3!1m2!1s0x60188a7ccada4b2d%3A0x475c0e65488e3522!2z44Gg44KL44G-44KE!5e0!3m2!1sja!2sjp!4v1710858716807!5m2!1sja!2sjp"" width=""600"" height=""450"" style=""border:0;"" allowfullscreen="""" loading=""lazy"" referrerpolicy=""no-referrer-when-downgrade""></iframe>",東京都,品川区,南品川6-11-28,大井町駅,・大井町駅から235m,03-3450-8858,,https://tabelog.com/tokyo/A1315/A131501/13080413/,35.6095265177106,139.73568328193093
みゆき食堂,みゆきしょくどう,もやしと肉のピリ辛イタメ、味噌にんにく青唐辛子入り、ジャンボぎょうざハーフ、やきとり,"https://www.google.com/maps/place/%E3%81%BF%E3%82%86%E3%81%8D%E9%A3%9F%E5%A0%82/@35.7713041,139.5187325,18.62z/data=!3m1!5s0x6018e7d2ebca2d39:0x4f945b795e8d7d72!4m6!3m5!1s0x6018e7d2e9e0047d:0x2a0c7888ad183ffb!8m2!3d35.7712319!4d139.5193592!16s%2Fg%2F1tggtk82?entry=ttu","<iframe src=""https://www.google.com/maps/embed?pb=!1m18!1m12!1m3!1d1051.6209583820707!2d139.51873245060727!3d35.77130409063968!2m3!1f0!2f0!3f0!3m2!1i1024!2i768!4f13.1!3m3!1m2!1s0x6018e7d2e9e0047d%3A0x2a0c7888ad183ffb!2z44G_44KG44GN6aOf5aCC!5e0!3m2!1sja!2sjp!4v1710858989039!5m2!1sja!2sjp"" width=""600"" height=""450"" style=""border:0;"" allowfullscreen="""" loading=""lazy"" referrerpolicy=""no-referrer-when-downgrade""></iframe>",東京都,清瀬市,松山1-9-18,清瀬駅,"・西武池袋線 清瀬駅より徒歩２分
・清瀬駅から105m",042-491-4006,,https://tabelog.com/tokyo/A1328/A132803/13040781/,35.77128853737921,139.5193737556987
三徳堂,さんとくどう,天才花茶と台湾仙草のセット,"https://www.google.com/maps/place/%E4%B8%89%E5%BE%B3%E5%A0%82/@35.6704322,139.7624647,17.58z/data=!3m1!5s0x60188be89e3464e1:0x5cd77945e575f135!4m6!3m5!1s0x60188be89e2672e1:0x6b38fd811458ebc!8m2!3d35.6695097!4d139.7625639!16s%2Fg%2F1tzgp66q?entry=ttu","<iframe src=""https://www.google.com/maps/embed?pb=!1m18!1m12!1m3!1d2169.6713211765564!2d139.7624647050187!3d35.67043223506202!2m3!1f0!2f0!3f0!3m2!1i1024!2i768!4f13.1!3m3!1m2!1s0x60188be89e2672e1%3A0x6b38fd811458ebc!2z5LiJ5b6z5aCC!5e0!3m2!1sja!2sjp!4v1710859986061!5m2!1sja!2sjp"" width=""600"" height=""450"" style=""border:0;"" allowfullscreen="""" loading=""lazy"" referrerpolicy=""no-referrer-when-downgrade""></iframe>",東京都,中央区,銀座7-8-19 喜多ビル 1F,銀座駅,"・東京メトロ日比谷線 銀座駅B3出口より徒歩4分
・銀座駅から300m",03-5568-6882,,https://tabelog.com/tokyo/A1301/A130101/13053842/,35.66953082092487,139.76256524985607
韓国家庭料理 なじみ亭,かんこくかていりょうりなじみてい,お通し（ミョルチ・ポクン）、韓国風天ぷら、ポッサムキムチ、チャプチェ、韓国風のり巻き、イカとソーメンの旨辛炒め、鱈の餃子、参鶏湯,"https://www.google.com/maps/place/%E9%9F%93%E5%9B%BD%E5%AE%B6%E5%BA%AD%E6%96%99%E7%90%86+%E3%81%AA%E3%81%98%E3%81%BF%E4%BA%AD/@35.6678062,139.7585635,17.45z/data=!3m1!5s0x60188be85a0f05ad:0x4ceb5b0529abbdf0!4m15!1m8!3m7!1s0x60188be9112a3c6b:0x5a6d00811db7550d!2z44CSMTA0LTAwNjEg5p2x5Lqs6YO95Lit5aSu5Yy66YqA5bqn77yY5LiB55uu77yV4oiS55Wq5Zyw5YWIIOmKgOW6p-ODiuOCpOODszHlj7fppKg!3b1!8m2!3d35.6681142!4d139.7591783!16s%2Fg%2F12hnlnt8f!3m5!1s0x60188be916da3975:0x7840bc9a713b695d!8m2!3d35.6680716!4d139.7591223!16s%2Fg%2F1tks69c9?entry=ttu","<iframe src=""https://www.google.com/maps/embed?pb=!1m18!1m12!1m3!1d2370.589568215927!2d139.7585635229277!3d35.667806230880075!2m3!1f0!2f0!3f0!3m2!1i1024!2i768!4f13.1!3m3!1m2!1s0x60188be916da3975%3A0x7840bc9a713b695d!2z6Z-T5Zu95a625bqt5paZ55CGIOOBquOBmOOBv-S6rQ!5e0!3m2!1sja!2sjp!4v1710862148264!5m2!1sja!2sjp"" width=""600"" height=""450"" style=""border:0;"" allowfullscreen="""" loading=""lazy"" referrerpolicy=""no-referrer-when-downgrade""></iframe>",東京都,中央区,銀座8-5 銀座ナイン1号館,新橋駅,・新橋駅から201m,03-3571-3250,,https://tabelog.com/tokyo/A1301/A130103/13129629/,35.668204645056456,139.75909708971298
NARAYA CAFE ならやあん,ならやかふぇならやあん,ならやん ごまあん,"https://www.google.com/maps/place/NARAYA+CAFE+%E3%81%AA%E3%82%89%E3%82%84%E3%81%82%E3%82%93/@35.2422474,139.0624843,18.28z/data=!4m15!1m8!3m7!1s0x6019a39c18d722eb:0x161d2e6eac856ba3!2z44CSMjUwLTA0MDQg56We5aWI5bed55yM6Laz5p-E5LiL6YOh566x5qC555S65a6u44OO5LiL77yU77yQ77yU4oiS77yR77yT!3b1!8m2!3d35.2421344!4d139.0630374!16s%2Fg%2F11txrw7hp3!3m5!1s0x6019a23dbcfc577d:0x16c9345fbe89de0!8m2!3d35.2422785!4d139.0629762!16s%2Fg%2F1thvg_7f?entry=ttu","<iframe src=""https://www.google.com/maps/embed?pb=!1m18!1m12!1m3!1d1342.7365418831666!2d139.06248433334383!3d35.242247409340976!2m3!1f0!2f0!3f0!3m2!1i1024!2i768!4f13.1!3m3!1m2!1s0x6019a23dbcfc577d%3A0x16c9345fbe89de0!2zTkFSQVlBIENBRkUg44Gq44KJ44KE44GC44KT!5e0!3m2!1sja!2sjp!4v1710862750772!5m2!1sja!2sjp"" width=""600"" height=""450"" style=""border:0;"" allowfullscreen="""" loading=""lazy"" referrerpolicy=""no-referrer-when-downgrade""></iframe>",神奈川県,足柄下郡箱根町,宮ノ下404-13,宮ノ下駅,"・箱根登山鉄道宮ノ下駅よりすぐ
・宮ノ下駅から25m",0460-82-1259,,https://tabelog.com/kanagawa/A1410/A141001/14013960/,35.242361146018624,139.0629352719644
食呑楽処 いろり家,しょくどんらくしょいろりや,旬野菜のゴマ和え、芦ノ湖ワカサギの南蛮漬け、足柄牛のステーキ丼（ご飯大盛り）,"https://www.google.com/maps/place/%E7%AE%B1%E6%A0%B9%E3%83%BB%E5%AE%AE%E3%83%8E%E4%B8%8B+%E9%A3%9F%E5%91%91%E6%A5%BD%E5%87%A6+%E3%81%84%E3%82%8D%E3%82%8A%E5%AE%B6/@35.2430284,139.0569559,17.18z/data=!4m15!1m8!3m7!1s0x6019a21761699257:0x1647312df08c38b7!2z44CSMjUwLTA0MDQg56We5aWI5bed55yM6Laz5p-E5LiL6YOh566x5qC555S65a6u44OO5LiL77yS77yZ77yW!3b1!8m2!3d35.2431326!4d139.0579776!16s%2Fg%2F11clrgtk1g!3m5!1s0x6019a23dbef19311:0xac15900a5587974f!8m2!3d35.2431106!4d139.0578564!16s%2Fg%2F1tfv55bt?entry=ttu","<iframe src=""https://www.google.com/maps/embed?pb=!1m18!1m12!1m3!1d312.16829297022036!2d139.05779593535365!3d35.243212342911015!2m3!1f0!2f0!3f0!3m2!1i1024!2i768!4f13.1!3m3!1m2!1s0x6019a23dbef19311%3A0xac15900a5587974f!2z566x5qC544O75a6u44OO5LiLIOmjn-WRkealveWHpiDjgYTjgo3jgorlrrY!5e0!3m2!1sja!2sjp!4v1710862862130!5m2!1sja!2sjp"" width=""600"" height=""450"" style=""border:0;"" allowfullscreen="""" loading=""lazy"" referrerpolicy=""no-referrer-when-downgrade""></iframe>",神奈川県,足柄下郡箱根町,宮ノ下296,宮ノ下駅,"・宮ノ下駅より徒歩8分
・宮ノ下駅から482m",0460-82-3831,,https://tabelog.com/kanagawa/A1410/A141001/14031445/,35.24329478360493,139.0578633510363
大幸園 小宮本店,だいこうえんこみやほんてん,豚足、ヒレカルビ、ナムル三種盛り、上ロース（生玉子付きすき焼き風）、ユッケジャンスープ,"https://www.google.com/maps/place/%E5%A4%A7%E5%B9%B8%E5%9C%92+%E5%B0%8F%E5%AE%AE%E6%9C%AC%E5%BA%97/@35.6873074,139.3705177,17.04z/data=!4m15!1m8!3m7!1s0x6018e1e42b3814d3:0xa4b835e21bcdc480!2z44CSMTkyLTAwMzEg5p2x5Lqs6YO95YWr546L5a2Q5biC5bCP5a6u55S677yY77yW77yT4oiS77yT!3b1!8m2!3d35.6874267!4d139.3729107!16s%2Fg%2F11cln5_y5j!3m5!1s0x6018e1e42b47e599:0x4ad4beaccb9cdc3c!8m2!3d35.6874413!4d139.3729019!16s%2Fg%2F1vzv3pcz?entry=ttu","<iframe src=""https://www.google.com/maps/embed?pb=!1m18!1m12!1m3!1d3143.956945279469!2d139.37051771559973!3d35.68730744724765!2m3!1f0!2f0!3f0!3m2!1i1024!2i768!4f13.1!3m3!1m2!1s0x6018e1e42b47e599%3A0x4ad4beaccb9cdc3c!2z5aSn5bm45ZySIOWwj-WuruacrOW6lw!5e0!3m2!1sja!2sjp!4v1710863137599!5m2!1sja!2sjp"" width=""600"" height=""450"" style=""border:0;"" allowfullscreen="""" loading=""lazy"" referrerpolicy=""no-referrer-when-downgrade""></iframe>",東京都,八王子市,小宮町863-3,小宮駅,・小宮駅から430m,042-642-1129,,https://tabelog.com/tokyo/A1329/A132904/13107594/,35.68764139018058,139.37287013451885
海の食卓 島カフェ Barca,うみのしょくたくしまかふぇばるか,焼だこ,"https://www.google.com/maps/place/%E6%B5%B7%E3%81%AE%E9%A3%9F%E5%8D%93+%E5%B3%B6%E3%82%AB%E3%83%95%E3%82%A7+Barca/@34.7041866,137.0076592,17.65z/data=!3m1!5s0x6004edb07629a1f3:0xbd350b8b4a1b9b38!4m15!1m8!3m7!1s0x6004edb07627cad7:0xfd6975102997d2f6!2z44CSNDcwLTM1MDQg5oSb55-l55yM55-l5aSa6YOh5Y2X55-l5aSa55S65pel6ZaT6LOA5bO25bCP5oi45Zyw77yX77yS!3b1!8m2!3d34.7041025!4d137.0096303!16s%2Fg%2F12hkf0hlx!3m5!1s0x6004edb0736fc333:0xfab889bc3673db1e!8m2!3d34.704016!4d137.0097358!16s%2Fg%2F11b66cbxfy?entry=ttu","<iframe src=""https://www.google.com/maps/embed?pb=!1m18!1m12!1m3!1d2084.176224187912!2d137.0076591777511!3d34.704186593251016!2m3!1f0!2f0!3f0!3m2!1i1024!2i768!4f13.1!3m3!1m2!1s0x6004edb0736fc333%3A0xfab889bc3673db1e!2z5rW344Gu6aOf5Y2TIOWztuOCq-ODleOCpyBCYXJjYQ!5e0!3m2!1sja!2sjp!4v1710863491248!5m2!1sja!2sjp"" width=""600"" height=""450"" style=""border:0;"" allowfullscreen="""" loading=""lazy"" referrerpolicy=""no-referrer-when-downgrade""></iframe>",愛知県,知多郡南知多町,日間賀島小戸地72,,,0569-68-2895,,https://tabelog.com/aichi/A2304/A230403/23053770/,34.70412344835203,137.0097485167557
乙姫,おとひめ,赤車海老（塩ゆで）、大あさり焼、しらす天ぷら、たこめし,"https://www.google.com/maps/place/%E4%B9%99%E5%A7%AB/@34.7033158,136.9963844,17.96z/data=!4m15!1m8!3m7!1s0x6004ed98e326189d:0x7197cfe113b61320!2z44CSNDcwLTM1MDQg5oSb55-l55yM55-l5aSa6YOh5Y2X55-l5aSa55S65pel6ZaT6LOA5bO26KW_5rWc77yR77yS!3b1!8m2!3d34.703187!4d136.997751!16s%2Fg%2F11clm3tcf1!3m5!1s0x6004ed98fcb15555:0xfcbf471c2e02301!8m2!3d34.7031762!4d136.9977639!16s%2Fg%2F11df0g6lwq?entry=ttu","<iframe src=""https://www.google.com/maps/embed?pb=!1m18!1m12!1m3!1d1687.915892313209!2d136.9963844075609!3d34.703315755119796!2m3!1f0!2f0!3f0!3m2!1i1024!2i768!4f13.1!3m3!1m2!1s0x6004ed98fcb15555%3A0xfcbf471c2e02301!2z5LmZ5aer!5e0!3m2!1sja!2sjp!4v1710863634802!5m2!1sja!2sjp"" width=""600"" height=""450"" style=""border:0;"" allowfullscreen="""" loading=""lazy"" referrerpolicy=""no-referrer-when-downgrade""></iframe>",愛知県,知多郡南知多町,日間賀島西浜12,,,0569-68-2107,,https://tabelog.com/aichi/A2304/A230403/23007247/,34.70314554632474,136.9977591428831
タンドールバル カマルプール,たんどーるばるかまるぷーる,マンゴーラッシー、ブナオイスター、チーズクルチャ、タンドーリ、ラムミントカレー＆バスマティライス,"https://www.google.com/maps/place/%E3%82%BF%E3%83%B3%E3%83%89%E3%83%BC%E3%83%AB%E3%83%90%E3%83%AB+%E3%82%AB%E3%83%9E%E3%83%AB%E3%83%97%E3%83%BC%E3%83%AB/@35.6689844,139.808741,17.67z/data=!4m6!3m5!1s0x60188900fa120039:0x730274b44f0a67ea!8m2!3d35.6688781!4d139.8108588!16s%2Fg%2F11b77wg7xd?entry=ttu","<iframe src=""https://www.google.com/maps/embed?pb=!1m18!1m12!1m3!1d2042.37311572786!2d139.80874102448487!3d35.66898441526798!2m3!1f0!2f0!3f0!3m2!1i1024!2i768!4f13.1!3m3!1m2!1s0x60188900fa120039%3A0x730274b44f0a67ea!2z44K_44Oz44OJ44O844Or44OQ44OrIOOCq-ODnuODq-ODl-ODvOODqw!5e0!3m2!1sja!2sjp!4v1710865188150!5m2!1sja!2sjp"" width=""600"" height=""450"" style=""border:0;"" allowfullscreen="""" loading=""lazy"" referrerpolicy=""no-referrer-when-downgrade""></iframe>",東京都,江東区,東陽3-20-9 鈴木ビル 1F,木場駅,"・東京メトロ 東西線 木場駅 1出口より徒歩5分
・木場駅から374m",03-5633-5966,,https://tabelog.com/tokyo/A1313/A131303/13128960/,35.66899814539443,139.81089755537326
居酒屋まめぞ,いざかやまめぞ,せんちゃんサラダ、生ハム（ハモンセラーノ）、明太クリームパスタ、にぎす干、かつサンド,"https://www.google.com/maps/place/%E5%B1%85%E9%85%92%E5%B1%8B%E3%81%BE%E3%82%81%E3%81%9E/@35.7012247,139.7801264,16.31z/data=!4m15!1m8!3m7!1s0x60188ebaa7f0e5c7:0x25820c346b3b8d54!2z44CSMTExLTAwNTQg5p2x5Lqs6YO95Y-w5p2x5Yy66bOl6LaK77yR5LiB55uu77yR4oiS77yV!3b1!8m2!3d35.70229!4d139.7837931!16s%2Fg%2F11c1kfm197!3m5!1s0x60188ebaa7e4978d:0x28ca6804105234ca!8m2!3d35.7022925!4d139.7837627!16s%2Fg%2F1tvw4y81?entry=ttu","<iframe src=""https://www.google.com/maps/embed?pb=!1m18!1m12!1m3!1d5220.122016113816!2d139.78012637629624!3d35.701224657612734!2m3!1f0!2f0!3f0!3m2!1i1024!2i768!4f13.1!3m3!1m2!1s0x60188ebaa7e4978d%3A0x28ca6804105234ca!2z5bGF6YWS5bGL44G-44KB44Ge!5e0!3m2!1sja!2sjp!4v1710867793909!5m2!1sja!2sjp"" width=""600"" height=""450"" style=""border:0;"" allowfullscreen="""" loading=""lazy"" referrerpolicy=""no-referrer-when-downgrade""></iframe>",東京都,台東区,鳥越1-1-5,新御徒町駅,・都営大江戸線・TX 新御徒町駅A3出口より約7分,050-5592-5193,,https://tabelog.com/tokyo/A1311/A131103/13100691/,35.70262134564482,139.78380822280099
青山シャンウェイ 本店,あおやましゃんうぇいほんてん,蒸し鶏のネギ醤油（もも）、天使の海老ロンジン茶炒め、毛沢東スペアリブ、黒チャーハン、麻辣湯,"https://www.google.com/maps/place/%E9%9D%92%E5%B1%B1%E3%82%B7%E3%83%A3%E3%83%B3%E3%82%A6%E3%82%A7%E3%82%A4+%E6%9C%AC%E5%BA%97/@35.6818313,139.7024685,16.7z/data=!4m14!1m7!3m6!1s0x60188cc7a791cd1f:0xde9323fc7e474243!2z44CSMTUxLTAwNTEg5p2x5Lqs6YO95riL6LC35Yy65Y2D6aeE44Kx6LC377yU5LiB55uu77yS77yZ4oiS77yR77ySIOWMl-WPgumBk-ODgOOCpOODpOODouODs-ODieODkeODrOOCuSAxZg!3b1!8m2!3d35.6810368!4d139.7038735!3m5!1s0x60188c98e94b967b:0xe2932f4c0ef99c9!8m2!3d35.6811484!4d139.7039202!16s%2Fg%2F1xgzbs7p?entry=ttu","<iframe src=""https://www.google.com/maps/embed?pb=!1m18!1m12!1m3!1d3989.6054287705483!2d139.70246846727386!3d35.68183125780201!2m3!1f0!2f0!3f0!3m2!1i1024!2i768!4f13.1!3m3!1m2!1s0x60188c98e94b967b%3A0xe2932f4c0ef99c9!2z6Z2S5bGx44K344Oj44Oz44Km44Kn44KkIOacrOW6lw!5e0!3m2!1sja!2sjp!4v1710868257838!5m2!1sja!2sjp"" width=""600"" height=""450"" style=""border:0;"" allowfullscreen="""" loading=""lazy"" referrerpolicy=""no-referrer-when-downgrade""></iframe>",東京都,渋谷区,千駄ヶ谷4-29-12 北参道ダイヤモンドパレス 1F,北参道駅,・北参道駅から272m,03-3475-3425,,https://tabelog.com/tokyo/A1304/A130403/13263163/,35.681398854335484,139.7039141539709
ベトナムレストラン ティティ,べとなむれすとらんてぃてぃ,タマリンドジュース、海老の生春巻き、揚げ春巻き、肉入りおもち、とりおこわ、レモングラスのビーフン（ブン・ボー・フエ）、ベトナムコーヒー,"https://www.google.com/maps/place/%E3%83%99%E3%83%88%E3%83%8A%E3%83%A0%E3%83%AC%E3%82%B9%E3%83%88%E3%83%A9%E3%83%B3+%E3%83%86%E3%82%A3%E3%83%86%E3%82%A3+Vietnamese+Restaurant+THI+THI/@35.562386,139.7177117,16.96z/data=!3m1!5s0x6018605a24a8ccd1:0x27f05a9bbb457cfd!4m14!1m7!3m6!1s0x6018605a235bb0af:0x76348186265124be!2z44OZ44OI44OK44Og44Os44K544OI44Op44OzIOODhuOCo-ODhuOCoyBWaWV0bmFtZXNlIFJlc3RhdXJhbnQgVEhJIFRISQ!8m2!3d35.5624677!4d139.7201954!16s%2Fg%2F1tk4r3qq!3m5!1s0x6018605a235bb0af:0x76348186265124be!8m2!3d35.5624677!4d139.7201954!16s%2Fg%2F1tk4r3qq?entry=ttu","<iframe src=""https://www.google.com/maps/embed?pb=!1m18!1m12!1m3!1d3337.3899959363325!2d139.7177117049227!3d35.56238597377579!2m3!1f0!2f0!3f0!3m2!1i1024!2i768!4f13.1!3m3!1m2!1s0x6018605a235bb0af%3A0x76348186265124be!2z44OZ44OI44OK44Og44Os44K544OI44Op44OzIOODhuOCo-ODhuOCoyBWaWV0bmFtZXNlIFJlc3RhdXJhbnQgVEhJIFRISQ!5e0!3m2!1sja!2sjp!4v1710868637868!5m2!1sja!2sjp"" width=""600"" height=""450"" style=""border:0;"" allowfullscreen="""" loading=""lazy"" referrerpolicy=""no-referrer-when-downgrade""></iframe>",東京都,大田区,蒲田5-26-6,蒲田駅,"・蒲田駅東口より徒歩約4分
・蒲田駅から372m",03-3731-1549,,https://tabelog.com/tokyo/A1315/A131503/13038849/,35.56267764192848,139.72018289462372
炭火焼肉 寿苑,すみびやきにくじゅえん,たん塩、ペチュキムチ、ガーリックハラミ、サムギョムサル（豚三枚肉）、塩辛、上カルビー,"https://www.google.com/maps/place/%E3%80%92214-0001+%E7%A5%9E%E5%A5%88%E5%B7%9D%E7%9C%8C%E5%B7%9D%E5%B4%8E%E5%B8%82%E5%A4%9A%E6%91%A9%E5%8C%BA%E8%8F%85%EF%BC%91%E4%B8%81%E7%9B%AE%EF%BC%93%E2%88%92%EF%BC%91%EF%BC%91+%E7%82%AD%E7%81%AB%E7%84%BC%E8%82%89%E5%AF%BF%E8%8B%91/@35.6331451,139.534634,18.22z/data=!4m6!3m5!1s0x6018f07c5099bee7:0x9652ac1f7da4b7d0!8m2!3d35.6326355!4d139.5352189!16s%2Fg%2F11g6yqmx4h?entry=ttu","<iframe src=""https://www.google.com/maps/embed?pb=!1m18!1m12!1m3!1d1391.3481228744643!2d139.53463395377196!3d35.63314507436741!2m3!1f0!2f0!3f0!3m2!1i1024!2i768!4f13.1!3m3!1m2!1s0x6018f07c5099bee7%3A0x9652ac1f7da4b7d0!2z44CSMjE0LTAwMDEg56We5aWI5bed55yM5bed5bSO5biC5aSa5pGp5Yy66I-F77yR5LiB55uu77yT4oiS77yR77yRIOeCreeBq-eEvOiCieWvv-iLkQ!5e0!3m2!1sja!2sjp!4v1710869315783!5m2!1sja!2sjp"" width=""600"" height=""450"" style=""border:0;"" allowfullscreen="""" loading=""lazy"" referrerpolicy=""no-referrer-when-downgrade""></iframe>",神奈川県,川崎市多摩区,菅1-3-11,稲田堤駅,"・JR稲田堤駅　徒歩3分
・稲田堤駅から117m",044-945-2932,,https://tabelog.com/kanagawa/A1405/A140506/14014221/,35.632709198929774,139.5352369882771
だるま,だるま,ポパイベーコン、サンマクンセウイ刺、いんげんの黒胡麻和え（お通し）、煮込み、オニオンロールパン,"https://www.google.com/maps/place/%E3%81%A0%E3%82%8B%E3%81%BE/@35.681481,139.8002192,17.17z/data=!4m15!1m8!3m7!1s0x60188917882df87b:0xc4680f7f0e43206a!2z44CSMTM1LTAwMjIg5p2x5Lqs6YO95rGf5p2x5Yy65LiJ5aW977yS5LiB55uu77yR77yX4oiS77yZ!3b1!8m2!3d35.6810704!4d139.8034273!16s%2Fg%2F11p5znx94f!3m5!1s0x6018891789cb9583:0xc69a5eb70667a56a!8m2!3d35.6810898!4d139.8034998!16s%2Fg%2F1wh4fv9s?entry=ttu","<iframe src=""https://www.google.com/maps/embed?pb=!1m18!1m12!1m3!1d2878.2563877902176!2d139.80021923486873!3d35.68148095145952!2m3!1f0!2f0!3f0!3m2!1i1024!2i768!4f13.1!3m3!1m2!1s0x6018891789cb9583%3A0xc69a5eb70667a56a!2z44Gg44KL44G-!5e0!3m2!1sja!2sjp!4v1710870378894!5m2!1sja!2sjp"" width=""600"" height=""450"" style=""border:0;"" allowfullscreen="""" loading=""lazy"" referrerpolicy=""no-referrer-when-downgrade""></iframe>",東京都,江東区,三好2-17-9,清澄白河駅,"・東京メトロ 半蔵門線 清澄白河駅B2出口より徒歩3分
・清澄白河駅から470m",03-3643-2330,,https://tabelog.com/tokyo/A1313/A131303/13083755/,35.68110543135396,139.80350407492375
モロッコレストランtamtamu,もろっこれすとらんたむたむ,ミントティー、ハリラスープ（ハーフ）、ブリック、ラム肉のハンバーグ、セットのパン（フムス付き）、野菜のクスクス、ハリッサ,"https://www.google.com/maps/place/%E3%83%A2%E3%83%AD%E3%83%83%E3%82%B3%E3%83%AC%E3%82%B9%E3%83%88%E3%83%A9%E3%83%B3tamtamu+(%E3%82%BF%E3%83%A0%E3%82%BF%E3%83%A0)/@35.7033152,139.5967457,18.18z/data=!4m6!3m5!1s0x6018ee114f5bdf35:0x4682c14209d51934!8m2!3d35.7035149!4d139.5970706!16s%2Fg%2F11b7hjrsgn?entry=ttu","<iframe src=""https://www.google.com/maps/embed?pb=!1m18!1m12!1m3!1d1425.1802348526721!2d139.5967456996018!3d35.70331517136833!2m3!1f0!2f0!3f0!3m2!1i1024!2i768!4f13.1!3m3!1m2!1s0x6018ee114f5bdf35%3A0x4682c14209d51934!2z44Oi44Ot44OD44Kz44Os44K544OI44Op44OzdGFtdGFtdSAo44K_44Og44K_44OgKQ!5e0!3m2!1sja!2sjp!4v1710870552926!5m2!1sja!2sjp"" width=""600"" height=""450"" style=""border:0;"" allowfullscreen="""" loading=""lazy"" referrerpolicy=""no-referrer-when-downgrade""></iframe>",東京都,杉並区,松庵3-25-9 北斗参番館 1F,西荻窪駅,"・西荻窪駅南口から徒歩3分
・西荻窪駅から225m",03-3331-8883,,https://tabelog.com/tokyo/A1319/A131907/13245434/,35.70359301888598,139.5970666186621
漁師料理 九絵,りょうしりょうりくえ,刺身（平目・マグロ・かんぱち・サーモン）、煮付け（マグロのカマ）、付け合わせ（厚揚げ煮・卵焼き・小松菜）、なめろう冷茶漬,"https://www.google.com/maps/place/%E6%BC%81%E5%B8%AB%E6%96%99%E7%90%86+%E4%B9%9D%E7%B5%B5/@35.6079135,139.684339,18.2z/data=!4m15!1m8!3m7!1s0x6018f52e3d73e01b:0x4ff08c69d7151523!2z44CSMTUyLTAwMzMg5p2x5Lqs6YO955uu6buS5Yy65aSn5bKh5bGx77yS5LiB55uu77yS4oiS77yRIOOCt-ODpeODreOCueWkp-WyoeWxsQ!3b1!8m2!3d35.6080879!4d139.6847065!16s%2Fg%2F12hlc40m8!3m5!1s0x6018f52e3d1d6495:0x46bd2999bbbd2a34!8m2!3d35.6081146!4d139.6847393!16s%2Fg%2F1vp73tx_?entry=ttu","<iframe src=""https://www.google.com/maps/embed?pb=!1m18!1m12!1m3!1d1410.3269049752864!2d139.6843389632265!3d35.6079134536878!2m3!1f0!2f0!3f0!3m2!1i1024!2i768!4f13.1!3m3!1m2!1s0x6018f52e3d1d6495%3A0x46bd2999bbbd2a34!2z5ryB5bir5paZ55CGIOS5nee1tQ!5e0!3m2!1sja!2sjp!4v1710871038603!5m2!1sja!2sjp"" width=""600"" height=""450"" style=""border:0;"" allowfullscreen="""" loading=""lazy"" referrerpolicy=""no-referrer-when-downgrade""></iframe>",東京都,目黒区,大岡山2-2-1,大岡山駅,"・東急目黒線/大井町線大岡山駅より徒歩2分
・大岡山駅から132m",03-5731-5230,,https://tabelog.com/tokyo/A1317/A131711/13040797/,35.60819978276006,139.6847587805295
ジンギスバル まーさん,じんぎすばるまーさん,おすすめAセット（ラム肩ロース・ランプ）、ラムせせり味付、旨くちロースタレ、羊の薬膳スープ、ラムチョップ,"https://www.google.com/maps/place/%E3%82%B8%E3%83%B3%E3%82%AE%E3%82%B9%E3%83%90%E3%83%AB+%E3%81%BE%E3%83%BC%E3%81%95%E3%82%93/@35.6460381,139.6219461,17.83z/data=!4m15!1m8!3m7!1s0x6018f3e9ba1eca9f:0x2c6bdd4e7170dd94!2z44CSMTU2LTAwNTQg5p2x5Lqs6YO95LiW55Sw6LC35Yy65qGc5LiY77yS5LiB55uu77yS77yU4oiS77yS77yQ!3b1!8m2!3d35.6454107!4d139.6229656!16s%2Fg%2F1z44b1fdz!3m5!1s0x6018f3e9ba196e1d:0xb11386b31d557c87!8m2!3d35.6453746!4d139.6229592!16s%2Fg%2F11b7xnhh73?entry=ttu","<iframe src=""https://www.google.com/maps/embed?pb=!1m18!1m12!1m3!1d1827.8193634358233!2d139.62194607290814!3d35.646038088603056!2m3!1f0!2f0!3f0!3m2!1i1024!2i768!4f13.1!3m3!1m2!1s0x6018f3e9ba196e1d%3A0xb11386b31d557c87!2z44K444Oz44Ku44K544OQ44OrIOOBvuODvOOBleOCkw!5e0!3m2!1sja!2sjp!4v1710897063130!5m2!1sja!2sjp"" width=""600"" height=""450"" style=""border:0;"" allowfullscreen="""" loading=""lazy"" referrerpolicy=""no-referrer-when-downgrade""></iframe>",東京都,世田谷区,桜丘2-24-20,千歳船橋駅,"・小田急線 千歳船橋駅より徒歩3分
・千歳船橋駅から282m",03-5450-4030,,https://tabelog.com/tokyo/A1318/A131813/13186177/,35.645504797986746,139.6229501024484
ガテモタブン,がてもたぶん,ツェリンマ茶、モモ、ホゲ、エマダツィ、ごはん（ハーフ）、パクシャパ、ブータンチリとレモンのシャーベット,"https://www.google.com/maps/place/%E3%82%AC%E3%83%86%E3%83%A2%E3%82%BF%E3%83%96%E3%83%B3/@35.6685697,139.6804586,17.34z/data=!4m14!1m7!3m6!1s0x6018f348f60bbe99:0x3336a0069ea193b!2z44CSMTUxLTAwNjQg5p2x5Lqs6YO95riL6LC35Yy65LiK5Y6f77yR5LiB55uu77yS77yS4oiS77yVIDNm!3b1!8m2!3d35.6684566!4d139.6825681!3m5!1s0x6018f348f607943b:0xb71cdbc5a14586ae!8m2!3d35.668421!4d139.6826196!16s%2Fg%2F1tf5q80r?entry=ttu","<iframe src=""https://www.google.com/maps/embed?pb=!1m18!1m12!1m3!1d2564.7339968659535!2d139.68045864210006!3d35.668569704885556!2m3!1f0!2f0!3f0!3m2!1i1024!2i768!4f13.1!3m3!1m2!1s0x6018f348f607943b%3A0xb71cdbc5a14586ae!2z44Ks44OG44Oi44K_44OW44Oz!5e0!3m2!1sja!2sjp!4v1710897340331!5m2!1sja!2sjp"" width=""600"" height=""450"" style=""border:0;"" allowfullscreen="""" loading=""lazy"" referrerpolicy=""no-referrer-when-downgrade""></iframe>",東京都,渋谷区,上原1-22-5,代々木上原駅,"・代々木上原駅より徒歩５分
・代々木上原駅から272m",03-3466-9590,,https://tabelog.com/tokyo/A1318/A131811/13039628/,35.668511082850024,139.68258944710772
源氏食堂,げんじしょくどう,ブタ肉塩焼き（上）、ミックスフライ（イカ・メンチ）,"https://www.google.com/maps/place/%E6%BA%90%E6%B0%8F%E9%A3%9F%E5%A0%82/@35.2503686,140.3898239,18.05z/data=!4m6!3m5!1s0x603d350b31020951:0xc9cb388e7a32bfc8!8m2!3d35.2499198!4d140.3906726!16s%2Fg%2F11fp4qs_ny?entry=ttu","<iframe src=""https://www.google.com/maps/embed?pb=!1m18!1m12!1m3!1d1574.4852764477519!2d140.38982387758966!3d35.25036859485212!2m3!1f0!2f0!3f0!3m2!1i1024!2i768!4f13.1!3m3!1m2!1s0x603d350b31020951%3A0xc9cb388e7a32bfc8!2z5rqQ5rCP6aOf5aCC!5e0!3m2!1sja!2sjp!4v1710897533220!5m2!1sja!2sjp"" width=""600"" height=""450"" style=""border:0;"" allowfullscreen="""" loading=""lazy"" referrerpolicy=""no-referrer-when-downgrade""></iframe>",千葉県,いすみ市,大原8701-2,大原駅,"・外房線・いすみ鉄道 大原駅下車1分
・大原駅から116m",0470-64-4646,,https://tabelog.com/chiba/A1207/A120702/12014883/,35.249964258732504,140.39067413887017
ラーメン 菜苑,らーめんさいえん,餃子、純レバ丼,"https://www.google.com/maps/place/%E3%83%A9%E3%83%BC%E3%83%A1%E3%83%B3+%E8%8F%9C%E8%8B%91/@35.7000164,139.8161953,16.61z/data=!4m15!1m8!3m7!1s0x601888d138d8f8d5:0xf19c02c26e924cec!2z44CSMTM2LTAwNzEg5p2x5Lqs6YO95rGf5p2x5Yy65LqA5oi477yT5LiB55uu77yR4oiS77yYIOmjr-ayvOODk-ODqw!3b1!8m2!3d35.7016149!4d139.8198423!16s%2Fg%2F12hnnvzzw!3m5!1s0x601888d139275ce5:0x54f940a4eff2d5f0!8m2!3d35.701595!4d139.8198063!16s%2Fg%2F1tk6vx5_?entry=ttu","<iframe src=""https://www.google.com/maps/embed?pb=!1m18!1m12!1m3!1d4236.012760309838!2d139.81619533695277!3d35.7000163894905!2m3!1f0!2f0!3f0!3m2!1i1024!2i768!4f13.1!3m3!1m2!1s0x601888d139275ce5%3A0x54f940a4eff2d5f0!2z44Op44O844Oh44OzIOiPnOiLkQ!5e0!3m2!1sja!2sjp!4v1710897791911!5m2!1sja!2sjp"" width=""600"" height=""450"" style=""border:0;"" allowfullscreen="""" loading=""lazy"" referrerpolicy=""no-referrer-when-downgrade""></iframe>",東京都,江東区,亀戸3-1-8,錦糸町駅,"・錦糸町駅より徒歩12分
・錦糸町駅から730m",03-3637-9529,,https://tabelog.com/tokyo/A1312/A131201/13018014/,35.70193572729831,139.81980020375883
厨 Sawa,くりやさわ,お酢ドリンク・水割り（ぶどう）、ブルスケッタ、カキのムニエル、アメリカンソースのオムライス、自家製ババロア（黒蜜きなこ）,"https://www.google.com/maps/place/%E5%8E%A8+Sawa/@35.936715,139.7695285,17.4z/data=!4m15!1m8!3m7!1s0x6018be7905d9e1d9:0xceddd9880724db06!2z44CSMzQzLTAwNDEg5Z-8546J55yM6LaK6LC35biC5Y2D6ZaT5Y-w6KW_77yR5LiB55uu77yS77yT4oiS77yR77yW!3b1!8m2!3d35.9376337!4d139.7698552!16s%2Fg%2F11clqpvctv!3m5!1s0x6018be790678ad73:0x4d973e8c01d88339!8m2!3d35.9376333!4d139.7698147!16s%2Fg%2F1vvr66wp?entry=ttu","<iframe src=""https://www.google.com/maps/embed?pb=!1m18!1m12!1m3!1d2450.137432196087!2d139.76952846944192!3d35.93671498676306!2m3!1f0!2f0!3f0!3m2!1i1024!2i768!4f13.1!3m3!1m2!1s0x6018be790678ad73%3A0x4d973e8c01d88339!2z5Y6oIFNhd2E!5e0!3m2!1sja!2sjp!4v1710899007919!5m2!1sja!2sjp"" width=""600"" height=""450"" style=""border:0;"" allowfullscreen="""" loading=""lazy"" referrerpolicy=""no-referrer-when-downgrade""></iframe>",埼玉県,越谷市,千間台西1-23-16,せんげん台駅,"・東武伊勢崎線 せんげん台駅西口より徒歩7分
・せんげん台駅から470m",048-978-3144,,https://tabelog.com/saitama/A1102/A110204/11002717/,35.93779879600671,139.76978886532785
しゃぶ辰 西巣鴨店,しゃぶたつにしすがもてん,上州牛すき焼き定食、うどん,"https://www.google.com/maps/place/%E3%81%97%E3%82%83%E3%81%B6%E8%BE%B0+%E8%A5%BF%E5%B7%A3%E9%B4%A8%E5%BA%97/@35.7441397,139.7273921,17.95z/data=!4m15!1m8!3m7!1s0x60188d7e25ffb73b:0x13b0e8055abe44ca!2z44CSMTcwLTAwMDEg5p2x5Lqs6YO96LGK5bO25Yy66KW_5bej6bSo77yU5LiB55uu77yR77yT4oiS77yR77yV!3b1!8m2!3d35.7441518!4d139.7288097!16s%2Fg%2F11g8q6fscq!3m5!1s0x60188d7e266984e5:0x84e3b20670fe2de2!8m2!3d35.744132!4d139.7288106!16s%2Fg%2F1vg4jt06?entry=ttu","<iframe src=""https://www.google.com/maps/embed?pb=!1m18!1m12!1m3!1d1680.6342341789652!2d139.72739209344118!3d35.74413971094127!2m3!1f0!2f0!3f0!3m2!1i1024!2i768!4f13.1!3m3!1m2!1s0x60188d7e266984e5%3A0x84e3b20670fe2de2!2z44GX44KD44G26L6wIOilv-W3o-m0qOW6lw!5e0!3m2!1sja!2sjp!4v1710900489172!5m2!1sja!2sjp"" width=""600"" height=""450"" style=""border:0;"" allowfullscreen="""" loading=""lazy"" referrerpolicy=""no-referrer-when-downgrade""></iframe>",東京都,豊島区,西巣鴨4-13-15,西巣鴨駅,"・都営地下鉄三田線 西巣鴨駅より徒歩１分
・西巣鴨駅から75m",03-3910-1020,,https://tabelog.com/tokyo/A1322/A132201/13012319/,35.74423687617085,139.72882868156915
串カツ 武田,くしかつたけだ,キス、ヘレ、ニラ巻き、紅生姜、どて焼き、こんにゃく どて焼き,"https://www.google.com/maps/place/%E4%B8%B2%E3%82%AB%E3%83%84+%E6%AD%A6%E7%94%B0/@34.6261599,135.547139,16.28z/data=!4m15!1m8!3m7!1s0x6000deef07e9bc4d:0x366939b64ad957a2!2z44CSNTQ3LTAwNDQg5aSn6Ziq5bqc5aSn6Ziq5biC5bmz6YeO5Yy65bmz6YeO5pys55S677yR5LiB55uu77yV!3b1!8m2!3d34.6249898!4d135.5518793!16s%2Fg%2F11b8v6f8zh!3m5!1s0x6000deefa8225a69:0x9447f4373c7bc123!8m2!3d34.6247346!4d135.5520533!16s%2Fg%2F11bbx0g9xb?entry=ttu","<iframe src=""https://www.google.com/maps/embed?pb=!1m18!1m12!1m3!1d5413.67610712778!2d135.5471390208113!3d34.62615992089535!2m3!1f0!2f0!3f0!3m2!1i1024!2i768!4f13.1!3m3!1m2!1s0x6000deefa8225a69%3A0x9447f4373c7bc123!2z5Liy44Kr44OEIOatpueUsA!5e0!3m2!1sja!2sjp!4v1710905649515!5m2!1sja!2sjp"" width=""600"" height=""450"" style=""border:0;"" allowfullscreen="""" loading=""lazy"" referrerpolicy=""no-referrer-when-downgrade""></iframe>",大阪府,大阪市平野区,平野本町1-5,平野駅,・平野駅から518m,090-3659-5616,,https://tabelog.com/osaka/A2701/A270405/27057915/,34.625002578381114,135.55202178633158
甘辛や,あまからや,豚玉の定食（ご飯、味噌汁、たくあん）、デラックス焼きそば、たこねぎ（小）,"https://www.google.com/maps/place/%E7%94%98%E8%BE%9B%E3%82%84/@34.6381916,135.5220162,18.38z/data=!4m15!1m8!3m7!1s0x6000dddef8f87b9d:0xc6c608b47a863bd6!2z44CSNTQ1LTAwMDMg5aSn6Ziq5bqc5aSn6Ziq5biC6Zi_5YCN6YeO5Yy6576O56ug5ZyS77yT5LiB55uu77yS4oiS77yU!3b1!8m2!3d34.6381977!4d135.5224444!16s%2Fg%2F11cpkdh_44!3m5!1s0x6000dddef921f953:0x943eecfb672f334c!8m2!3d34.6381914!4d135.5224715!16s%2Fg%2F1tnsrt6f?entry=ttu","<iframe src=""https://www.google.com/maps/embed?pb=!1m14!1m8!1m3!1d1641.3268295705857!2d135.5220162!3d34.6381916!3m2!1i1024!2i768!4f13.1!3m3!1m2!1s0x6000dddef921f953%3A0x943eecfb672f334c!2z55SY6L6b44KE!5e0!3m2!1sja!2sjp!4v1710906082571!5m2!1sja!2sjp"" width=""600"" height=""450"" style=""border:0;"" allowfullscreen="""" loading=""lazy"" referrerpolicy=""no-referrer-when-downgrade""></iframe>",大阪府,大阪市阿倍野区,美章園3-2-4,美章園駅,"・ＪＲ阪和線 美章園より徒歩５分
・美章園駅から123m",06-6629-1470,,https://tabelog.com/osaka/A2701/A270203/27014344/,34.6382070476547,135.52247217549316
伊勢屋食堂,いせやしょくどう,豚バラ生姜焼き、たけのこの土佐煮、明太子、トマト酢漬け、納豆＆お替りご飯（茶碗八分目）,"https://www.google.com/maps/place/%E4%BC%8A%E5%8B%A2%E5%B1%8B%E9%A3%9F%E5%A0%82/@35.7031768,139.6934503,16.86z/data=!3m1!5s0x60188d330700aac7:0x54d1ba1a25faa6c9!4m14!1m7!3m6!1s0x60188d33087a7ad5:0x90311595b6cb72a8!2z5p2x5Lqs6YO95Lit5aSu5Y245aOy5biC5aC0IOa3gOapi-W4guWgtA!8m2!3d35.7056603!4d139.6936366!16s%2Fg%2F1wb8tphp!3m5!1s0x60188d430f0609f7:0xcf495b810ed52635!8m2!3d35.7048635!4d139.6939475!16s%2Fg%2F1tksnbz4?entry=ttu","<iframe src=""https://www.google.com/maps/embed?pb=!1m18!1m12!1m3!1d3563.5613549719114!2d139.69345027258072!3d35.703176846686716!2m3!1f0!2f0!3f0!3m2!1i1024!2i768!4f13.1!3m3!1m2!1s0x60188d430f0609f7%3A0xcf495b810ed52635!2z5LyK5Yui5bGL6aOf5aCC!5e0!3m2!1sja!2sjp!4v1710906956772!5m2!1sja!2sjp"" width=""600"" height=""450"" style=""border:0;"" allowfullscreen="""" loading=""lazy"" referrerpolicy=""no-referrer-when-downgrade""></iframe>",東京都,新宿区,北新宿4-2-1 淀橋市場内 事務所 1階,大久保駅,"・JR総武線 大久保駅北口より徒歩5分　
・大久保駅から581m",03-3364-0456,,https://tabelog.com/tokyo/A1304/A130404/13081288/,35.70513646593205,139.693934092954
薬膳スープカレー・シャナイア,やくぜんすーぷかれーしゃないあ,シャナイア風ザンギ（3辛）、チキンと野菜の薬膳スープカレー（3辛）いももちトッピング、まろやか温卵、自家製バニラアイス,"https://www.google.com/maps/place/%E8%96%AC%E8%86%B3%E3%82%B9%E3%83%BC%E3%83%97%E3%82%AB%E3%83%AC%E3%83%BC%E3%83%BB%E3%82%B7%E3%83%A3%E3%83%8A%E3%82%A4%E3%82%A2/@35.6371638,139.7116418,16.56z/data=!4m6!3m5!1s0x60188b17062e553f:0xdfcbd5787faf1087!8m2!3d35.6394975!4d139.7142347!16s%2Fg%2F1hm5_ts9y?entry=ttu","<iframe src=""https://www.google.com/maps/embed?pb=!1m18!1m12!1m3!1d4390.378142652712!2d139.7116418184075!3d35.63716378322958!2m3!1f0!2f0!3f0!3m2!1i1024!2i768!4f13.1!3m3!1m2!1s0x60188b17062e553f%3A0xdfcbd5787faf1087!2z6Jas6Iaz44K544O844OX44Kr44Os44O844O744K344Oj44OK44Kk44Ki!5e0!3m2!1sja!2sjp!4v1710907255996!5m2!1sja!2sjp"" width=""600"" height=""450"" style=""border:0;"" allowfullscreen="""" loading=""lazy"" referrerpolicy=""no-referrer-when-downgrade""></iframe>",東京都,目黒区,三田1-5-5,目黒駅,"・目黒駅より徒歩12分
・目黒駅から636m",03-3442-3962,,https://tabelog.com/tokyo/A1303/A130302/13149675/,35.63976695561583,139.71430015466325
すし台所家 三軒茶屋店,すしだいどこやさんげんぢゃやてん,まぐろ、いか、ひかり三種（サバ・アジ・イワシ）、真鯛うしお汁、炙り穴子、大赤エビ、まぐろ三種（中トロ・赤身・大トロ）、カニサラダ、茶碗蒸し、特上ウニ、トロハマチ,"https://www.google.com/maps/place/%E3%81%99%E3%81%97%E5%8F%B0%E6%89%80%E5%AE%B6+%E4%B8%89%E8%BB%92%E8%8C%B6%E5%B1%8B%E5%BA%97/@35.6439009,139.6703434,19.02z/data=!3m1!5s0x6018f49f66e2d3c9:0x277d648ffada534c!4m15!1m8!3m7!1s0x6018f49f6712431b:0x4a9c9ae57301b1f5!2z44CSMTU0LTAwMDQg5p2x5Lqs6YO95LiW55Sw6LC35Yy65aSq5a2Q5aCC77yU5LiB55uu77yS77yS4oiS77yR77yS!3b1!8m2!3d35.6441835!4d139.6702919!16s%2Fg%2F12hss9x1x!3m5!1s0x6018f49f671ca597:0xc4bfb2f0a72f6d93!8m2!3d35.6442336!4d139.670319!16s%2Fg%2F1tfg33mz?entry=ttu","<iframe src=""https://www.google.com/maps/embed?pb=!1m18!1m12!1m3!1d800.4024761423963!2d139.67034344691825!3d35.64390090687367!2m3!1f0!2f0!3f0!3m2!1i1024!2i768!4f13.1!3m3!1m2!1s0x6018f49f671ca597%3A0xc4bfb2f0a72f6d93!2z44GZ44GX5Y-w5omA5a62IOS4iei7kuiMtuWxi-W6lw!5e0!3m2!1sja!2sjp!4v1710908517669!5m2!1sja!2sjp"" width=""600"" height=""450"" style=""border:0;"" allowfullscreen="""" loading=""lazy"" referrerpolicy=""no-referrer-when-downgrade""></iframe>",東京都,世田谷区,太子堂4-22-12 台所家ビル,三軒茶屋駅,"・東急田園都市線 三軒茶屋駅より徒歩３分
・三軒茶屋駅から125m",03-3424-1147,,https://tabelog.com/tokyo/A1317/A131706/13082443/,35.64428509601015,139.67032225882275
Nong Inlay,のんぐいんれい,お茶葉のサラダ、シャン風 高菜漬炒め（豚）、もち米、牛スープそば（高菜付）、追加パクチー、イチャクウエ（揚げパン）とミルクティーのセット,"https://www.google.com/maps/place/Nong+Inlay+%E3%83%8E%E3%83%B3%E3%82%B0+%E3%82%A4%E3%83%B3%E3%83%AC%E3%82%A4/@35.7137334,139.7034172,18.32z/data=!3m1!5s0x60188d3902dc555b:0xf923898bdd010ee8!4m14!1m7!3m6!1s0x60188d3902e14c0f:0xa5b6b13cf0a018f2!2z44CSMTY5LTAwNzUg5p2x5Lqs6YO95paw5a6_5Yy66auY55Sw6aas5aC077yS5LiB55uu77yR77yZ4oiS77yXIOOCv-ODg-OCr-OCpOODrOODluODs-mrmOeUsOmmrOWgtCAxZg!3b1!8m2!3d35.7139113!4d139.7044703!3m5!1s0x60188d3902e0824d:0x7910720ef9230617!8m2!3d35.7139641!4d139.7044166!16s%2Fg%2F1v2gdrls?entry=ttu","<iframe src=""https://www.google.com/maps/embed?pb=!1m18!1m12!1m3!1d1297.3659455741515!2d139.7034172217769!3d35.71373340008434!2m3!1f0!2f0!3f0!3m2!1i1024!2i768!4f13.1!3m3!1m2!1s0x60188d3902e0824d%3A0x7910720ef9230617!2zTm9uZyBJbmxheSDjg47jg7PjgrAg44Kk44Oz44Os44Kk!5e0!3m2!1sja!2sjp!4v1710908800712!5m2!1sja!2sjp"" width=""600"" height=""450"" style=""border:0;"" allowfullscreen="""" loading=""lazy"" referrerpolicy=""no-referrer-when-downgrade""></iframe>",東京都,新宿区,高田馬場2-19-7 タックイレブンビル 1Ｆ,高田馬場駅,"・JR山手線 高田馬場駅早稲田口より徒歩1分
・高田馬場駅から162m",050-5571-7394,,https://tabelog.com/tokyo/A1305/A130503/13009115/,35.714035170916006,139.7044355420995
長崎飯店 渋谷店,ながさきはんてんしぶやてん,皿うどん（軟麺）、春巻、特上ちゃんぽん（麺少なめ）,"https://www.google.com/maps/place/%E9%95%B7%E5%B4%8E%E9%A3%AF%E5%BA%97+%E6%B8%8B%E8%B0%B7%E5%BA%97/@35.6576462,139.6994756,17.86z/data=!3m1!5s0x60188b57a13e17cf:0xfa932386f43e6fd1!4m6!3m5!1s0x60188b41eed35229:0xa4855465e21ada4a!8m2!3d35.6572772!4d139.6998669!16s%2Fg%2F11kb92fwjg?entry=ttu","<iframe src=""https://www.google.com/maps/embed?pb=!1m18!1m12!1m3!1d1786.2377314300647!2d139.69947564610692!3d35.65764616663593!2m3!1f0!2f0!3f0!3m2!1i1024!2i768!4f13.1!3m3!1m2!1s0x60188b41eed35229%3A0xa4855465e21ada4a!2z6ZW35bSO6aOv5bqXIOa4i-iwt-W6lw!5e0!3m2!1sja!2sjp!4v1710909877542!5m2!1sja!2sjp"" width=""600"" height=""450"" style=""border:0;"" allowfullscreen="""" loading=""lazy"" referrerpolicy=""no-referrer-when-downgrade""></iframe>",東京都,渋谷区,道玄坂1-9-1 梅山ビル 1F,渋谷駅,・渋谷駅から184m,03-3464-0528,https://nagasaki-hanten.jp/,https://tabelog.com/tokyo/A1303/A130301/13281342/,35.6573747803327,139.6998362557502
羊香味坊,やんしゃんあじぼう,ラム肉長葱炒め、麦ごはん、薬味3種（発酵唐辛子の醤・きのこの醤・山椒醤油）、ラム肉焼売、キュウリの甘辛酢漬け、魚羊湯（白身魚とラム肉のスープ）、ラムスペアリブ（ハーフサイズ）,"https://www.google.com/maps/place/%E7%BE%8A%E9%A6%99%E5%91%B3%E5%9D%8A+(%E3%83%A4%E3%83%B3%E3%82%B7%E3%83%A3%E3%83%B3%E3%82%A2%E3%82%B8%E3%83%9C%E3%82%A6)/@35.7062474,139.7731406,18.02z/data=!4m6!3m5!1s0x60188ea065a6cf23:0xee538ef04c971d4d!8m2!3d35.7055846!4d139.7736488!16s%2Fg%2F11cs5sd4bk?entry=ttu","<iframe src=""https://www.google.com/maps/embed?pb=!1m18!1m12!1m3!1d1600.2539319690686!2d139.77314064897766!3d35.7062473683198!2m3!1f0!2f0!3f0!3m2!1i1024!2i768!4f13.1!3m3!1m2!1s0x60188ea065a6cf23%3A0xee538ef04c971d4d!2z576K6aaZ5ZGz5Z2KICjjg6Tjg7Pjgrfjg6Pjg7PjgqLjgrjjg5zjgqYp!5e0!3m2!1sja!2sjp!4v1710910499168!5m2!1sja!2sjp"" width=""600"" height=""450"" style=""border:0;"" allowfullscreen="""" loading=""lazy"" referrerpolicy=""no-referrer-when-downgrade""></iframe>",東京都,台東区,上野3-12-6,御徒町駅,・JR御徒町駅南口より120ｍ,03-6803-0168,,https://tabelog.com/tokyo/A1311/A131101/13200566/,35.70569440920985,139.77367588219525
珈琲アティック,こーひーあてぃっく,クリームソーダ,"https://www.google.com/maps/place/%E7%8F%88%E7%90%B2%E3%82%A2%E3%83%86%E3%82%A3%E3%83%83%E3%82%AF/@35.6062497,139.7032469,17.63z/data=!4m15!1m8!3m7!1s0x60188ac76c2df2a9:0xbae8e2109fdb8be4!2z44CSMTQyLTAwNjQg5p2x5Lqs6YO95ZOB5bed5Yy65peX44Gu5Y-w77yS5LiB55uu77yR4oiS77yR77yVIOiLpeael-ODk-ODqw!3b1!8m2!3d35.6071813!4d139.7047194!16s%2Fg%2F12jm0r168!3m5!1s0x60188b5cb66d1027:0x12ce949dc1c2dbe0!8m2!3d35.6071493!4d139.7046396!16s%2Fg%2F11r9ncrf4q?entry=ttu","<iframe src=""https://www.google.com/maps/embed?pb=!1m18!1m12!1m3!1d661.7656036109012!2d139.70448773450445!3d35.60685866783785!2m3!1f0!2f0!3f0!3m2!1i1024!2i768!4f13.1!3m3!1m2!1s0x60188b5cb66d1027%3A0x12ce949dc1c2dbe0!2z54-I55Cy44Ki44OG44Kj44OD44Kv!5e0!3m2!1sja!2sjp!4v1710910697057!5m2!1sja!2sjp"" width=""600"" height=""450"" style=""border:0;"" allowfullscreen="""" loading=""lazy"" referrerpolicy=""no-referrer-when-downgrade""></iframe><iframe src=""https://www.google.com/maps/embed?pb=!1m18!1m12!1m3!1d2098.0357176987104!2d139.70324685396554!3d35.606249661164526!2m3!1f0!2f0!3f0!3m2!1i1024!2i768!4f13.1!3m3!1m2!1s0x60188b5cb66d1027%3A0x12ce949dc1c2dbe0!2z54-I55Cy44Ki44OG44Kj44OD44Kv!5e0!3m2!1sja!2sjp!4v1710910729542!5m2!1sja!2sjp"" width=""600"" height=""450"" style=""border:0;"" allowfullscreen="""" loading=""lazy"" referrerpolicy=""no-referrer-when-downgrade""></iframe>",東京都,品川区,旗の台2-1-15,旗の台駅,"・東急大井町線/池上線 旗の台駅東口より徒歩5分
・旗の台駅から307m",,,https://tabelog.com/tokyo/A1317/A131712/13075789/,35.60717772049546,139.70465548715902
スペイン食堂 石井,すぺいんしょくどういしい,長谷川さんこだわりのマッシュルームの鉄板焼き（ハーフ）、サルチチョンのレヴェルト（ハーフ）、タラのアリオリオーブン焼き（ハーフ）、サルスエラ（ハーフ）、ニンジンサラダ、イカ墨のパエリア,"https://www.google.com/maps/place/%E3%82%B9%E3%83%9A%E3%82%A4%E3%83%B3%E9%A3%9F%E5%A0%82+%E7%9F%B3%E4%BA%95/@35.6170433,139.7044619,16.12z/data=!4m14!1m7!3m6!1s0x60188ac320aea31d:0x11ab8e20bf117c5a!2z44CSMTQyLTAwNjMg5p2x5Lqs6YO95ZOB5bed5Yy66I2P5Y6f77yS5LiB55uu77yR77yX4oiS77yR77yZIOatpuiUteWwj-WxseOCsOODqeODs-ODieODj-OCpOODhCAxMDY!3b1!8m2!3d35.616302!4d139.7089182!3m5!1s0x60188ac71bc939f9:0x3ab550726503a7e0!8m2!3d35.6164059!4d139.7087591!16s%2Fg%2F1tzlyyzc?entry=ttu","<iframe src=""https://www.google.com/maps/embed?pb=!1m18!1m12!1m3!1d5959.865463163098!2d139.7044619247579!3d35.61704334617117!2m3!1f0!2f0!3f0!3m2!1i1024!2i768!4f13.1!3m3!1m2!1s0x60188ac71bc939f9%3A0x3ab550726503a7e0!2z44K544Oa44Kk44Oz6aOf5aCCIOefs-S6lQ!5e0!3m2!1sja!2sjp!4v1710911512497!5m2!1sja!2sjp"" width=""600"" height=""450"" style=""border:0;"" allowfullscreen="""" loading=""lazy"" referrerpolicy=""no-referrer-when-downgrade""></iframe>",東京都,品川区,荏原2-17-19 武蔵小山グランドハイツ 106,武蔵小山駅,・武蔵小山駅より徒歩8分,050-5600-6907,https://spain-shokudou-ishii.com/index.html,https://tabelog.com/tokyo/A1317/A131710/13286820/,35.6168269894991,139.70879909768632
漁師めし はまべ,りょうしめしはまべ,地魚フライ定食（お新香・肉じゃが・アジフライ・カジメの味噌汁・さんが焼き）,"https://www.google.com/maps/place/%E6%BC%81%E5%B8%AB%E3%82%81%E3%81%97+%E3%81%AF%E3%81%BE%E3%81%B9/@35.1660807,139.8219097,17.15z/data=!4m6!3m5!1s0x60181afabe9bb917:0xcfdc3d7f070d9105!8m2!3d35.1643221!4d139.8228485!16s%2Fg%2F11b6gnqksv?entry=ttu","<iframe src=""https://www.google.com/maps/embed?pb=!1m18!1m12!1m3!1d2945.910580468912!2d139.8219097147315!3d35.16608069487397!2m3!1f0!2f0!3f0!3m2!1i1024!2i768!4f13.1!3m3!1m2!1s0x60181afabe9bb917%3A0xcfdc3d7f070d9105!2z5ryB5bir44KB44GXIOOBr-OBvuOBuQ!5e0!3m2!1sja!2sjp!4v1710911808207!5m2!1sja!2sjp"" width=""600"" height=""450"" style=""border:0;"" allowfullscreen="""" loading=""lazy"" referrerpolicy=""no-referrer-when-downgrade""></iframe>",千葉県,富津市,金谷3971,浜金谷駅,・浜金谷駅から446m,0439-69-2090,,https://tabelog.com/chiba/A1206/A120603/12035117/,35.16445276679639,139.82283998666472
中国料理 豊栄,ちゅうごくりょうりほうえい,冷やしタンタン麺、アボカドのセイロ蒸し、中華茶碗蒸し、四元豚の回鍋肉,"https://www.google.com/maps/place/%E4%B8%AD%E5%9B%BD%E6%96%99%E7%90%86+%E8%B1%8A%E6%A0%84/@35.7255676,139.7532188,18.4z/data=!4m14!1m7!3m6!1s0x60188dc86aae5779:0x7dc8a13410c7d612!2z44CSMTEzLTAwMjEg5p2x5Lqs6YO95paH5Lqs5Yy65pys6aeS6L6877yT5LiB55uu77yR4oiS77yYIENPQ09QTFVT5pys6aeS6L68IDFm!3b1!8m2!3d35.7257532!4d139.7537849!3m5!1s0x60188db1f578c70f:0x101e3625e4cf3784!8m2!3d35.7258154!4d139.7536663!16s%2Fg%2F11bzn58cdp?entry=ttu","<iframe src=""https://www.google.com/maps/embed?pb=!1m18!1m12!1m3!1d1228.7571363657173!2d139.75321884978018!3d35.725567622871914!2m3!1f0!2f0!3f0!3m2!1i1024!2i768!4f13.1!3m3!1m2!1s0x60188db1f578c70f%3A0x101e3625e4cf3784!2z5Lit5Zu95paZ55CGIOixiuaghA!5e0!3m2!1sja!2sjp!4v1710913947298!5m2!1sja!2sjp"" width=""600"" height=""450"" style=""border:0;"" allowfullscreen="""" loading=""lazy"" referrerpolicy=""no-referrer-when-downgrade""></iframe>",東京都,文京区,本駒込3-1-8 COCOPLUS本駒込 1F,本駒込駅,"・南北線 本駒込駅より徒歩1分
・本駒込駅から91m",050-5590-2072,,https://tabelog.com/tokyo/A1323/A132301/13276558/,35.72588317277063,139.75365434952602
食堂とだか,しょくどうとだか,たことキュウリの塩昆布（お通し）、ウニ・オン・ザ、胡麻豆腐とトマトの揚げだし、揚げトウモロコシ、キンキと茄子の包み焼、牛ご飯、体に良いおみそ汁,"https://www.google.com/maps/place/%E9%A3%9F%E5%A0%82%E3%81%A8%E3%81%A0%E3%81%8B/@35.6253918,139.7232692,18.39z/data=!3m1!5s0x60188afaf625517b:0x69b09044fbec5db!4m6!3m5!1s0x60188afaf632e223:0x940fee11764956a3!8m2!3d35.6248746!4d139.7242771!16s%2Fg%2F11c3v6f__h?entry=ttu","<iframe src=""https://www.google.com/maps/embed?pb=!1m18!1m12!1m3!1d1234.0948610390114!2d139.7232692247225!3d35.62539179100745!2m3!1f0!2f0!3f0!3m2!1i1024!2i768!4f13.1!3m3!1m2!1s0x60188afaf632e223%3A0x940fee11764956a3!2z6aOf5aCC44Go44Gg44GL!5e0!3m2!1sja!2sjp!4v1710914189520!5m2!1sja!2sjp"" width=""600"" height=""450"" style=""border:0;"" allowfullscreen="""" loading=""lazy"" referrerpolicy=""no-referrer-when-downgrade""></iframe>",東京都,品川区,西五反田1-9-3 リバーライトビル B1F,五反田駅,"・東急池上線 五反田駅より徒歩1分
・五反田駅から146m",03-6420-3734,,https://tabelog.com/tokyo/A1316/A131603/13187669/,35.62491225947108,139.72428580301522
キセキ食堂 上尾本店,きせきしょくどうあげおほんてん,キセキ定食（肩ロースかつ）、キセキのステーキ（100g）,"https://www.google.com/maps/place/%E3%82%AD%E3%82%BB%E3%82%AD%E9%A3%9F%E5%A0%82+%E4%B8%8A%E5%B0%BE%E6%9C%AC%E5%BA%97/@35.9766436,139.5898608,16.47z/data=!4m15!1m8!3m7!1s0x6018c5f4026c2731:0xa4499e4a2f82aa43!2z44CSMzYyLTAwMTQg5Z-8546J55yM5LiK5bC-5biC5pys55S677yT5LiB55uu77yR77yR4oiS77yR77yT!3b1!8m2!3d35.9790292!4d139.5941999!16s%2Fg%2F11clltzmpd!3m5!1s0x6018c5f4025d0c19:0x86b42c40c8d188f!8m2!3d35.9789209!4d139.594134!16s%2Fg%2F11g6bg1x5g?entry=ttu","<iframe src=""https://www.google.com/maps/embed?pb=!1m18!1m12!1m3!1d4664.419232382559!2d139.5898608108191!3d35.97664363542008!2m3!1f0!2f0!3f0!3m2!1i1024!2i768!4f13.1!3m3!1m2!1s0x6018c5f4025d0c19%3A0x86b42c40c8d188f!2z44Kt44K744Kt6aOf5aCCIOS4iuWwvuacrOW6lw!5e0!3m2!1sja!2sjp!4v1710915534820!5m2!1sja!2sjp"" width=""600"" height=""450"" style=""border:0;"" allowfullscreen="""" loading=""lazy"" referrerpolicy=""no-referrer-when-downgrade""></iframe>",埼玉県,上尾市,本町3-11-13,上尾駅,"・JR高崎線 上尾駅東口より徒歩15分
・上尾駅から818m",070-3529-8553,,https://tabelog.com/saitama/A1104/A110401/11043868/,35.97913335663011,139.59413860510202
マッシーナ メッシーナ,まっしーなめっしーな,雑穀米、味噌汁、サバの塩焼き、なす味噌、がんも煮、マカロニグラタン、白菜の浅漬け、豚しゃぶ、冷やし中華、タラモサラダ、グリーンアスパラの塩焼き、きんぴらごぼう（カレー味）、マフェ、玉子焼き、ブロッコリーサラダ、枝豆豆腐（わさび塩）、キュウリとトマトの塩麴和え、おくらとみょうがの和えもの,"https://www.google.com/maps/place/%E3%83%9E%E3%83%83%E3%82%B7%E3%83%BC%E3%83%8A+%E3%83%A1%E3%83%83%E3%82%B7%E3%83%BC%E3%83%8A/@35.5467775,139.4469357,16.17z/data=!4m15!1m8!3m7!1s0x6018f94e8632c98d:0x5ae1a1e8a65ff87!2z44CSMTk0LTAwMTQg5p2x5Lqs6YO955S655Sw5biC6auY44O25Z2C77yR5LiB55uu77yU4oiS77yR77yX!3b1!8m2!3d35.5479861!4d139.4522605!16s%2Fg%2F11clqqz5fs!3m5!1s0x6018f390f11d53cd:0xcfa3ed5a47688251!8m2!3d35.5479792!4d139.4522785!16s%2Fg%2F1vpq6y3s?entry=ttu","<iframe src=""https://www.google.com/maps/embed?pb=!1m18!1m12!1m3!1d5764.265570812916!2d139.4469356509925!3d35.546777510081995!2m3!1f0!2f0!3f0!3m2!1i1024!2i768!4f13.1!3m3!1m2!1s0x6018f390f11d53cd%3A0xcfa3ed5a47688251!2z44Oe44OD44K344O844OKIOODoeODg-OCt-ODvOODig!5e0!3m2!1sja!2sjp!4v1710916409970!5m2!1sja!2sjp"" width=""600"" height=""450"" style=""border:0;"" allowfullscreen="""" loading=""lazy"" referrerpolicy=""no-referrer-when-downgrade""></iframe>",東京都,町田市,高ヶ坂1-4-17,町田駅,・町田駅から902m,070-9026-2138,,https://tabelog.com/tokyo/A1327/A132701/13284418/,35.54849426876993,139.45252923066616
サルシータ,さるしーた,ソペス、メキシカンレモネード、ユカタン風チキンとライムのスープ、ズッキーニのプディン（S）、チョリソのケソ、トルティーヤ、鶏肉のピピアンベルデ,"https://www.google.com/maps/place/%E3%82%B5%E3%83%AB%E3%82%B7%E3%83%BC%E3%82%BF/@35.6512054,139.7223709,18.22z/data=!3m1!5s0x60188b72ce25a5f7:0xb40fcaf700a57936!4m6!3m5!1s0x60188b72d1f448d1:0x242973c65ffb10d2!8m2!3d35.6510263!4d139.723645!16s%2Fg%2F1trtv9cp?entry=ttu","<iframe src=""https://www.google.com/maps/embed?pb=!1m18!1m12!1m3!1d1395.5007352191647!2d139.72237091201887!3d35.651205431526314!2m3!1f0!2f0!3f0!3m2!1i1024!2i768!4f13.1!3m3!1m2!1s0x60188b72d1f448d1%3A0x242973c65ffb10d2!2z44K144Or44K344O844K_!5e0!3m2!1sja!2sjp!4v1710916771981!5m2!1sja!2sjp"" width=""600"" height=""450"" style=""border:0;"" allowfullscreen="""" loading=""lazy"" referrerpolicy=""no-referrer-when-downgrade""></iframe>",東京都,港区,南麻布4-5-65 広尾アーバンビルＢ１Ｆ,広尾駅,"・東京メトロ 広尾駅より徒歩1分
・広尾駅から162m",03-3280-1145,,https://tabelog.com/tokyo/A1307/A130703/13045856/,35.6511209985113,139.72365936179216
餃子・タンメン 一番,ぎょうざたんめんいちばん,タンメン、餃子,"https://www.google.com/maps/place/%E9%A4%83%E5%AD%90%E3%83%BB%E3%82%BF%E3%83%B3%E3%83%A1%E3%83%B3+%E4%B8%80%E7%95%AA/@36.2109252,138.7842335,18.33z/data=!4m15!1m8!3m7!1s0x601e9c942c00c045:0x29ea45229ed9b4b4!2z44CSMzcwLTI2MDEg576k6aas55yM55SY5qW96YOh5LiL5LuB55Sw55S65LiL5LuB55Sw77yT77yW77yS!3b1!8m2!3d36.2110247!4d138.7840218!16s%2Fg%2F12hpmc0_j!3m5!1s0x601e9c942c172f91:0x2d9520ee1d037aa4!8m2!3d36.2110433!4d138.7841804!16s%2Fg%2F1tf3n_8k?entry=ttu","<iframe src=""https://www.google.com/maps/embed?pb=!1m18!1m12!1m3!1d1280.1772841469628!2d138.78423346714996!3d36.21092516851164!2m3!1f0!2f0!3f0!3m2!1i1024!2i768!4f13.1!3m3!1m2!1s0x601e9c942c172f91%3A0x2d9520ee1d037aa4!2z6aSD5a2Q44O744K_44Oz44Oh44OzIOS4gOeVqg!5e0!3m2!1sja!2sjp!4v1710917681079!5m2!1sja!2sjp"" width=""600"" height=""450"" style=""border:0;"" allowfullscreen="""" loading=""lazy"" referrerpolicy=""no-referrer-when-downgrade""></iframe>",群馬県,甘楽郡下仁田町,下仁田362,下仁田駅,"・上信電鉄上信線 下仁田駅より徒歩5分
・下仁田駅から191m",0274-82-2594,,https://tabelog.com/gunma/A1005/A100501/10005946/,36.21111278265678,138.7841822684116
コロムビア,ころむびあ,豚すき焼き、すき焼き〆ごはん（半ライス・生卵）,"https://www.google.com/maps/place/%E3%82%B3%E3%83%AD%E3%83%A0%E3%83%93%E3%82%A2/@36.2109825,138.7838039,18.22z/data=!4m15!1m8!3m7!1s0x601e9c942c00c045:0x29ea45229ed9b4b4!2z44CSMzcwLTI2MDEg576k6aas55yM55SY5qW96YOh5LiL5LuB55Sw55S65LiL5LuB55Sw77yT77yW77yS!3b1!8m2!3d36.2110247!4d138.7840218!16s%2Fg%2F12hpmc0_j!3m5!1s0x601e9c942c172f91:0x6f2bc3adf07b339c!8m2!3d36.2110246!4d138.7840417!16s%2Fg%2F1ty74bnw?entry=ttu","<iframe src=""https://www.google.com/maps/embed?pb=!1m18!1m12!1m3!1d1380.6028976537284!2d138.7838038773191!3d36.210982506249096!2m3!1f0!2f0!3f0!3m2!1i1024!2i768!4f13.1!3m3!1m2!1s0x601e9c942c172f91%3A0x6f2bc3adf07b339c!2z44Kz44Ot44Og44OT44Ki!5e0!3m2!1sja!2sjp!4v1710917895944!5m2!1sja!2sjp"" width=""600"" height=""450"" style=""border:0;"" allowfullscreen="""" loading=""lazy"" referrerpolicy=""no-referrer-when-downgrade""></iframe>",群馬県,甘楽郡下仁田町,下仁田362,下仁田駅,"・上信電鉄上信線 下仁田駅より徒歩5分
・下仁田駅から202m",0274-82-3128,,https://tabelog.com/gunma/A1005/A100501/10005687/,36.211110587924765,138.78403394043616
眞実一路,しんじついちろ,白茶、ワンタン入 滋養スープ、ザーサイのネギ生姜和え、海老と大葉のハルマキ、豚ヒレと野菜の五目のハルマキ、緑麻婆豆腐、五味一体 麻婆豆腐、正式杏仁豆腐,"https://www.google.com/maps/place/%E7%9C%9E%E5%AE%9F%E4%B8%80%E8%B7%AF/@35.7338257,139.7778251,18.63z/data=!4m14!1m7!3m6!1s0x60188e7bd595fe7f:0x6b178082985692a9!2z44CSMTE2LTAwMTMg5p2x5Lqs6YO96I2S5bed5Yy66KW_5pel5pqu6YeM77yR5LiB55uu77yU4oiS77yR77ySIOOCs-ODvOODneOBk-OBoOOBviAxMDI!3b1!8m2!3d35.7342628!4d139.7780369!3m5!1s0x60188e7bd5960bcb:0x67a6814315968b0e!8m2!3d35.7342673!4d139.7779951!16s%2Fg%2F11bwnydzj_?entry=ttu","<iframe src=""https://www.google.com/maps/embed?pb=!1m18!1m12!1m3!1d1044.4963041220396!2d139.77782513414854!3d35.7338257093311!2m3!1f0!2f0!3f0!3m2!1i1024!2i768!4f13.1!3m3!1m2!1s0x60188e7bd5960bcb%3A0x67a6814315968b0e!2z55ye5a6f5LiA6Lev!5e0!3m2!1sja!2sjp!4v1710919201572!5m2!1sja!2sjp"" width=""600"" height=""450"" style=""border:0;"" allowfullscreen="""" loading=""lazy"" referrerpolicy=""no-referrer-when-downgrade""></iframe>",東京都,荒川区,西日暮里１丁目４−１２,三河島駅,"・JR常磐線「三河島駅」より徒歩2分
・三河島駅から134m",03-6806-5232,,https://tabelog.com/tokyo/A1324/A132401/13187864/,35.734298975001494,139.77799467957973
羅甸,らてん,銀だらの煮付け、お刺身（マグロ赤身・イカ）、マグロの角煮、沖縄産生もずく、ご飯（半分）,"https://www.google.com/maps/place/%E7%BE%85%E7%94%B8(%E3%82%89%E3%81%A6%E3%82%93)/@35.6635998,139.8950361,16.25z/data=!4m15!1m8!3m7!1s0x60187d86a5aec983:0x161fc19a70372a98!2z44CSMjc5LTAwMDIg5Y2D6JGJ55yM5rWm5a6J5biC5YyX5qCE77yU5LiB55uu77yR77yW4oiS77yV!3b1!8m2!3d35.662444!4d139.9015877!16s%2Fg%2F11clq1rgqg!3m5!1s0x60187d5ff73b4bf9:0xebd8861b4b606d35!8m2!3d35.6624642!4d139.9015582!16s%2Fg%2F11bysjrgg_?entry=ttu","<iframe src=""https://www.google.com/maps/embed?pb=!1m18!1m12!1m3!1d5468.0606989055095!2d139.89503612968252!3d35.663599808143196!2m3!1f0!2f0!3f0!3m2!1i1024!2i768!4f13.1!3m3!1m2!1s0x60187d5ff73b4bf9%3A0xebd8861b4b606d35!2z576F55S4KOOCieOBpuOCkyk!5e0!3m2!1sja!2sjp!4v1710919586378!5m2!1sja!2sjp"" width=""600"" height=""450"" style=""border:0;"" allowfullscreen="""" loading=""lazy"" referrerpolicy=""no-referrer-when-downgrade""></iframe>",千葉県,浦安市,北栄4-16-5,浦安駅,・浦安駅から887m,047-351-1855,,https://tabelog.com/chiba/A1202/A120203/12024675/,35.66268080853948,139.90149716575786
カトリカ,かとりか,ハムとタマゴ＆納豆のピザ（ハーフ＆ハーフ）、辛いパスタ,"https://www.google.com/maps/place/%E3%82%AB%E3%83%88%E3%83%AA%E3%82%AB/@35.7267176,139.8198072,17.43z/data=!4m15!1m8!3m7!1s0x60188f185eab7fef:0x5d2a012274ba397e!2z44CSMTMxLTAwMzIg5p2x5Lqs6YO95aKo55Sw5Yy65p2x5ZCR5bO277yV5LiB55uu77yS77yZ4oiS77yW!3b1!8m2!3d35.7280133!4d139.8218009!16s%2Fg%2F11cpn85rdq!3m5!1s0x60188f185c0f3b0d:0xcf2c19680425c44a!8m2!3d35.7280269!4d139.8218789!16s%2Fg%2F1vfwcvzd?entry=ttu","<iframe src=""https://www.google.com/maps/embed?pb=!1m18!1m12!1m3!1d2398.4800511311205!2d139.8198071853646!3d35.726717591796024!2m3!1f0!2f0!3f0!3m2!1i1024!2i768!4f13.1!3m3!1m2!1s0x60188f185c0f3b0d%3A0xcf2c19680425c44a!2z44Kr44OI44Oq44Kr!5e0!3m2!1sja!2sjp!4v1710920183239!5m2!1sja!2sjp"" width=""600"" height=""450"" style=""border:0;"" allowfullscreen="""" loading=""lazy"" referrerpolicy=""no-referrer-when-downgrade""></iframe>",東京都,墨田区,東向島5丁目29-6,東向島駅,"・東武鉄道 伊勢崎線 東向島駅より徒歩10分
・東向島駅から462m",03-3618-6747,,https://tabelog.com/tokyo/A1312/A131203/13040601/,35.728146174630176,139.82192843468718
泪橋,なみだばし,お通し（アボガドとチーズの正油和え、鶏皮の酢の物）、ささ身ときゅうりのごま和え、チキン南蛮、鶏ガラスープ、鯖串、豚ばら味噌串、地鶏もも串,"https://www.google.com/maps/place/%E6%B3%AA%E6%A9%8B/@35.7082685,139.6636185,17.14z/data=!3m1!5s0x6018f2973fae5b61:0x4345f92398b7d5fd!4m15!1m8!3m7!1s0x6018f2973f623a1b:0x9a9bdf44f3cf9d5d!2z44CSMTY0LTAwMDEg5p2x5Lqs6YO95Lit6YeO5Yy65Lit6YeO77yV5LiB55uu77yV77yT4oiS77yR77yQ!3b1!8m2!3d35.7091605!4d139.6666838!16s%2Fg%2F11bw7rmwsp!3m5!1s0x6018f2973f9ff91f:0x42c048b3ede1bd21!8m2!3d35.709141!4d139.6667738!16s%2Fg%2F1tg6klfx?entry=ttu","<iframe src=""https://www.google.com/maps/embed?pb=!1m18!1m12!1m3!1d2939.339308402133!2d139.66361850318822!3d35.70826847572604!2m3!1f0!2f0!3f0!3m2!1i1024!2i768!4f13.1!3m3!1m2!1s0x6018f2973f9ff91f%3A0x42c048b3ede1bd21!2z5rOq5qmL!5e0!3m2!1sja!2sjp!4v1710922268518!5m2!1sja!2sjp"" width=""600"" height=""450"" style=""border:0;"" allowfullscreen="""" loading=""lazy"" referrerpolicy=""no-referrer-when-downgrade""></iframe>",東京都,中野区,中野5-53-10,中野駅,"・JR中央線 中野駅北口より徒歩5分
・中野駅から386m",03-6383-2900,,https://tabelog.com/tokyo/A1319/A131902/13049477/,35.709268330684864,139.6667431328292
味のレストラン えびすや 幸町店,あじのれすとらんえびすやさいわいちょうてん,特製ニンニクスープ、ガーリックトースト、生鮭のバター焼き、カニピラフ、自家製プリン,"https://www.google.com/maps/place/%E5%91%B3%E3%81%AE%E3%83%AC%E3%82%B9%E3%83%88%E3%83%A9%E3%83%B3+%E3%81%88%E3%81%B3%E3%81%99%E3%82%84+%E5%B9%B8%E7%94%BA%E5%BA%97/@35.6153609,140.0998968,17.03z/data=!4m15!1m8!3m7!1s0x602284a080572fe5:0x65f877f61fb191f4!2z44CSMjYxLTAwMDEg5Y2D6JGJ55yM5Y2D6JGJ5biC576O5rWc5Yy65bm455S677yR5LiB55uu77yR77yY4oiS77yRIOOCteODreODs-ODluODq-ODvOODmeODqw!3b1!8m2!3d35.6146234!4d140.1010832!16s%2Fg%2F12hq491zw!3m5!1s0x602284a080628047:0xbacd786d8da1cce3!8m2!3d35.6145683!4d140.101005!16s%2Fg%2F11c6v5xfzm?entry=ttu","<iframe src=""https://www.google.com/maps/embed?pb=!1m18!1m12!1m3!1d3176.35107575443!2d140.09989682893433!3d35.61536089229649!2m3!1f0!2f0!3f0!3m2!1i1024!2i768!4f13.1!3m3!1m2!1s0x602284a080628047%3A0xbacd786d8da1cce3!2z5ZGz44Gu44Os44K544OI44Op44OzIOOBiOOBs-OBmeOChCDlubjnlLrlupc!5e0!3m2!1sja!2sjp!4v1710923098985!5m2!1sja!2sjp"" width=""600"" height=""450"" style=""border:0;"" allowfullscreen="""" loading=""lazy"" referrerpolicy=""no-referrer-when-downgrade""></iframe>",千葉県,千葉市美浜区,幸町1-18-1,西登戸駅,・西登戸駅から380m,050-5570-9897,,https://tabelog.com/chiba/A1201/A120103/12000797/,35.614733098496885,140.1010315541856
南粤美食,なんえつびしょく,アヒルのパリパリあげ梅ソースつき、香港海老雲呑麺、腸詰め干し肉貝柱釜飯、丸鶏の塩蒸し焼き(半羽),"https://www.google.com/maps/place/%E5%8D%97%E7%B2%A4%E7%BE%8E%E9%A3%9F/@35.4433188,139.6461568,17.73z/data=!4m6!3m5!1s0x60185ce3112dbfff:0xd592e68933505aa!8m2!3d35.4437494!4d139.6469279!16s%2Fg%2F11cr_gckwq?entry=ttu","<iframe src=""https://www.google.com/maps/embed?pb=!1m18!1m12!1m3!1d1960.0639253970448!2d139.6461567884992!3d35.44331880402807!2m3!1f0!2f0!3f0!3m2!1i1024!2i768!4f13.1!3m3!1m2!1s0x60185ce3112dbfff%3A0xd592e68933505aa!2z5Y2X57Kk576O6aOf!5e0!3m2!1sja!2sjp!4v1710923402732!5m2!1sja!2sjp"" width=""600"" height=""450"" style=""border:0;"" allowfullscreen="""" loading=""lazy"" referrerpolicy=""no-referrer-when-downgrade""></iframe>",神奈川県,横浜市,中区山下町165-2 INビル,元町・中華街駅,"・みなとみらい線 元町中華街駅3番出口より徒歩5分
・元町・中華街駅から388m",045-681-6228,,https://tabelog.com/kanagawa/A1401/A140105/14064517/,35.44389594549424,139.64696548866303
四馬路,すまろ,ロールキャベツ、紅白なます、味噌汁（ワカメ・ほうれん草・カボチャ）,"https://www.google.com/maps/place/%E5%9B%9B%E9%A6%AC%E8%B7%AF%EF%BC%88%E3%81%99%E3%81%BE%E3%82%8D%EF%BC%89/@35.6716174,139.7611571,17.86z/data=!3m1!5s0x60188bef144254bb:0x4083b2558f6487d0!4m6!3m5!1s0x60188bef14401a03:0xbdfa40ac87b2c491!8m2!3d35.6715544!4d139.761258!16s%2Fg%2F1tcwr3pp?entry=ttu","<iframe src=""https://www.google.com/maps/embed?pb=!1m18!1m12!1m3!1d1791.8554152252088!2d139.7611571333772!3d35.67161735233407!2m3!1f0!2f0!3f0!3m2!1i1024!2i768!4f13.1!3m3!1m2!1s0x60188bef14401a03%3A0xbdfa40ac87b2c491!2z5Zub6aas6Lev77yI44GZ44G-44KN77yJ!5e0!3m2!1sja!2sjp!4v1710927529909!5m2!1sja!2sjp"" width=""600"" height=""450"" style=""border:0;"" allowfullscreen="""" loading=""lazy"" referrerpolicy=""no-referrer-when-downgrade""></iframe>",東京都,中央区,銀座6-3-16 泰明ビル本館 B1F,銀座駅,"・東京メトロ 銀座線/丸ノ内線/日比谷線 銀座駅C2・C3出口徒歩3分
・銀座駅から265m",03-3289-8681,,https://tabelog.com/tokyo/A1301/A130101/13170099/,35.67163421671653,139.76127575864317
うどんや 藤,うどんやふじ,田舎うどん（中もり）、肉汁（肉増し1.5倍）、味付け煮玉子、五目野菜汁、おむすび（あげ玉ごま）,"https://www.google.com/maps/place/%E3%81%86%E3%81%A9%E3%82%93%E3%82%84+%E8%97%A4/@35.7726219,139.5608265,16.42z/data=!4m6!3m5!1s0x6018e8d92734055f:0xc28b43dabd042a2a!8m2!3d35.7731067!4d139.5641846!16s%2Fg%2F1tmg6l7z?entry=ttu","<iframe src=""https://www.google.com/maps/embed?pb=!1m18!1m12!1m3!1d4855.382486975247!2d139.5608264542446!3d35.77262188157434!2m3!1f0!2f0!3f0!3m2!1i1024!2i768!4f13.1!3m3!1m2!1s0x6018e8d92734055f%3A0xc28b43dabd042a2a!2z44GG44Gp44KT44KEIOiXpA!5e0!3m2!1sja!2sjp!4v1710929701071!5m2!1sja!2sjp"" width=""600"" height=""450"" style=""border:0;"" allowfullscreen="""" loading=""lazy"" referrerpolicy=""no-referrer-when-downgrade""></iframe>",埼玉県,新座市,道場1-12-20,保谷駅,"・保谷駅から2,774m",048-482-5775,,https://tabelog.com/saitama/A1103/A110301/11062127/,35.773307338801374,139.56418974615173
コンマ コーヒー,こんまこーひー,アイスコーヒー、カステラパンケーキ,"https://www.google.com/maps/place/%E3%82%B3%E3%83%B3%E3%83%9E+%E3%82%B3%E3%83%BC%E3%83%92%E3%83%BC/@35.7436723,139.5299419,16.13z/data=!3m1!5s0x6018e8aeb3132e55:0x1f51e1450b6f88fd!4m6!3m5!1s0x6018e8a94ca0e489:0xd6be7f27f9a6342f!8m2!3d35.7442874!4d139.533!16s%2Fg%2F11c5s5fw36?entry=ttu","<iframe src=""https://www.google.com/maps/embed?pb=!1m18!1m12!1m3!1d5936.268003367751!2d139.52994188736628!3d35.74367225362171!2m3!1f0!2f0!3f0!3m2!1i1024!2i768!4f13.1!3m3!1m2!1s0x6018e8a94ca0e489%3A0xd6be7f27f9a6342f!2z44Kz44Oz44OeIOOCs-ODvOODkuODvA!5e0!3m2!1sja!2sjp!4v1710930229437!5m2!1sja!2sjp"" width=""600"" height=""450"" style=""border:0;"" allowfullscreen="""" loading=""lazy"" referrerpolicy=""no-referrer-when-downgrade""></iframe>",東京都,西東京市,ひばりが丘3-4-47 HIBARI TERRACE 118 1F,ひばりケ丘駅,"・ 西武池袋線 ひばりヶ丘駅南口から徒歩20分
・南口西武バス➁番のりば「ひばりヶ丘駅」—「ひばりが丘団地」下車 徒歩4分
・ひばりケ丘駅から1,392m",042-465-1665,,https://tabelog.com/tokyo/A1328/A132801/13191253/,35.74471781956367,139.5329706904003
焼肉宝来軒,やきにくほうらいけん,キムチ、肉スープ（ハーフ）、豚カルビ、豚ロース、牛上カルビ,"https://www.google.com/maps/place/%E7%84%BC%E8%82%89%E5%AE%9D%E6%9D%A5%E8%BB%92/@36.2482134,139.0777258,17.39z/data=!4m6!3m5!1s0x601eeb010ce3b54f:0x5514de4d14aec64b!8m2!3d36.24788!4d139.0780232!16s%2Fg%2F1tfmhxjv?entry=ttu","<iframe src=""https://www.google.com/maps/embed?pb=!1m18!1m12!1m3!1d2453.004590676422!2d139.07772584609194!3d36.24821341651136!2m3!1f0!2f0!3f0!3m2!1i1024!2i768!4f13.1!3m3!1m2!1s0x601eeb010ce3b54f%3A0x5514de4d14aec64b!2z54S86IKJ5a6d5p2l6LuS!5e0!3m2!1sja!2sjp!4v1710930516122!5m2!1sja!2sjp"" width=""600"" height=""450"" style=""border:0;"" allowfullscreen="""" loading=""lazy"" referrerpolicy=""no-referrer-when-downgrade""></iframe>",群馬県,藤岡市,藤岡327-1,群馬藤岡駅,"・群馬藤岡駅より徒歩8分
・群馬藤岡駅から565m",0274-22-3893,,https://tabelog.com/gunma/A1005/A100502/10003191/,36.24797924888958,139.07804483673925
タイレストラン イサーン,たいれすとらんいさーん,ナムトックムー（ローストポークのサラダ）、ジャスミンライス、チムチュム（イサーン風ハーブ鍋）、辛ダレ、〆の米麺セット,"https://www.google.com/maps/place/%E3%82%BF%E3%82%A4%E3%83%AC%E3%82%B9%E3%83%88%E3%83%A9%E3%83%B3+%E3%82%A4%E3%82%B5%E3%83%BC%E3%83%B3/@35.715864,139.7918034,17.67z/data=!4m6!3m5!1s0x60188eeab2d891d3:0xa09acd48edfc2f93!8m2!3d35.7159606!4d139.7933798!16s%2Fg%2F1tdc9tct?entry=ttu","<iframe src=""https://www.google.com/maps/embed?pb=!1m18!1m12!1m3!1d2035.9141098949892!2d139.7918034169932!3d35.715864016126!2m3!1f0!2f0!3f0!3m2!1i1024!2i768!4f13.1!3m3!1m2!1s0x60188eeab2d891d3%3A0xa09acd48edfc2f93!2z44K_44Kk44Os44K544OI44Op44OzIOOCpOOCteODvOODsw!5e0!3m2!1sja!2sjp!4v1710930816186!5m2!1sja!2sjp"" width=""600"" height=""450"" style=""border:0;"" allowfullscreen="""" loading=""lazy"" referrerpolicy=""no-referrer-when-downgrade""></iframe>",東京都,台東区,浅草2-17-3 吉野ビル 1F,浅草駅（TX）,"・TX浅草駅より2分
・浅草駅（TX）から227m",03-5246-4613,,https://tabelog.com/tokyo/A1311/A131102/13211345/,35.71604194310661,139.79341496235816
まつやホルモン店,まつやほるもんてん,オーカク（塩）、ご飯（中）、たくあん、ホルモンそば、サイコロステーキ,"https://www.google.com/maps/place/%E3%81%BE%E3%81%A4%E3%82%84%E3%83%9B%E3%83%AB%E3%83%A2%E3%83%B3%E5%BA%97/@35.4911793,134.2271408,15.28z/data=!4m15!1m8!3m7!1s0x35558fee03c95c63:0x44a5bb3e370c48d9!2z44CSNjgwLTA4NDEg6bOl5Y-W55yM6bOl5Y-W5biC5ZCJ5pa55rip5rOJ77yU5LiB55uu77yU77yT77yS!3b1!8m2!3d35.4910627!4d134.238251!16s%2Fg%2F11cllwmxkc!3m5!1s0x35558fee02247769:0xe5552df2eae6203a!8m2!3d35.4910692!4d134.2382681!16s%2Fg%2F1tcw1frn?entry=ttu","<iframe src=""https://www.google.com/maps/embed?pb=!1m18!1m12!1m3!1d10721.66444936594!2d134.22714079996348!3d35.491179327715585!2m3!1f0!2f0!3f0!3m2!1i1024!2i768!4f13.1!3m3!1m2!1s0x35558fee02247769%3A0xe5552df2eae6203a!2z44G-44Gk44KE44Ob44Or44Oi44Oz5bqX!5e0!3m2!1sja!2sjp!4v1710931184739!5m2!1sja!2sjp"" width=""600"" height=""450"" style=""border:0;"" allowfullscreen="""" loading=""lazy"" referrerpolicy=""no-referrer-when-downgrade""></iframe>",鳥取県,鳥取市,吉方温泉4-432,鳥取駅,"・ＪＲ鳥取駅より徒歩17分
・鳥取駅から1,156m",0857-23-3050,,https://tabelog.com/tottori/A3101/A310101/31001933/,35.4911937432802,134.2382950018468
南インドの定食と軽食 三燈舎,みなみいんどのていしょくとけいしょくさんとうしゃ,濃厚ラッシー、ガーリックチーズ ドーサ(ハーフ)、チャツネ（チリ・ミント・ココナッツ）、サンバル、サントウシャ ミールス（サンバル・ラッサム・トーレン・さんまのカレー・チキンカレー・パパド・バトゥーラ・バスマティライス・マサラワダ）、海老カレーバナナの葉包み,"https://www.google.com/maps/place/%E5%8D%97%E3%82%A4%E3%83%B3%E3%83%89%E3%81%AE%E5%AE%9A%E9%A3%9F%E3%81%A8%E8%BB%BD%E9%A3%9F+%E4%B8%89%E7%87%88%E8%88%8E/@35.6947139,139.7624858,17.22z/data=!3m1!5s0x60188c1aa085b7b1:0xa404584e3f68f6fb!4m6!3m5!1s0x60188d6afa810db3:0x59c0a3b3a839689c!8m2!3d35.6947842!4d139.7626842!16s%2Fg%2F11fl94h4rr?entry=ttu","<iframe src=""https://www.google.com/maps/embed?pb=!1m18!1m12!1m3!1d2783.5374176161586!2d139.76248579323587!3d35.69471390623959!2m3!1f0!2f0!3f0!3m2!1i1024!2i768!4f13.1!3m3!1m2!1s0x60188d6afa810db3%3A0x59c0a3b3a839689c!2z5Y2X44Kk44Oz44OJ44Gu5a6a6aOf44Go6Lu96aOfIOS4ieeHiOiIjg!5e0!3m2!1sja!2sjp!4v1710931834420!5m2!1sja!2sjp"" width=""600"" height=""450"" style=""border:0;"" allowfullscreen="""" loading=""lazy"" referrerpolicy=""no-referrer-when-downgrade""></iframe>",東京都,千代田区,神田小川町3-2 古室ビル 2F,小川町駅,"・都営新宿線 小川町駅より徒歩３分
・小川町駅から338m",050-3697-2547,,https://tabelog.com/tokyo/A1310/A131002/13234867/,35.69500208136383,139.76271620626534
旬菜魚 いなだ,しゅんさいぎょいなだ,ぶりの照焼き、日替り煮物、ほうれん草の胡麻和え、クリームコロッケ、自家製梅干し、お刺身（マグロ・カンパチ・ホタテ）、月見とろろ,"https://www.google.com/maps/place/%E6%97%AC%E8%8F%9C%E9%AD%9A+%E3%81%84%E3%81%AA%E3%81%A0/@35.6551077,139.6469643,18.04z/data=!4m15!1m8!3m7!1s0x6018f39fa4836d63:0x20327d0ac255d3ce!2z44CSMTU0LTAwMjEg5p2x5Lqs6YO95LiW55Sw6LC35Yy66LGq5b6z5a-677yR5LiB55uu77yU77yX4oiS77yYIOWkp-OCgOOCiQ!3b1!8m2!3d35.6555607!4d139.648268!16s%2Fg%2F11fx4m610x!3m5!1s0x6018f39fa49c4b85:0x27b8b30d35e85f14!8m2!3d35.6555607!4d139.648268!16s%2Fg%2F1tjwhssc?entry=ttu","<iframe src=""https://www.google.com/maps/embed?pb=!1m18!1m12!1m3!1d1579.296003575209!2d139.6469643170523!3d35.65510774599204!2m3!1f0!2f0!3f0!3m2!1i1024!2i768!4f13.1!3m3!1m2!1s0x6018f39fa49c4b85%3A0x27b8b30d35e85f14!2z5pes6I-c6a2aIOOBhOOBquOBoA!5e0!3m2!1sja!2sjp!4v1710942115045!5m2!1sja!2sjp"" width=""600"" height=""450"" style=""border:0;"" allowfullscreen="""" loading=""lazy"" referrerpolicy=""no-referrer-when-downgrade""></iframe>",東京都,世田谷区,豪徳寺1-47-8,豪徳寺駅,"・小田急小田原線 豪徳寺駅より徒歩3分
・豪徳寺駅から224m",03-3428-4235,,https://tabelog.com/tokyo/A1318/A131813/13013832/,35.65561523839157,139.64831800243394
ジンギスカン どぅー,じんぎすかんどぅー,チャックロール ネギ塩焼き、ごはん（中）、ハム、ジンギスカンセット,"https://www.google.com/maps/place/%E3%82%B8%E3%83%B3%E3%82%AE%E3%82%B9%E3%82%AB%E3%83%B3+%E3%81%A9%E3%81%85%E3%83%BC/@35.5755822,139.6583496,18.03z/data=!3m1!5s0x6018f57b72ea9df9:0x7fbc2f3bc5e03b8f!4m6!3m5!1s0x6018f57b71be6aeb:0x377625eb1af4164a!8m2!3d35.5749674!4d139.658507!16s%2Fg%2F1xpwjtyw?entry=ttu","<iframe src=""https://www.google.com/maps/embed?pb=!1m18!1m12!1m3!1d1589.1271917037473!2d139.6583496223677!3d35.575582247137326!2m3!1f0!2f0!3f0!3m2!1i1024!2i768!4f13.1!3m3!1m2!1s0x6018f57b71be6aeb%3A0x377625eb1af4164a!2z44K444Oz44Ku44K544Kr44OzIOOBqeOBheODvA!5e0!3m2!1sja!2sjp!4v1710942531335!5m2!1sja!2sjp"" width=""600"" height=""450"" style=""border:0;"" allowfullscreen="""" loading=""lazy"" referrerpolicy=""no-referrer-when-downgrade""></iframe>",神奈川県,川崎市中原区,小杉町3-430 伊藤ビル１Ｆ,武蔵小杉駅,・武蔵小杉駅から131m,044-733-2730,,https://tabelog.com/kanagawa/A1405/A140504/14003439/,35.575028859556944,139.65852300086553
中華・洋食 やよい,ちゅうかようしょくやよい,カツ丼・上（お新香・味噌汁付）、冷し麻婆麺、餃子,"https://www.google.com/maps/place/%E4%B8%AD%E8%8F%AF%E3%83%BB%E6%B4%8B%E9%A3%9F+%E3%82%84%E3%82%88%E3%81%84/@35.7221466,139.7966454,18.82z/data=!4m15!1m8!3m7!1s0x60188eec153d321b:0x914f5775908fd028!2z44CSMTExLTAwMzIg5p2x5Lqs6YO95Y-w5p2x5Yy65rWF6I2J77yV5LiB55uu77yW77yQ4oiS77yR!3b1!8m2!3d35.7224604!4d139.7972534!16s%2Fg%2F12hlxp607!3m5!1s0x60188eec14c50fb1:0x751e9130cc0e12d1!8m2!3d35.722327!4d139.7972099!16s%2Fg%2F1t_tk8_t?entry=ttu","<iframe src=""https://www.google.com/maps/embed?pb=!1m18!1m12!1m3!1d916.2293797920366!2d139.79664544213594!3d35.72214663731866!2m3!1f0!2f0!3f0!3m2!1i1024!2i768!4f13.1!3m3!1m2!1s0x60188eec14c50fb1%3A0x751e9130cc0e12d1!2z5Lit6I-v44O75rSL6aOfIOOChOOCiOOBhA!5e0!3m2!1sja!2sjp!4v1710943302943!5m2!1sja!2sjp"" width=""600"" height=""450"" style=""border:0;"" allowfullscreen="""" loading=""lazy"" referrerpolicy=""no-referrer-when-downgrade""></iframe>",東京都,台東区,浅草5-60-1,三ノ輪駅,・三ノ輪駅から966m,03-3872-7710,,https://tabelog.com/tokyo/A1311/A131102/13073525/,35.72235729108816,139.79720383706078
とんかつ しお田,とんかつしおた,ひれかつ御膳（ふつう）、豚汁、なすの揚げ浸し、魚介クリームコロッケ、エビフライ,"https://www.google.com/maps/place/%E3%81%A8%E3%82%93%E3%81%8B%E3%81%A4+%E3%81%97%E3%81%8A%E7%94%B0/@35.5863393,139.5825496,17z/data=!4m15!1m8!3m7!1s0x6018f6ed9670d44b:0xece487b6c2869d8b!2z44CSMjE2LTAwMDYg56We5aWI5bed55yM5bed5bSO5biC5a6u5YmN5Yy65a6u5YmN5bmz77yT5LiB55uu77yR77yQ4oiS77yR77yXIOe-juWuueWupOOBl-OBruOBoA!3b1!8m2!3d35.5870184!4d139.5856349!16s%2Fg%2F11cln4wm91!3m5!1s0x6018f6ed96642fcd:0xfcb9c97ebdf77359!8m2!3d35.5870182!4d139.5857066!16s%2Fg%2F1tfq4prd?entry=ttu","<iframe src=""https://www.google.com/maps/embed?pb=!1m18!1m12!1m3!1d2281.8551141898793!2d139.5825495902234!3d35.5863393209626!2m3!1f0!2f0!3f0!3m2!1i1024!2i768!4f13.1!3m3!1m2!1s0x6018f6ed96642fcd%3A0xfcb9c97ebdf77359!2z44Go44KT44GL44GkIOOBl-OBiueUsA!5e0!3m2!1sja!2sjp!4v1710944163002!5m2!1sja!2sjp"" width=""600"" height=""450"" style=""border:0;"" allowfullscreen="""" loading=""lazy"" referrerpolicy=""no-referrer-when-downgrade""></iframe>",神奈川県,川崎市宮前区,宮前平3-10-17,宮前平駅,"・東急田園都市線 宮前平駅より徒歩6分
・宮前平駅から400m",044-877-5145,,https://tabelog.com/kanagawa/A1405/A140507/14000033/,35.58710938915185,139.58574119718565
魚処 にしけん,さかなどころにしけん,金目の煮つけ定食、あら汁、レンコンのきんぴら、刺身五点舟盛,"https://www.google.com/maps/place/%E9%AD%9A%E5%87%A6+%E3%81%AB%E3%81%97%E3%81%91%E3%82%93/@35.2965454,139.2412725,15.28z/data=!4m6!3m5!1s0x6019aeff093261bf:0x47e8dedabc22194a!8m2!3d35.2941514!4d139.2464298!16s%2Fg%2F1tfjflpz?entry=ttu","<iframe src=""https://www.google.com/maps/embed?pb=!1m18!1m12!1m3!1d10745.16557788562!2d139.24127247748186!3d35.296545374346394!2m3!1f0!2f0!3f0!3m2!1i1024!2i768!4f13.1!3m3!1m2!1s0x6019aeff093261bf%3A0x47e8dedabc22194a!2z6a2a5YemIOOBq-OBl-OBkeOCkw!5e0!3m2!1sja!2sjp!4v1710945105021!5m2!1sja!2sjp"" width=""600"" height=""450"" style=""border:0;"" allowfullscreen="""" loading=""lazy"" referrerpolicy=""no-referrer-when-downgrade""></iframe>",神奈川県,中郡二宮町,山西226,二宮駅,"・神奈中バス 山西停留所から徒歩1分
・二宮駅から1,126m",0463-71-2323,,https://tabelog.com/kanagawa/A1404/A140408/14013701/,35.29479724864648,139.24651200780988
軽食喫茶 山小屋,けいしょくきっさやまごや,五郎オリジナルパフェ（アイス：宇治抹茶・フルーツ：パイン・ソース：マロン・トッピング：コーンフレーク）,"https://www.google.com/maps/place/%E8%BB%BD%E9%A3%9F%E5%96%AB%E8%8C%B6+%E5%B1%B1%E5%B0%8F%E5%B1%8B/@35.2986312,139.2579852,18.29z/data=!4m15!1m8!3m7!1s0x6019aef5e475177f:0x9d62496d55d0764!2z44CSMjU5LTAxMjMg56We5aWI5bed55yM5Lit6YOh5LqM5a6u55S65LqM5a6u77yS77yS77yS!3b1!8m2!3d35.2986887!4d139.2590971!16s%2Fg%2F11clp9wt51!3m5!1s0x6019aef5e475177f:0x56680aeae98077bd!8m2!3d35.298569!4d139.259124!16s%2Fg%2F1tfv55fh?entry=ttu","<iframe src=""https://www.google.com/maps/embed?pb=!1m18!1m12!1m3!1d1335.7384648788563!2d139.25798516902782!3d35.2986312027457!2m3!1f0!2f0!3f0!3m2!1i1024!2i768!4f13.1!3m3!1m2!1s0x6019aef5e475177f%3A0x56680aeae98077bd!2z6Lu96aOf5Zar6Iy2IOWxseWwj-Wxiw!5e0!3m2!1sja!2sjp!4v1710945466624!5m2!1sja!2sjp"" width=""600"" height=""450"" style=""border:0;"" allowfullscreen="""" loading=""lazy"" referrerpolicy=""no-referrer-when-downgrade""></iframe>",神奈川県,中郡二宮町,二宮222,二宮駅,"・JR二宮駅より徒歩3分
・二宮駅から154m",0463-72-4941,,https://tabelog.com/kanagawa/A1404/A140408/14010017/,35.298650958042074,139.25913822781035
ギリシャ料理 タベルナ ミリュウ,ぎりしゃりょうりたべるなみりゅう,レモネード、前菜3種盛り合わせ（ザジキ・タラモ・メリザノ）、ドルマーデス、ムサカ、海老のサガナキ、バクラヴァ,"https://www.google.com/maps/place/%E3%82%AE%E3%83%AA%E3%82%B7%E3%83%A3%E6%96%99%E7%90%86+%E3%82%BF%E3%83%99%E3%83%AB%E3%83%8A+%E3%83%9F%E3%83%AA%E3%83%A5%E3%82%A6/@35.6564722,139.7370066,17.73z/data=!4m15!1m8!3m7!1s0x60188b988222ebaf:0xdfb30e793bf33a28!2z44CSMTA2LTAwNDQg5p2x5Lqs6YO95riv5Yy65p2x6bq75biD77yS5LiB55uu77yS77yT4oiS77yR77ySIOOCqOODq-ODoum6u-W4gw!3b1!8m2!3d35.656958!4d139.7392784!16s%2Fg%2F11dxmd03xg!3m5!1s0x60188b9881c3d3ad:0x82f5b1024acfb849!8m2!3d35.6569533!4d139.7392975!16s%2Fg%2F1tgfq340?entry=ttu","<iframe src=""https://www.google.com/maps/embed?pb=!1m18!1m12!1m3!1d1959.0493412086396!2d139.7370065520752!3d35.656472178026554!2m3!1f0!2f0!3f0!3m2!1i1024!2i768!4f13.1!3m3!1m2!1s0x60188b9881c3d3ad%3A0x82f5b1024acfb849!2z44Ku44Oq44K344Oj5paZ55CGIOOCv-ODmeODq-ODiiDjg5_jg6rjg6XjgqY!5e0!3m2!1sja!2sjp!4v1710945643583!5m2!1sja!2sjp"" width=""600"" height=""450"" style=""border:0;"" allowfullscreen="""" loading=""lazy"" referrerpolicy=""no-referrer-when-downgrade""></iframe>",東京都,港区,東麻布2-23-12,麻布十番駅,・麻布十番駅から300m,03-3568-7850,,https://tabelog.com/tokyo/A1307/A130702/13093715/,35.65702794892647,139.7392627982162
中国料理しんせらてぃ,ちゅうごくりょうりしんせらてぃ,蒸し鶏のピリ辛和え、カキとニラの辛し炒め、割包、ウナギの蒲焼チャーハン、本日のスープ（玉ネギとひき肉の蒸しスープ）、ナスの冷麺、3倍杏仁,"https://www.google.com/maps/place/%E4%B8%AD%E5%9B%BD%E6%96%99%E7%90%86%E3%81%97%E3%82%93%E3%81%9B%E3%82%89%E3%81%A6%E3%81%83/@35.6918114,139.4874942,17.85z/data=!4m6!3m5!1s0x6018e5ad1835f363:0xcf69b6a47ba7ac25!8m2!3d35.6916054!4d139.4886825!16s%2Fg%2F1tmbw483?entry=ttu","<iframe src=""https://www.google.com/maps/embed?pb=!1m18!1m12!1m3!1d1802.377632464139!2d139.48749419125664!3d35.69181139531394!2m3!1f0!2f0!3f0!3m2!1i1024!2i768!4f13.1!3m3!1m2!1s0x6018e5ad1835f363%3A0xcf69b6a47ba7ac25!2z5Lit5Zu95paZ55CG44GX44KT44Gb44KJ44Gm44GD!5e0!3m2!1sja!2sjp!4v1710946531896!5m2!1sja!2sjp"" width=""600"" height=""450"" style=""border:0;"" allowfullscreen="""" loading=""lazy"" referrerpolicy=""no-referrer-when-downgrade""></iframe>",東京都,府中市,新町3-25-10,国分寺駅,"・府中〜国分寺　京王バス(東八道路経由) 新町第二公園バス停から3分
・国分寺駅徒歩15分。
・国分寺駅から1,222m",042-336-5517,,https://tabelog.com/tokyo/A1326/A132602/13058384/,35.69172173149295,139.48866980910745
焼肉ふじ,やきにくふじ,豚焼きしゃぶ、牛焼きしゃぶ（ミスジ）、野菜スープ、上ハラミ、石焼ビビンバ、赤身カルビ,"https://www.google.com/maps/place/%E7%84%BC%E8%82%89%E3%81%B5%E3%81%98/@35.0050843,139.0783967,18.53z/data=!4m6!3m5!1s0x6019c131cbb4e875:0xfd30c3d4c1012c77!8m2!3d35.0046358!4d139.0788017!16s%2Fg%2F11p005_05b?entry=ttu","<iframe src=""https://www.google.com/maps/embed?pb=!1m18!1m12!1m3!1d1132.2378785523126!2d139.07839665908608!3d35.00508425178214!2m3!1f0!2f0!3f0!3m2!1i1024!2i768!4f13.1!3m3!1m2!1s0x6019c131cbb4e875%3A0xfd30c3d4c1012c77!2z54S86IKJ44G144GY!5e0!3m2!1sja!2sjp!4v1710946952902!5m2!1sja!2sjp"" width=""600"" height=""450"" style=""border:0;"" allowfullscreen="""" loading=""lazy"" referrerpolicy=""no-referrer-when-downgrade""></iframe>",静岡県,伊東市,宇佐美1977-2,宇佐美駅,・宇佐美駅から175m,0557-47-2983,,https://tabelog.com/shizuoka/A2205/A220503/22015662/,35.00470214750375,139.07878323335075
定食 さがら,ていしょくさがら,肉となすの醤油炒め定食、鳥唐揚げ、冷やし中華,"https://www.google.com/maps/place/%E5%AE%9A%E9%A3%9F+%E3%81%95%E3%81%8C%E3%82%89/@35.7286549,139.6812772,17.48z/data=!4m6!3m5!1s0x6018ed5774581031:0xa8391347c610cd8e!8m2!3d35.7281226!4d139.6820419!16s%2Fg%2F11cm9w3hpd?entry=ttu","<iframe src=""https://www.google.com/maps/embed?pb=!1m18!1m12!1m3!1d2323.1083938638303!2d139.68127724307132!3d35.7286548533441!2m3!1f0!2f0!3f0!3m2!1i1024!2i768!4f13.1!3m3!1m2!1s0x6018ed5774581031%3A0xa8391347c610cd8e!2z5a6a6aOfIOOBleOBjOOCiQ!5e0!3m2!1sja!2sjp!4v1710947177465!5m2!1sja!2sjp"" width=""600"" height=""450"" style=""border:0;"" allowfullscreen="""" loading=""lazy"" referrerpolicy=""no-referrer-when-downgrade""></iframe>",東京都,豊島区,南長崎5-18-2,東長崎駅,・東長崎駅から245m,,,https://tabelog.com/tokyo/A1321/A132101/13024072/,35.7282331822052,139.68204677099047
貴州火鍋,きしゅうひなべ,発酵らっきょうと水納豆の和え物、コールラビと燻製肉炒め、コンニャクの和え物、鶏肉の糟辣椒煮込み、厚揚げの回鍋肉（貴州家庭式）、納豆火鍋、豆乳、羊肉,"https://www.google.com/maps/place/%E8%B2%B4%E5%B7%9E%E7%81%AB%E9%8D%8B/@35.7152835,139.8588126,16.69z/data=!4m14!1m7!3m6!1s0x6018861b3a924845:0xf5d43ee919ae3ab9!2z44CSMTI0LTAwMjQg5p2x5Lqs6YO96JGb6aO-5Yy65paw5bCP5bKp77yR5LiB55uu77yV77yV4oiS77yRIOWkmueUsOODk-ODqyAxZg!3b1!8m2!3d35.7144033!4d139.8616538!3m5!1s0x601887bb2fa00fbb:0x1c947612436ff879!8m2!3d35.7144279!4d139.8616437!16s%2Fg%2F11h07t2yjn?entry=ttu","<iframe src=""https://www.google.com/maps/embed?pb=!1m18!1m12!1m3!1d4028.680160685349!2d139.85881255405187!3d35.715283472130686!2m3!1f0!2f0!3f0!3m2!1i1024!2i768!4f13.1!3m3!1m2!1s0x601887bb2fa00fbb%3A0x1c947612436ff879!2z6LK05bee54Gr6Y2L!5e0!3m2!1sja!2sjp!4v1710949843612!5m2!1sja!2sjp"" width=""600"" height=""450"" style=""border:0;"" allowfullscreen="""" loading=""lazy"" referrerpolicy=""no-referrer-when-downgrade""></iframe>",東京都,葛飾区,新小岩1-55-1 多田ビル 1F,新小岩駅,"・JR新小岩駅より徒歩5分
・新小岩駅から449m",03-3656-6250,,https://tabelog.com/tokyo/A1312/A131204/13232027/,35.71461721909381,139.8616945844642
オリタ 焼きまんじゅう店,おりたやきまんじゅうてん,焼まんじゅう（アンイリ）,"https://www.google.com/maps/place/%E3%82%AA%E3%83%AA%E3%82%BF+%E7%84%BC%E3%81%8D%E3%81%BE%E3%82%93%E3%81%98%E3%82%85%E3%81%86%E5%BA%97/@36.3266156,139.0055602,16.35z/data=!4m15!1m8!3m7!1s0x601e8d7c11f2cdd1:0xc4a486fdb99c7598!2z44CSMzcwLTA4MjQg576k6aas55yM6auY5bSO5biC55Sw55S677yR77yQ77yY!3b1!8m2!3d36.3282665!4d139.0069083!16s%2Fg%2F11clqng3j1!3m5!1s0x601e8d7c11f2cdd1:0x67408d65698f46cc!8m2!3d36.3282697!4d139.0069646!16s%2Fg%2F1thvyc2j?entry=ttu","<iframe src=""https://www.google.com/maps/embed?pb=!1m18!1m12!1m3!1d5045.944718279715!2d139.00556018647342!3d36.32661560048023!2m3!1f0!2f0!3f0!3m2!1i1024!2i768!4f13.1!3m3!1m2!1s0x601e8d7c11f2cdd1%3A0x67408d65698f46cc!2z44Kq44Oq44K_IOeEvOOBjeOBvuOCk-OBmOOCheOBhuW6lw!5e0!3m2!1sja!2sjp!4v1710950801667!5m2!1sja!2sjp"" width=""600"" height=""450"" style=""border:0;"" allowfullscreen="""" loading=""lazy"" referrerpolicy=""no-referrer-when-downgrade""></iframe>",群馬県,高崎市,田町108,高崎駅,"・高崎駅より徒歩約15分
・高崎駅から818m",027-323-9706,,https://tabelog.com/gunma/A1001/A100102/10006729/,36.328616975209165,139.00694123094095
えんむすび,えんむすび,お通し（きゅうりの浅漬け）、なめこ汁、おむすび（うに・いか明太・ねぎ味噌・かずのこ・しょうが・あなご・鮭・たらこ・まぐろづけ・山椒・川のり（四万十川））、鮎塩焼き、大海老にんにく炒め,"https://www.google.com/maps/place/%E3%81%88%E3%82%93%E3%82%80%E3%81%99%E3%81%B3/@36.3282817,139.0015457,15.63z/data=!4m15!1m8!3m7!1s0x601e8d79aedf6093:0x2464bc5eda964f65!2z44CSMzcwLTA4MTMg576k6aas55yM6auY5bSO5biC5pys55S677yT77yT!3b1!8m2!3d36.3301711!4d139.0039455!16s%2Fg%2F11clng_sb8!3m5!1s0x601e8d79a8f834bb:0x412dc03d9faa4d7d!8m2!3d36.3301!4d139.003957!16s%2Fg%2F1tcz_m1c?entry=ttu","<iframe src=""https://www.google.com/maps/embed?pb=!1m18!1m12!1m3!1d8334.147022805297!2d139.00154574179987!3d36.32828172048034!2m3!1f0!2f0!3f0!3m2!1i1024!2i768!4f13.1!3m3!1m2!1s0x601e8d79a8f834bb%3A0x412dc03d9faa4d7d!2z44GI44KT44KA44GZ44Gz!5e0!3m2!1sja!2sjp!4v1710977264302!5m2!1sja!2sjp"" width=""600"" height=""450"" style=""border:0;"" allowfullscreen="""" loading=""lazy"" referrerpolicy=""no-referrer-when-downgrade""></iframe>",群馬県,高崎市,本町33,北高崎駅,"・ＪＲ信越本線 北高崎駅より徒歩14分
・北高崎駅から994m",027-323-1667,,https://tabelog.com/gunma/A1001/A100102/10005592/,36.33055640064711,139.00385461380512
舞木ドライブイン,もうぎどらいぶいん,焼肉定食、味噌汁、和風オイル焼肉、ぞうりぱん,"https://www.google.com/maps/place/%E8%88%9E%E6%9C%A8%E3%83%89%E3%83%A9%E3%82%A4%E3%83%96%E3%82%A4%E3%83%B3/@37.4177027,140.4348229,17.76z/data=!4m15!1m8!3m7!1s0x60206eaec6920a0b:0x5fffd519b4f3f7c3!2z44CSOTYzLTA2NjEg56aP5bO255yM6YOh5bGx5biC6Iie5pyo55S65a6u44OO5YmN77yU77yS4oiS77yRIOODouOCpuOCruODieODqeOCpOODluOCpOODsw!3b1!8m2!3d37.4185676!4d140.4368119!16s%2Fg%2F12hpqc5yz!3m5!1s0x60206eaec69249af:0x3a5d4a9e9429236!8m2!3d37.418577!4d140.43684!16s%2Fg%2F1tmgcjn3?entry=ttu","<iframe src=""https://www.google.com/maps/embed?pb=!1m18!1m12!1m3!1d1876.533686238524!2d140.4348229057502!3d37.41770267104873!2m3!1f0!2f0!3f0!3m2!1i1024!2i768!4f13.1!3m3!1m2!1s0x60206eaec69249af%3A0x3a5d4a9e9429236!2z6Iie5pyo44OJ44Op44Kk44OW44Kk44Oz!5e0!3m2!1sja!2sjp!4v1710978019110!5m2!1sja!2sjp"" width=""600"" height=""450"" style=""border:0;"" allowfullscreen="""" loading=""lazy"" referrerpolicy=""no-referrer-when-downgrade""></iframe>",福島県,郡山市,舞木宮ノ前42-1,舞木駅,・舞木駅から246m,024-956-2127,,https://tabelog.com/fukushima/A0702/A070201/7006634/,37.41865385484229,140.43684966374758
庄助,しょうすけ,枝豆、庄助ギョウザ、ハムカツ、きゅうりの漬物、もつ煮、納豆信田、唐辛子焼き、焼き鳥（つくね・皮・ねぎ間）、ちたけそうめん,"https://www.google.com/maps/place/%E5%BA%84%E5%8A%A9/@36.5622461,139.884065,15.55z/data=!4m6!3m5!1s0x601f67bac8a5130f:0x43c10c32a3eda77a!8m2!3d36.564086!4d139.884843!16s%2Fg%2F1v16qdc2?entry=ttu","<iframe src=""https://www.google.com/maps/embed?pb=!1m18!1m12!1m3!1d8744.13883241896!2d139.88406503482915!3d36.5622461132971!2m3!1f0!2f0!3f0!3m2!1i1024!2i768!4f13.1!3m3!1m2!1s0x601f67bac8a5130f%3A0x43c10c32a3eda77a!2z5bqE5Yqp!5e0!3m2!1sja!2sjp!4v1710978772132!5m2!1sja!2sjp"" width=""600"" height=""450"" style=""border:0;"" allowfullscreen="""" loading=""lazy"" referrerpolicy=""no-referrer-when-downgrade""></iframe>",栃木県,宇都宮市,塙田2-2-3,宇都宮駅,・宇都宮駅から661m,028-622-3506,,https://tabelog.com/tochigi/A0901/A090101/9002856/,36.564867819508486,139.88488471669646
モンゴル料理 シリンゴル,もんごるりょうりしりんごる,ステーツァイ、ボルツク、ジャガイモとピーマンの冷菜、シリンゴルサンド、チャンサンマハ、羊肉ボーズ（蒸しまん）、羊肉ジャージャー麺,"https://www.google.com/maps/place/%E3%83%A2%E3%83%B3%E3%82%B4%E3%83%AB%E6%96%99%E7%90%86+%E3%82%B7%E3%83%AA%E3%83%B3%E3%82%B4%E3%83%AB/@35.7308232,139.7341388,16.45z/data=!4m15!1m8!3m7!1s0x60188da20f400447:0x825ac24d92f62044!2z44CSMTEyLTAwMTEg5p2x5Lqs6YO95paH5Lqs5Yy65Y2D55-z77yU5LiB55uu77yR77yR4oiS77yZIOWkp-mAsuODk-ODqw!3b1!8m2!3d35.7293493!4d139.7378398!16s%2Fg%2F12hrp2tt0!3m5!1s0x60188da20f403d3f:0xabeddc47eabb7563!8m2!3d35.72936!4d139.737815!16s%2Fg%2F1tgcm8yq?entry=ttu","<iframe src=""https://www.google.com/maps/embed?pb=!1m18!1m12!1m3!1d4728.106597438731!2d139.7341387505674!3d35.730823241749114!2m3!1f0!2f0!3f0!3m2!1i1024!2i768!4f13.1!3m3!1m2!1s0x60188da20f403d3f%3A0xabeddc47eabb7563!2z44Oi44Oz44K044Or5paZ55CGIOOCt-ODquODs-OCtOODqw!5e0!3m2!1sja!2sjp!4v1710981039078!5m2!1sja!2sjp"" width=""600"" height=""450"" style=""border:0;"" allowfullscreen="""" loading=""lazy"" referrerpolicy=""no-referrer-when-downgrade""></iframe>",東京都,文京区,千石4-11-9,巣鴨駅,"・巣鴨駅より徒歩8分
・巣鴨駅から482m",03-5978-3837,,https://tabelog.com/tokyo/A1323/A132301/13005632/,35.72949460380016,139.73775672896778
パスタ&ピザ トルーヴィル,ぱすたあんどぴざとるーゔぃる,ハンバーグステーキ、牛ヒレの生姜焼き、かきたま汁、ナポリタン、チキンのシャリアピン,"https://www.google.com/maps/place/%E3%83%91%E3%82%B9%E3%82%BF%26%E3%83%94%E3%82%B6+%E3%83%88%E3%83%AB%E3%83%BC%E3%83%B4%E3%82%A3%E3%83%AB/@35.4394581,139.6296685,17.24z/data=!4m6!3m5!1s0x60185c92aab61b9f:0xbe38a6e92768d5c8!8m2!3d35.438683!4d139.6296401!16s%2Fg%2F1tfgpccr?entry=ttu","<iframe src=""https://www.google.com/maps/embed?pb=!1m18!1m12!1m3!1d2745.9354751329756!2d139.62966848738475!3d35.43945807504005!2m3!1f0!2f0!3f0!3m2!1i1024!2i768!4f13.1!3m3!1m2!1s0x60185c92aab61b9f%3A0xbe38a6e92768d5c8!2z44OR44K544K_JuODlOOCtiDjg4jjg6vjg7zjg7TjgqPjg6s!5e0!3m2!1sja!2sjp!4v1710983058384!5m2!1sja!2sjp"" width=""600"" height=""450"" style=""border:0;"" allowfullscreen="""" loading=""lazy"" referrerpolicy=""no-referrer-when-downgrade""></iframe>",神奈川県,横浜市南区,真金町2-21-17,伊勢佐木長者町駅,・伊勢佐木長者町駅から396m,045-251-5526,,https://tabelog.com/kanagawa/A1401/A140306/14028400/,35.43888581548293,139.62960504568332
よしの食堂,よしのしょくどう,牛肉のスタミナ炒め定食、ネギ玉、煮カツ,"https://www.google.com/maps/place/%E3%82%88%E3%81%97%E3%81%AE%E9%A3%9F%E5%A0%82/@35.5934268,139.3460595,16.2z/data=!4m6!3m5!1s0x60191d4d2eadb4c9:0x5b1bb1db8380a91!8m2!3d35.5929581!4d139.3528478!16s%2Fg%2F1tjtj9ys?entry=ttu","<iframe src=""https://www.google.com/maps/embed?pb=!1m18!1m12!1m3!1d5633.482959500073!2d139.34605949339436!3d35.59342684251948!2m3!1f0!2f0!3f0!3m2!1i1024!2i768!4f13.1!3m3!1m2!1s0x60191d4d2eadb4c9%3A0x5b1bb1db8380a91!2z44KI44GX44Gu6aOf5aCC!5e0!3m2!1sja!2sjp!4v1710983347716!5m2!1sja!2sjp"" width=""600"" height=""450"" style=""border:0;"" allowfullscreen="""" loading=""lazy"" referrerpolicy=""no-referrer-when-downgrade""></iframe>",神奈川県,相模原市緑区,東橋本2-19-4 よしのビル 1F,橋本駅,"・JR相模線 橋本駅より徒歩約11分
・橋本駅から737m",042-772-4717,,https://tabelog.com/kanagawa/A1407/A140701/14015513/,35.59329807813965,139.35269152215605
インドネシアレストランCABE 目黒店,いんどねしあれすてらんちゃべめぐろてん,ソトババット、ナシゴレン、ルンダン、ミーアヤム,"https://www.google.com/maps/place/%E3%82%A4%E3%83%B3%E3%83%89%E3%83%8D%E3%82%B7%E3%82%A2%E3%83%AC%E3%82%B9%E3%83%88%E3%83%A9%E3%83%B3CABE(%E3%83%81%E3%83%A3%E3%83%99%EF%BC%89%E7%9B%AE%E9%BB%92%E5%BA%97/@35.6341825,139.7178079,17.04z/data=!3m1!5s0x60188b1c88507ce9:0x9a127261feba9742!4m14!1m7!3m6!1s0x60188b1c8892a89f:0xe40b0c91a28cd859!2z44CSMTQxLTAwMjEg5p2x5Lqs6YO95ZOB5bed5Yy65LiK5aSn5bSO77yT5LiB55uu77yV4oiS77yUIOeUsOS4reODk-ODqyAyZg!3b1!8m2!3d35.6344868!4d139.7194413!3m5!1s0x60188b24f50412ef:0x614a219eaa08ffd3!8m2!3d35.6345254!4d139.7194373!16s%2Fg%2F1tyzyztt?entry=ttu","<iframe src=""https://www.google.com/maps/embed?pb=!1m18!1m12!1m3!1d3144.7607203279053!2d139.7178078996853!3d35.63418249164037!2m3!1f0!2f0!3f0!3m2!1i1024!2i768!4f13.1!3m3!1m2!1s0x60188b24f50412ef%3A0x614a219eaa08ffd3!2z44Kk44Oz44OJ44ON44K344Ki44Os44K544OI44Op44OzQ0FCRSjjg4Hjg6Pjg5nvvInnm67pu5Llupc!5e0!3m2!1sja!2sjp!4v1710986679414!5m2!1sja!2sjp"" width=""600"" height=""450"" style=""border:0;"" allowfullscreen="""" loading=""lazy"" referrerpolicy=""no-referrer-when-downgrade""></iframe>",東京都,品川区,上大崎3-5-4 第１田中ビル 2F,目黒駅,"・目黒駅東口より徒歩５分
・目黒駅から341m",03-6432-5748,,https://tabelog.com/tokyo/A1316/A131601/13027513/,35.63476175503444,139.71945183751973
キッチンカフェ ばる,きっちんかふぇばる,まぐろのユッケどんぶり、真鯛のソテー オーロラソース、いくらとしらすのどんぶり（ミニ）、メンチかつ,"https://www.google.com/maps/place/%E3%82%AD%E3%83%83%E3%83%81%E3%83%B3%E3%82%AB%E3%83%95%E3%82%A7+%E3%81%B0%E3%82%8B/@35.450134,139.6298026,18.55z/data=!4m15!1m8!3m7!1s0x60185dded2c0c2f3:0x3a8cc03fb98b9b06!2z44CSMjMxLTAwNjMg56We5aWI5bed55yM5qiq5rWc5biC5Lit5Yy66Iqx5ZKy55S677yS5LiB55uu77yW77yU!3b1!8m2!3d35.4499027!4d139.6299675!16s%2Fg%2F11l20wmrtb!3m5!1s0x60185c6080366139:0x49ba715adcb05523!8m2!3d35.4500079!4d139.6298964!16s%2Fg%2F12qfqqhtw?entry=ttu","<iframe src=""https://www.google.com/maps/embed?pb=!1m18!1m12!1m3!1d1112.1277169837997!2d139.62980257412184!3d35.4501339617189!2m3!1f0!2f0!3f0!3m2!1i1024!2i768!4f13.1!3m3!1m2!1s0x60185c6080366139%3A0x49ba715adcb05523!2z44Kt44OD44OB44Oz44Kr44OV44KnIOOBsOOCiw!5e0!3m2!1sja!2sjp!4v1710987797400!5m2!1sja!2sjp"" width=""600"" height=""450"" style=""border:0;"" allowfullscreen="""" loading=""lazy"" referrerpolicy=""no-referrer-when-downgrade""></iframe>",神奈川県,横浜市中区,花咲町2-64,桜木町駅,"・桜木町駅より徒歩4分
・桜木町駅から106m",045-243-9671,,https://tabelog.com/kanagawa/A1401/A140102/14030553/,35.4501282313778,139.6298739335766
ビストロKUROKAWA,びすとろくろかわ,サザエとキノコのプロヴァンス風、本日のスープ、、牛タンシチューのオムライス、デザート盛り合わせ＆コーヒー,"https://www.google.com/maps/place/%E3%83%93%E3%82%B9%E3%83%88%E3%83%ADKUROKAWA/@35.7742377,139.5764321,18.07z/data=!4m15!1m8!3m7!1s0x6018e9229152d175:0x46dc5125af14d686!2z44CSMzUyLTAwMTQg5Z-8546J55yM5paw5bqn5biC5qCE77yS5LiB55uu77yX4oiS77yT77yU!3b1!8m2!3d35.7742258!4d139.577399!16s%2Fg%2F11b6bbgv3l!3m5!1s0x6018e92296b787e3:0x8f43e559f239c06e!8m2!3d35.7742455!4d139.5773578!16s%2Fg%2F11c37qnrvd?entry=ttu","<iframe src=""https://www.google.com/maps/embed?pb=!1m18!1m12!1m3!1d1544.2154110784734!2d139.5764321381271!3d35.77423768337067!2m3!1f0!2f0!3f0!3m2!1i1024!2i768!4f13.1!3m3!1m2!1s0x6018e92296b787e3%3A0x8f43e559f239c06e!2z44OT44K544OI44OtS1VST0tBV0E!5e0!3m2!1sja!2sjp!4v1710988403869!5m2!1sja!2sjp"" width=""600"" height=""450"" style=""border:0;"" allowfullscreen="""" loading=""lazy"" referrerpolicy=""no-referrer-when-downgrade""></iframe>",埼玉県,新座市,栄2-7-34,大泉学園駅,"・新座栄バス停より徒歩4分
・大泉学園駅から2,868m",048-423-9680,,https://tabelog.com/saitama/A1103/A110301/11043457/,35.77436433385541,139.57737899266297
いづみ亭,いづみてい,ネギレバ炒、鶏皮餃子、青ネギラーメン、インスタントコーヒー,"https://www.google.com/maps/place/%E3%81%84%E3%81%A5%E3%81%BF%E4%BA%AD/@35.838108,140.0216785,14.55z/data=!4m15!1m8!3m7!1s0x60227868890ce155:0x4781f285efc5cf26!2z44CSMjcwLTE0NDMg5Y2D6JGJ55yM5p-P5biC6bey6YeO6LC377yZ77yQ77yR4oiS77yR!3b1!8m2!3d35.8407439!4d140.0365119!16s%2Fg%2F11clr9k63p!3m5!1s0x60227868896f6389:0x386d4b5541d75bbe!8m2!3d35.8407001!4d140.0365433!16s%2Fg%2F1tg9st8t?entry=ttu","<iframe src=""https://www.google.com/maps/embed?pb=!1m14!1m8!1m3!1d25875.55427729893!2d140.0216785!3d35.838108!3m2!1i1024!2i768!4f13.1!3m3!1m2!1s0x60227868896f6389%3A0x386d4b5541d75bbe!2z44GE44Gl44G_5Lqt!5e0!3m2!1sja!2sjp!4v1710990873153!5m2!1sja!2sjp"" width=""600"" height=""450"" style=""border:0;"" allowfullscreen="""" loading=""lazy"" referrerpolicy=""no-referrer-when-downgrade""></iframe>",千葉県,柏市,鷲野谷901-1,,"・柏駅からはバス又はタクシーで移動
・東我孫子駅から3,292m",04-7192-0421,,https://tabelog.com/chiba/A1203/A120304/12015049/,35.84212389791655,140.03654434198688
大安食堂,だいあんしょくどう,とんちゃん、けいちゃん、マトン そばトッピング,"https://www.google.com/maps/place/%E5%A4%A7%E5%AE%89%E9%A3%9F%E5%A0%82/@35.9099131,137.2013655,16.08z/data=!4m6!3m5!1s0x6002c3e4c44cc34f:0x99023363e437468a!8m2!3d35.907712!4d137.203715!16s%2Fg%2F1td2gv12?entry=ttu","<iframe src=""https://www.google.com/maps/embed?pb=!1m18!1m12!1m3!1d6125.331269850009!2d137.20136553667442!3d35.90991313504146!2m3!1f0!2f0!3f0!3m2!1i1024!2i768!4f13.1!3m3!1m2!1s0x6002c3e4c44cc34f%3A0x99023363e437468a!2z5aSn5a6J6aOf5aCC!5e0!3m2!1sja!2sjp!4v1710997027124!5m2!1sja!2sjp"" width=""600"" height=""450"" style=""border:0;"" allowfullscreen="""" loading=""lazy"" referrerpolicy=""no-referrer-when-downgrade""></iframe>",岐阜県,下呂市,萩原町上呂876,上呂駅,・上呂駅から358m,0576-54-1456,,https://tabelog.com/gifu/A2104/A210403/21000415/,35.90812597393449,137.2036228875482
山横沢,やまよこざわ,自家製スーチカ、ふぅちゃんぷる、とまとカレーつけそば,"https://www.google.com/maps/place/%E5%B1%B1%E6%A8%AA%E6%B2%A2/@35.6737387,139.6655947,18.22z/data=!4m15!1m8!3m7!1s0x6018f319fc23390b:0x3efd23540796b81e!2z44CSMTUxLTAwNzMg5p2x5Lqs6YO95riL6LC35Yy656y55aGa77yR5LiB55uu77yV77yY4oiS77yZ!3b1!8m2!3d35.6738564!4d139.6663364!16s%2Fg%2F11clmhq90k!3m5!1s0x6018f319fc3c09ed:0x7ca1319917bd67da!8m2!3d35.6734831!4d139.6659789!16s%2Fg%2F1thx_vf8?entry=ttu","<iframe src=""https://www.google.com/maps/embed?pb=!1m18!1m12!1m3!1d1396.518397424278!2d139.6656021306655!3d35.6737362815708!2m3!1f0!2f0!3f0!3m2!1i1024!2i768!4f13.1!3m3!1m2!1s0x6018f319fc3c09ed%3A0x7ca1319917bd67da!2z5bGx5qiq5rKi!5e0!3m2!1sja!2sjp!4v1710997234385!5m2!1sja!2sjp"" width=""600"" height=""450"" style=""border:0;"" allowfullscreen="""" loading=""lazy"" referrerpolicy=""no-referrer-when-downgrade""></iframe>",東京都,渋谷区,笹塚1-58-9,笹塚駅,・笹塚駅から125m,080-6709-1589,,https://tabelog.com/tokyo/A1318/A131808/13041797/,35.67358419124896,139.66599506624638
居酒屋 舞子,いざかやまいこ,バイ貝の煮付け、かに面、大根、ふくらぎ、いも（里芋）、すすたけ、鯛の昆布締め、白えびのかき揚げ、海鮮丼,"https://www.google.com/maps/place/%E5%B1%85%E9%85%92%E5%B1%8B+%E8%88%9E%E5%AD%90/@36.6925756,137.2178006,16.69z/data=!4m15!1m8!3m7!1s0x5ff7908d66f38443:0x7361d412d32ef7e4!2z44CSOTMwLTAwMTYg5a-M5bGx55yM5a-M5bGx5biC5p-z55S677yS5LiB55uu77yT4oiS77yS77yWIOaXpeipsOmbu-apnw!3b1!8m2!3d36.6926704!4d137.2241159!16s%2Fg%2F11c71hw1wr!3m5!1s0x5ff7908d671ffc1d:0x2e50460fe02a9fab!8m2!3d36.6926317!4d137.2241997!16s%2Fg%2F1v8x20wk?entry=ttu","<iframe src=""https://www.google.com/maps/embed?pb=!1m18!1m12!1m3!1d3976.2593432730564!2d137.21780058464194!3d36.692575619116965!2m3!1f0!2f0!3f0!3m2!1i1024!2i768!4f13.1!3m3!1m2!1s0x5ff7908d671ffc1d%3A0x2e50460fe02a9fab!2z5bGF6YWS5bGLIOiInuWtkA!5e0!3m2!1sja!2sjp!4v1710997733158!5m2!1sja!2sjp"" width=""600"" height=""450"" style=""border:0;"" allowfullscreen="""" loading=""lazy"" referrerpolicy=""no-referrer-when-downgrade""></iframe>",富山県,富山市,柳町2-3-26,荒町駅,・荒町駅から762m,076-432-4169,,https://tabelog.com/toyama/A1601/A160101/16000879/,36.69279481249271,137.2242545215463
世味,せみ,酢豚、チャムチャ麺（チャンポン）、チャムチャ麺（ジャンジャン麺）,"https://www.google.com/maps/place/%E4%B8%96%E5%91%B3/@35.7316628,139.7769869,17.83z/data=!4m6!3m5!1s0x60188e7c3bc54dc7:0x311d82f8b6d148d8!8m2!3d35.7308579!4d139.7788931!16s%2Fg%2F1pv5w78nd?entry=ttu","<iframe src=""https://www.google.com/maps/embed?pb=!1m18!1m12!1m3!1d1816.8594597815547!2d139.77698692042947!3d35.73166275901169!2m3!1f0!2f0!3f0!3m2!1i1024!2i768!4f13.1!3m3!1m2!1s0x60188e7c3bc54dc7%3A0x311d82f8b6d148d8!2z5LiW5ZGz!5e0!3m2!1sja!2sjp!4v1710997922477!5m2!1sja!2sjp"" width=""600"" height=""450"" style=""border:0;"" allowfullscreen="""" loading=""lazy"" referrerpolicy=""no-referrer-when-downgrade""></iframe>",東京都,荒川区,東日暮里3-43-8 大河ビル 1F,三河島駅,・三河島駅から334m,03-3806-4477,,https://tabelog.com/tokyo/A1324/A132401/13180444/,35.73088838246189,139.778894804162
粥菜坊,かゆなぼう,朝鮮人参片烏龍茶、豚肉腸粉、本気の雲呑麺、朝鮮人参粥、牡蠣の中華お好み焼き,"https://www.google.com/maps/place/%E7%B2%A5%E8%8F%9C%E5%9D%8A/@35.5746462,139.6534094,17.06z/data=!4m15!1m8!3m7!1s0x6018f579a777cf2f:0x9087d3e5a2ce8e22!2z44CSMjExLTAwNjQg56We5aWI5bed55yM5bed5bSO5biC5Lit5Y6f5Yy65LuK5LqV5Y2X55S677yU4oiS77yR77ySIOODleODreODvOODqeODj-OCpOODoA!3b1!8m2!3d35.5743221!4d139.6536387!16s%2Fg%2F12hpfzwnn!3m5!1s0x6018f579a8758125:0x654b92a1bd7edae3!8m2!3d35.5742949!4d139.6536826!16s%2Fg%2F1tpf74z0?entry=ttu","<iframe src=""https://www.google.com/maps/embed?pb=!1m18!1m12!1m3!1d3120.165228694983!2d139.6534093679843!3d35.574646170890084!2m3!1f0!2f0!3f0!3m2!1i1024!2i768!4f13.1!3m3!1m2!1s0x6018f579a8758125%3A0x654b92a1bd7edae3!2z57Kl6I-c5Z2K!5e0!3m2!1sja!2sjp!4v1710998212502!5m2!1sja!2sjp"" width=""600"" height=""450"" style=""border:0;"" allowfullscreen="""" loading=""lazy"" referrerpolicy=""no-referrer-when-downgrade""></iframe>",神奈川県,川崎市,中原区今井南町4-12,武蔵小杉駅,"・東急東横線 武蔵小杉駅南口より徒歩7分
・武蔵小杉駅から564m",050-5597-5227,,https://tabelog.com/kanagawa/A1405/A140504/14009596/,35.574448998786416,139.65377041453388
バイキング,ばいきんぐ,キノコのポタージュ、塩わさび ロース肉（厚切り）野菜添、ミルクセーキ,"https://www.google.com/maps/place/%E3%83%90%E3%82%A4%E3%82%AD%E3%83%B3%E3%82%B0/@35.7228978,140.651502,17.62z/data=!4m15!1m8!3m7!1s0x6022e19617c80bc5:0x61c2b46e1ec9c591!2z44CSMjg5LTI1MTYg5Y2D6JGJ55yM5pet5biC44Ot77yR77yS77yT77yZ4oiS77yT!3b1!8m2!3d35.7230279!4d140.6522022!16s%2Fg%2F11clngy93h!3m5!1s0x6022e19617c7f6b5:0xe8b42f2dafe63659!8m2!3d35.7230279!4d140.6522022!16s%2Fg%2F1th1v57g?entry=ttu","<iframe src=""https://www.google.com/maps/embed?pb=!1m18!1m12!1m3!1d2105.356932445282!2d140.65150197483925!3d35.72289775167415!2m3!1f0!2f0!3f0!3m2!1i1024!2i768!4f13.1!3m3!1m2!1s0x6022e19617c7f6b5%3A0xe8b42f2dafe63659!2z44OQ44Kk44Kt44Oz44Kw!5e0!3m2!1sja!2sjp!4v1710998422890!5m2!1sja!2sjp"" width=""600"" height=""450"" style=""border:0;"" allowfullscreen="""" loading=""lazy"" referrerpolicy=""no-referrer-when-downgrade""></iframe>",千葉県,旭市,ロ1239-3,旭駅,"・総武本線旭駅より徒歩10分
・旭駅から282m",0479-63-7557,,https://tabelog.com/chiba/A1205/A120502/12025317/,35.723144022973024,140.6522132692999
ラ・タベルナ,らたべるな,コンソメスープ＆ミニサラダ、ミートローフ（ハーフ）バターライス＆スパゲッティー添え、スパゲッティー ミスキアーレ、クリームブリュレ,"https://www.google.com/maps/place/%E3%83%A9%E3%83%BB%E3%82%BF%E3%83%99%E3%83%AB%E3%83%8A/@35.6865306,139.7334384,16.78z/data=!3m1!5s0x60188c61608787c3:0xf0df15bec7939873!4m15!1m8!3m7!1s0x60188c615fd4649d:0x19a21403939ea21!2z44CSMTAyLTAwODUg5p2x5Lqs6YO95Y2D5Luj55Sw5Yy65YWt55Wq55S677yR4oiS77yR!3b1!8m2!3d35.6877553!4d139.7358564!16s%2Fg%2F11clqgp5cj!3m5!1s0x60188c615fd48f09:0xb88fabeaa32d18e2!8m2!3d35.6878133!4d139.7358871!16s%2Fg%2F1tkjl5xb?entry=ttu","<iframe src=""https://www.google.com/maps/embed?pb=!1m18!1m12!1m3!1d3767.7644290099033!2d139.7334384353406!3d35.68653058125727!2m3!1f0!2f0!3f0!3m2!1i1024!2i768!4f13.1!3m3!1m2!1s0x60188c615fd48f09%3A0xb88fabeaa32d18e2!2z44Op44O744K_44OZ44Or44OK!5e0!3m2!1sja!2sjp!4v1710998958650!5m2!1sja!2sjp"" width=""600"" height=""450"" style=""border:0;"" allowfullscreen="""" loading=""lazy"" referrerpolicy=""no-referrer-when-downgrade""></iframe>",東京都,千代田区,六番町1-1,麹町駅,"・地下鉄有楽町線 麹町駅5番出口より徒歩2分
・麹町駅から312m",03-3262-8946,,https://tabelog.com/tokyo/A1308/A130803/13000423/,35.68798446997279,139.73589583261878
みやけうどん,みやけうどん,丸天うどん、いなり,"https://www.google.com/maps/place/%E3%81%BF%E3%82%84%E3%81%91%E3%81%86%E3%81%A9%E3%82%93/@33.5982416,130.4093376,18.01z/data=!4m15!1m8!3m7!1s0x354191e9fc980d69:0xf7b2f17ae56515e1!2z44CSODEyLTAwMzYg56aP5bKh55yM56aP5bKh5biC5Y2a5aSa5Yy65LiK5ZGJ5pyN55S677yR77yQ4oiS77yS77yU!3b1!8m2!3d33.5983359!4d130.4106677!16s%2Fg%2F12hqymz70!3m5!1s0x354191e9fca2ab35:0x93521a96ee3b105c!8m2!3d33.5983532!4d130.4106935!16s%2Fg%2F1tflpsv8?entry=ttu","<iframe src=""https://www.google.com/maps/embed?pb=!1m18!1m12!1m3!1d1654.7663012651385!2d130.4093376037156!3d33.59824163599451!2m3!1f0!2f0!3f0!3m2!1i1024!2i768!4f13.1!3m3!1m2!1s0x354191e9fca2ab35%3A0x93521a96ee3b105c!2z44G_44KE44GR44GG44Gp44KT!5e0!3m2!1sja!2sjp!4v1711094224764!5m2!1sja!2sjp"" width=""600"" height=""450"" style=""border:0;"" allowfullscreen="""" loading=""lazy"" referrerpolicy=""no-referrer-when-downgrade""></iframe>",福岡県,福岡市博多区,上呉服町10-24,呉服町駅,・呉服町駅から125m,092-291-3453,,https://tabelog.com/fukuoka/A4001/A400106/40003615/,33.59847079809835,130.41071590142138
一富,かずとみ,鯖ごま、鯵納豆、変わり茶わん蒸し、若どりスープ炊き、若どりスープ炊きの雑炊,"https://www.google.com/maps/place/%E4%B8%80%E5%AF%8C/@33.5933738,130.4047165,17.25z/data=!3m1!5s0x354191947d158353:0x84e8923ac1f69a8!4m15!1m8!3m7!1s0x354191947d4195ef:0x28b8c215c06e5543!2z44CSODEwLTA4MDEg56aP5bKh55yM56aP5bKh5biC5Y2a5aSa5Yy65Lit5rSy77yU5LiB55uu77yR4oiS77yS77yUIOWOn-eUsOS4rea0suODk-ODqw!3b1!8m2!3d33.592334!4d130.4063277!16s%2Fg%2F12hljfjcb!3m5!1s0x35419194f3e2fafb:0xed7ee3d5622aa00f!8m2!3d33.5922863!4d130.406302!16s%2Fg%2F1w344dgl?entry=ttu","<iframe src=""https://www.google.com/maps/embed?pb=!1m18!1m12!1m3!1d2802.001317055558!2d130.4047164881911!3d33.59337375622578!2m3!1f0!2f0!3f0!3m2!1i1024!2i768!4f13.1!3m3!1m2!1s0x35419194f3e2fafb%3A0xed7ee3d5622aa00f!2z5LiA5a-M!5e0!3m2!1sja!2sjp!4v1711094434423!5m2!1sja!2sjp"" width=""600"" height=""450"" style=""border:0;"" allowfullscreen="""" loading=""lazy"" referrerpolicy=""no-referrer-when-downgrade""></iframe>",福岡県,福岡市博多区,中洲4-1-24 人形小路,中洲川端駅,・中洲川端駅から230m,092-281-5120,,https://tabelog.com/fukuoka/A4001/A400102/40014859/,33.592428142163726,130.40627230668716
独酌 三四郎,どくしゃくさんしろう,とうきび茶、新子やき、きのこ汁、手造りつけもの、酢大豆（お通し）、身欠にしん焼き、玉子焼き、タレご飯、かぼちゃの煮物,"https://www.google.com/maps/place/%E7%8B%AC%E9%85%8C+%E4%B8%89%E5%9B%9B%E9%83%8E/@43.7661316,142.3538292,16.08z/data=!4m15!1m8!3m7!1s0x5f0ce60e3ff41ce5:0x94c41efb6b46a090!2z44CSMDcwLTAwMzIg5YyX5rW36YGT5pet5bed5biC77yS5p2h6YCa77yV5LiB55uu!3b1!8m2!3d43.7676596!4d142.3560157!16s%2Fg%2F1pxypczfx!3m5!1s0x5f0ce60e6dad38e7:0x8a7108752f677b9!8m2!3d43.7681884!4d142.356459!16s%2Fg%2F1v3kmw8n?entry=ttu","<iframe src=""https://www.google.com/maps/embed?pb=!1m18!1m12!1m3!1d5446.907809251541!2d142.3538292351188!3d43.76613162427367!2m3!1f0!2f0!3f0!3m2!1i1024!2i768!4f13.1!3m3!1m2!1s0x5f0ce60e6dad38e7%3A0x8a7108752f677b9!2z54us6YWMIOS4ieWbm-mDjg!5e0!3m2!1sja!2sjp!4v1710999315719!5m2!1sja!2sjp"" width=""600"" height=""450"" style=""border:0;"" allowfullscreen="""" loading=""lazy"" referrerpolicy=""no-referrer-when-downgrade""></iframe>",北海道,旭川市,2条通5丁目左7号,旭川駅,"・JR旭川駅より徒歩15分
・旭川駅から631m",0166-22-6751,,https://tabelog.com/hokkaido/A0104/A010401/1014057/,43.76840919373295,142.35646589337597
自由軒,じゆうけん,味噌汁 ライス付き、カニクリームコロッケとホッケフライ,"https://www.google.com/maps/place/%E8%87%AA%E7%94%B1%E8%BB%92/@43.7696828,142.3552897,15.52z/data=!4m15!1m8!3m7!1s0x5f0ce60d69041ed1:0xef23f9ae6ac1d255!2z44CSMDcwLTAwMzUg5YyX5rW36YGT5pet5bed5biC77yV5p2h6YCa77yY5LiB55uu!3b1!8m2!3d43.7697791!4d142.3623699!16s%2Fg%2F1pxy2c4hn!3m5!1s0x5f0ce60d3fb21297:0x18f89027906257c7!8m2!3d43.7703129!4d142.3620915!16s%2Fg%2F1vhkkbtv?entry=ttu","<iframe src=""https://www.google.com/maps/embed?pb=!1m18!1m12!1m3!1d8051.35823387285!2d142.35528967339815!3d43.769682789747264!2m3!1f0!2f0!3f0!3m2!1i1024!2i768!4f13.1!3m3!1m2!1s0x5f0ce60d3fb21297%3A0x18f89027906257c7!2z6Ieq55Sx6LuS!5e0!3m2!1sja!2sjp!4v1710999518749!5m2!1sja!2sjp"" width=""600"" height=""450"" style=""border:0;"" allowfullscreen="""" loading=""lazy"" referrerpolicy=""no-referrer-when-downgrade""></iframe>",北海道,旭川市,五条通8丁目左2号,旭川駅,"・JR旭川駅より徒歩15分
・旭川駅から881m",0166-23-8686,,https://tabelog.com/hokkaido/A0104/A010401/1009869/,43.77077613176739,142.36215546920664
牛たん萃萃,ぎゅうたんすいすい,牛たん、とろろ、テールスープ、冷奴、浅漬け、南蛮味噌、テール焼き,"https://www.google.com/maps/place/%E3%80%92983-0043+%E5%AE%AE%E5%9F%8E%E7%9C%8C%E4%BB%99%E5%8F%B0%E5%B8%82%E5%AE%AE%E5%9F%8E%E9%87%8E%E5%8C%BA%E8%90%A9%E9%87%8E%E7%94%BA%EF%BC%92%E4%B8%81%E7%9B%AE%EF%BC%91%EF%BC%92%E2%88%92%EF%BC%91+%E7%89%9B%E3%81%9F%E3%82%93%E8%90%83%E8%90%83/@38.2547493,140.9107496,16.28z/data=!4m6!3m5!1s0x5f8987fd8c1ca5bd:0x420c2924ada9bb39!8m2!3d38.255574!4d140.9140217!16s%2Fg%2F12hm5mwn7?entry=ttu","<iframe src=""https://www.google.com/maps/embed?pb=!1m18!1m12!1m3!1d5172.661346342236!2d140.9107495821422!3d38.25474929239917!2m3!1f0!2f0!3f0!3m2!1i1024!2i768!4f13.1!3m3!1m2!1s0x5f8987fd8c1ca5bd%3A0x420c2924ada9bb39!2z44CSOTgzLTAwNDMg5a6u5Z-O55yM5LuZ5Y-w5biC5a6u5Z-O6YeO5Yy66JCp6YeO55S677yS5LiB55uu77yR77yS4oiS77yRIOeJm-OBn-OCk-iQg-iQgw!5e0!3m2!1sja!2sjp!4v1711003717839!5m2!1sja!2sjp"" width=""600"" height=""450"" style=""border:0;"" allowfullscreen="""" loading=""lazy"" referrerpolicy=""no-referrer-when-downgrade""></iframe>",宮城県,仙台市宮城野区,萩野町2-12-1,卸町駅,"・仙台市営地下鉄東西線 卸町駅1番出口より徒歩10分
・卸町駅から754m",022-231-4174,,https://tabelog.com/miyagi/A0401/A040102/4003262/,38.25585509434765,140.9140796629177
女川海の膳 ニューこのり,おながわうみのぜんにゅーこのり,海鮮五色丼、あら汁、わらび、穴子の天ぷら、殻ウニ、穴子丼,"https://www.google.com/maps/place/%E5%A5%B3%E5%B7%9D%E6%B5%B7%E3%81%AE%E8%86%B3+%E3%83%8B%E3%83%A5%E3%83%BC%E3%81%93%E3%81%AE%E3%82%8A/@38.4464996,141.4443436,18.52z/data=!4m15!1m8!3m7!1s0x5f89b01314098bd5:0xd1122fe6b0cf6ec2!2z44CSOTg2LTIyNjUg5a6u5Z-O55yM54mh6bm_6YOh5aWz5bed55S65aWz5bed77yS5LiB55uu77yV4oiS77yX!3b1!8m2!3d38.446499!4d141.4456994!16s%2Fg%2F11tf3gtkn5!3m5!1s0x5f89b01313bec045:0x4f187d0674567a3f!8m2!3d38.4464928!4d141.4456825!16s%2Fg%2F1tfhg6_t?entry=ttu","<iframe src=""https://www.google.com/maps/embed?pb=!1m18!1m12!1m3!1d1091.9702596326129!2d141.44434358753318!3d38.446499571358125!2m3!1f0!2f0!3f0!3m2!1i1024!2i768!4f13.1!3m3!1m2!1s0x5f89b01313bec045%3A0x4f187d0674567a3f!2z5aWz5bed5rW344Gu6IazIOODi-ODpeODvOOBk-OBruOCig!5e0!3m2!1sja!2sjp!4v1711004672976!5m2!1sja!2sjp"" width=""600"" height=""450"" style=""border:0;"" allowfullscreen="""" loading=""lazy"" referrerpolicy=""no-referrer-when-downgrade""></iframe>",宮城県,牡鹿郡女川町,女川2-5-7,女川駅,"・ＪＲ女川駅より徒歩1分
・女川駅から167m",0225-53-2134,,https://tabelog.com/miyagi/A0404/A040403/4003356/,38.44649516680794,141.44567831816806
食堂 きかく,しょくどうきかく,サバだしらーめん,"https://www.google.com/maps/place/%E9%A3%9F%E5%A0%82+%E4%BA%80%E9%B6%B4(%E3%81%8D%E3%81%8B%E3%81%8F)/@38.5149649,141.3162487,17.12z/data=!4m15!1m8!3m7!1s0x5f89a89cb39e0aa5:0x46b84e7453592c23!2z44CSOTg2LTAxMDEg5a6u5Z-O55yM55-z5be75biC55u46YeO6LC36aOv6YeO5bed55S677yR77yX77yR!3b1!8m2!3d38.5145101!4d141.3179443!16s%2Fg%2F12hrky9sz!3m5!1s0x5f89a89cb3a6aaab:0xdd471d9d3b244d2e!8m2!3d38.5146747!4d141.3177991!16s%2Fg%2F11fy_tff9z?entry=ttu","<iframe src=""https://www.google.com/maps/embed?pb=!1m18!1m12!1m3!1d2880.430319798457!2d141.31624874064653!3d38.51496488280275!2m3!1f0!2f0!3f0!3m2!1i1024!2i768!4f13.1!3m3!1m2!1s0x5f89a89cb3a6aaab%3A0xdd471d9d3b244d2e!2z6aOf5aCCIOS6gOm2tCjjgY3jgYvjgY8p!5e0!3m2!1sja!2sjp!4v1711098839730!5m2!1sja!2sjp"" width=""600"" height=""450"" style=""border:0;"" allowfullscreen="""" loading=""lazy"" referrerpolicy=""no-referrer-when-downgrade""></iframe>",宮城県,宮城県,石巻市,相野谷字飯野川町171,,0225-62-3381,,https://tabelog.com/miyagi/A0404/A040403/4014503/,38.51485257105251,141.31786231993783
蔡菜食堂,さいさいしょくどう,白切鶏（バイツェーチ）、青菜の水餃子、トマト卵炒め、レバにら炒め、ごま団子,"https://www.google.com/maps/place/%E8%94%A1%E8%8F%9C%E9%A3%9F%E5%A0%82/@35.7048185,139.6636075,18.05z/data=!3m1!5s0x6018f293e0fa4b41:0xa50b5202f72f9474!4m6!3m5!1s0x6018f293e0f83f4d:0x8413788556ad9b7e!8m2!3d35.7046637!4d139.6645087!16s%2Fg%2F1thznybf?entry=ttu","<iframe src=""https://www.google.com/maps/embed?pb=!1m18!1m12!1m3!1d1567.0521091118896!2d139.66360750998095!3d35.704818541879995!2m3!1f0!2f0!3f0!3m2!1i1024!2i768!4f13.1!3m3!1m2!1s0x6018f293e0f83f4d%3A0x8413788556ad9b7e!2z6JSh6I-c6aOf5aCC!5e0!3m2!1sja!2sjp!4v1711005429432!5m2!1sja!2sjp"" width=""600"" height=""450"" style=""border:0;"" allowfullscreen="""" loading=""lazy"" referrerpolicy=""no-referrer-when-downgrade""></iframe>",東京都,中野区,中野3-35-2 渡辺ビル1F,中野駅,"・中野駅南口より徒３分
・中野駅から161m",03-5385-6558,,https://tabelog.com/tokyo/A1319/A131902/13025878/,35.70473215714304,139.66450525817353
STEAK TEXAS,すてーきてきさす,ガーリックライス（ハーフ）、テキサスリブステーキ（300g）,"https://www.google.com/maps/place/STEAK+TEXAS/@35.6850595,140.0218879,17.67z/data=!3m1!5s0x6022802892a02347:0x369e44f7bd38814c!4m6!3m5!1s0x60228028f2a98feb:0x6d5e3436d7d9924b!8m2!3d35.6858944!4d140.0219539!16s%2Fg%2F1tg5c6lh?entry=ttu","<iframe src=""https://www.google.com/maps/embed?pb=!1m18!1m12!1m3!1d2031.7972392722527!2d140.0218878965665!3d35.68505949578962!2m3!1f0!2f0!3f0!3m2!1i1024!2i768!4f13.1!3m3!1m2!1s0x60228028f2a98feb%3A0x6d5e3436d7d9924b!2sSTEAK%20TEXAS!5e0!3m2!1sja!2sjp!4v1711005723568!5m2!1sja!2sjp"" width=""600"" height=""450"" style=""border:0;"" allowfullscreen="""" loading=""lazy"" referrerpolicy=""no-referrer-when-downgrade""></iframe>",千葉県,習志野市,津田沼2-6-34,京成津田沼駅,"・京成千葉線 京成津田沼駅北口より徒歩5分
・京成津田沼駅から354m",047-477-9917,,https://tabelog.com/chiba/A1202/A120204/12001065/,35.68598557264052,140.02196188953448
松下製麺所,まつしたせいめんじょ,かけうどん（1玉）、コロッケ,"https://www.google.com/maps/place/%E6%9D%BE%E4%B8%8B%E8%A3%BD%E9%BA%BA%E6%89%80/@34.3346225,134.0426019,17.42z/data=!4m15!1m8!3m7!1s0x3553ebbdca4211a7:0x79e7e8389c939e50!2z44CSNzYwLTAwMDgg6aaZ5bed55yM6auY5p2-5biC5Lit6YeO55S677yS4oiS77yS!3b1!8m2!3d34.3350017!4d134.0448491!16s%2Fg%2F12hkbwswf!3m5!1s0x3553ebbdca28b825:0xaa249fc40a3f87fb!8m2!3d34.3350154!4d134.0449083!16s%2Fg%2F1tghmfb_?entry=ttu","<iframe src=""https://www.google.com/maps/embed?pb=!1m18!1m12!1m3!1d2455.7362609495594!2d134.04260191334654!3d34.33462248759344!2m3!1f0!2f0!3f0!3m2!1i1024!2i768!4f13.1!3m3!1m2!1s0x3553ebbdca28b825%3A0xaa249fc40a3f87fb!2z5p2-5LiL6KO96bq65omA!5e0!3m2!1sja!2sjp!4v1711006448085!5m2!1sja!2sjp"" width=""600"" height=""450"" style=""border:0;"" allowfullscreen="""" loading=""lazy"" referrerpolicy=""no-referrer-when-downgrade""></iframe>",香川県,高松市,中野町2-2,栗林公園北口駅,"・JR四国 栗林公園北口駅より徒歩5分
・栗林公園北口駅から322m",087-831-6279,,https://tabelog.com/kagawa/A3701/A370101/37000033/,34.335147472688156,134.04493704535497
さかな工房 丸万,さかなこうぼうまるまん,さば生姜煮、とこぶしのバター焼き、あまぎの唐揚げ・あんかけ、あなご澄まし汁、かんぱちの炒り、鯛どんぶり,"https://www.google.com/maps/place/%E3%81%95%E3%81%8B%E3%81%AA%E5%B7%A5%E6%88%BF+%E4%B8%B8%E4%B8%87/@33.8291533,132.7725907,17.6z/data=!4m15!1m8!3m7!1s0x354fe5f6fce0a9b3:0x22a648b8ce5d98ce!2z44CSNzkwLTA5NjUg5oSb5aqb55yM5p2-5bGx5biC56WH5ZyS55S677yT4oiS77yS77yR!3b1!8m2!3d33.830042!4d132.7734221!16s%2Fg%2F11clrq0ghz!3m5!1s0x354fe5f6fce0a9b3:0xdd3a6087a0e7ba89!8m2!3d33.8300257!4d132.7733962!16s%2Fg%2F1v0lhksm?entry=ttu","<iframe src=""https://www.google.com/maps/embed?pb=!1m18!1m12!1m3!1d2179.524646457935!2d132.7725906618856!3d33.829153316870304!2m3!1f0!2f0!3f0!3m2!1i1024!2i768!4f13.1!3m3!1m2!1s0x354fe5f6fce0a9b3%3A0xdd3a6087a0e7ba89!2z44GV44GL44Gq5bel5oi_IOS4uOS4hw!5e0!3m2!1sja!2sjp!4v1711006769964!5m2!1sja!2sjp"" width=""600"" height=""450"" style=""border:0;"" allowfullscreen="""" loading=""lazy"" referrerpolicy=""no-referrer-when-downgrade""></iframe>",愛媛県,松山市,祇園町3-21,いよ立花駅,"・いよたちばな駅より徒歩10分
・いよ立花駅から264m",089-921-7242,,https://tabelog.com/ehime/A3801/A380101/38005974/,33.830170169840116,132.7734231889288
みっちゃん,みっちゃん,おでん（牛すじ・大根）、コーネ、豆もやし、牛ロース、ラーメン（おでんの玉子トッピング),"https://www.google.com/maps/place/%E3%81%BF%E3%81%A3%E3%81%A1%E3%82%83%E3%82%93/@34.406975,132.4673987,16.73z/data=!4m15!1m8!3m7!1s0x355a98b36dce4c6b:0x6b96582a677bbc54!2z44CSNzMyLTAwNjQg5bqD5bO255yM5bqD5bO25biC5p2x5Yy654mb55Sw5Y2X77yR5LiB55uu77yX4oiS77yR!3b1!8m2!3d34.4072466!4d132.4707408!16s%2Fg%2F12j8f26gn!3m5!1s0x355a98b36dc919bf:0x584db5ffd5d84835!8m2!3d34.4072567!4d132.4707377!16s%2Fg%2F1tdj218s?entry=ttu","<iframe src=""https://www.google.com/maps/embed?pb=!1m18!1m12!1m3!1d3957.505439043161!2d132.46739872632642!3d34.406974983963664!2m3!1f0!2f0!3f0!3m2!1i1024!2i768!4f13.1!3m3!1m2!1s0x355a98b36dc919bf%3A0x584db5ffd5d84835!2z44G_44Gj44Gh44KD44KT!5e0!3m2!1sja!2sjp!4v1711007156324!5m2!1sja!2sjp"" width=""600"" height=""450"" style=""border:0;"" allowfullscreen="""" loading=""lazy"" referrerpolicy=""no-referrer-when-downgrade""></iframe>",広島県,広島市東区,牛田南1-7-1,白島駅,・白島駅から585m,082-223-3329,,https://tabelog.com/hiroshima/A3401/A340101/34007929/,34.40750175857159,132.47080396386318
多津美,たつみ,せいろそば,"https://www.google.com/maps/place/%E5%A4%9A%E6%B4%A5%E7%BE%8E/@35.7830534,140.314038,15.95z/data=!4m15!1m8!3m7!1s0x60228b1038adb5d3:0x7130acd0e6baee5c!2z44CSMjg2LTAwMjYg5Y2D6JGJ55yM5oiQ55Sw5biC5pys55S677yT77yU77yV!3b1!8m2!3d35.7842679!4d140.3184522!16s%2Fg%2F11clnxy7k8!3m5!1s0x60228b1038b177b3:0xd2939dbf6f5df4ad!8m2!3d35.7844641!4d140.3184641!16s%2Fg%2F1tfvhb1m?entry=ttu","<iframe src=""https://www.google.com/maps/embed?pb=!1m18!1m12!1m3!1d6681.092701867739!2d140.3140379517355!3d35.783053441806196!2m3!1f0!2f0!3f0!3m2!1i1024!2i768!4f13.1!3m3!1m2!1s0x60228b1038b177b3%3A0xd2939dbf6f5df4ad!2z5aSa5rSl576O!5e0!3m2!1sja!2sjp!4v1711034389355!5m2!1sja!2sjp"" width=""600"" height=""450"" style=""border:0;"" allowfullscreen="""" loading=""lazy"" referrerpolicy=""no-referrer-when-downgrade""></iframe>",千葉県,成田市,本町345,成田駅,・成田駅から856m,0476-22-0139,,https://tabelog.com/chiba/A1204/A120401/12016342/,35.78489491674688,140.31851148505456
珈琲処カラス,こーひーどころからす,あんトースト,"https://www.google.com/maps/place/%E7%8F%88%E7%90%B2%E5%87%A6%E3%82%AB%E3%83%A9%E3%82%B9/@35.1673518,136.8948765,16.84z/data=!4m15!1m8!3m7!1s0x60037729406d9909:0x66d2d6895a908ff4!2z44CSNDYwLTAwMDgg5oSb55-l55yM5ZCN5Y-k5bGL5biC5Lit5Yy65qCE77yR5LiB55uu77yR77yS4oiS77ySIOOCq-ODqeOCuQ!3b1!8m2!3d35.1660323!4d136.8968028!16s%2Fg%2F11ddyzthqj!3m5!1s0x600377294bcbbb3d:0x3c28d8ee64b2629c!8m2!3d35.1660419!4d136.8968097!16s%2Fg%2F12qg62l2s?entry=ttu","<iframe src=""https://www.google.com/maps/embed?pb=!1m18!1m12!1m3!1d3651.059161690729!2d136.8948764557291!3d35.16735180469587!2m3!1f0!2f0!3f0!3m2!1i1024!2i768!4f13.1!3m3!1m2!1s0x600377294bcbbb3d%3A0x3c28d8ee64b2629c!2z54-I55Cy5Yem44Kr44Op44K5!5e0!3m2!1sja!2sjp!4v1711034978517!5m2!1sja!2sjp"" width=""600"" height=""450"" style=""border:0;"" allowfullscreen="""" loading=""lazy"" referrerpolicy=""no-referrer-when-downgrade""></iframe>",愛知県,名古屋市中区,栄1-12-2,伏見駅,"・地下鉄東山線 伏見駅より徒歩5分
・伏見駅から315m",052-231-1563,,https://tabelog.com/aichi/A2301/A230102/23006935/,35.16623746606137,136.89682208368623
台湾ラーメン 光陽,たいわんらーめんこうよう,酢鶏（ハーフ）、台湾ラーメン（中辛）、ピリカラにんにく炒飯,"https://www.google.com/maps/place/%E5%8F%B0%E6%B9%BE%E3%83%A9%E3%83%BC%E3%83%A1%E3%83%B3+%E5%85%89%E9%99%BD/@35.2298777,136.8953914,16.36z/data=!4m15!1m8!3m7!1s0x60037470d829994f:0x7d44088eaa033849!2z44CSNDUyLTA4MDIg5oSb55-l55yM5ZCN5Y-k5bGL5biC6KW_5Yy65q-U6Imv77yT5LiB55uu77yR77yT77yZIO-8qu-8reODkuODqQ!3b1!8m2!3d35.230463!4d136.8973883!16s%2Fg%2F12j6xkcwy!3m5!1s0x60037470d8287c79:0x9e7722c3727b7fe5!8m2!3d35.2304379!4d136.8973604!16s%2Fg%2F1td9dpht?entry=ttu","<iframe src=""https://www.google.com/maps/embed?pb=!1m18!1m12!1m3!1d5081.886734858689!2d136.89539137765036!3d35.22987765605262!2m3!1f0!2f0!3f0!3m2!1i1024!2i768!4f13.1!3m3!1m2!1s0x60037470d8287c79%3A0x9e7722c3727b7fe5!2z5Y-w5rm-44Op44O844Oh44OzIOWFiemZvQ!5e0!3m2!1sja!2sjp!4v1711035432330!5m2!1sja!2sjp"" width=""600"" height=""450"" style=""border:0;"" allowfullscreen="""" loading=""lazy"" referrerpolicy=""no-referrer-when-downgrade""></iframe>",愛知県,名古屋市西区,比良3-139,比良駅,"・城北線 比良駅より徒歩9分
・比良駅から700m",052-501-3243,,https://tabelog.com/aichi/A2301/A230113/23011919/,35.23064484715997,136.89730201143382
ゑびす家,えびすや,うな重,"https://www.google.com/maps/place/%E3%82%91%E3%81%B3%E3%81%99%E5%AE%B6/@35.7574451,139.8747739,17.71z/data=!4m15!1m8!3m7!1s0x601885a2b34f810f:0x6076db08a9c092c7!2z44CSMTI1LTAwNTIg5p2x5Lqs6YO96JGb6aO-5Yy65p-05Y-I77yX5LiB55uu77yT4oiS77yX!3b1!8m2!3d35.7576162!4d139.8761271!16s%2Fg%2F12j1g9_tm!3m5!1s0x601885a2b34f9ec3:0x108663a54a3176f6!8m2!3d35.7576157!4d139.876109!16s%2Fg%2F1thxw5xh?entry=ttu","<iframe src=""https://www.google.com/maps/embed?pb=!1m18!1m12!1m3!1d1976.3689429805695!2d139.87477387446043!3d35.757445126106944!2m3!1f0!2f0!3f0!3m2!1i1024!2i768!4f13.1!3m3!1m2!1s0x601885a2b34f9ec3%3A0x108663a54a3176f6!2z44KR44Gz44GZ5a62!5e0!3m2!1sja!2sjp!4v1711036095028!5m2!1sja!2sjp"" width=""600"" height=""450"" style=""border:0;"" allowfullscreen="""" loading=""lazy"" referrerpolicy=""no-referrer-when-downgrade""></iframe>",東京都,葛飾区,柴又7-3-7,柴又駅,・柴又駅より徒歩１分,03-3657-2525,,https://tabelog.com/tokyo/A1324/A132403/13035341/,35.75769756741502,139.87612953306075
栗原軒,くりはらけん,肉朝鮮焼定食・生タマゴ,"https://www.google.com/maps/place/%E6%A0%97%E5%8E%9F%E8%BB%92/@35.7465478,140.3674636,15.38z/data=!4m15!1m8!3m7!1s0x6022f31eafdc6875:0xd58a374122c0cb6a!2z44CSMjg2LTAxMTEg5Y2D6JGJ55yM5oiQ55Sw5biC5LiJ6YeM5aGa77yR77yV!3b1!8m2!3d35.7469458!4d140.373365!16s%2Fg%2F11clqq6vq9!3m5!1s0x6022f31eb0277f65:0xbc3efa38db6b21cb!8m2!3d35.7469473!4d140.3733722!16s%2Fg%2F1trsy3h4?entry=ttu","<iframe src=""https://www.google.com/maps/embed?pb=!1m18!1m12!1m3!1d9948.854343109924!2d140.36746357324276!3d35.74654777234239!2m3!1f0!2f0!3f0!3m2!1i1024!2i768!4f13.1!3m3!1m2!1s0x6022f31eb0277f65%3A0xbc3efa38db6b21cb!2z5qCX5Y6f6LuS!5e0!3m2!1sja!2sjp!4v1711036490953!5m2!1sja!2sjp"" width=""600"" height=""450"" style=""border:0;"" allowfullscreen="""" loading=""lazy"" referrerpolicy=""no-referrer-when-downgrade""></iframe>",千葉県,成田市,三里塚15,成田空港駅,"・成田空港駅から2,428m",0476-35-0213,,https://tabelog.com/chiba/A1204/A120403/12008244/,35.74744399292816,140.37326504576498
活海酒,かつかいしゅ,お通し（鴨の焼ナス巻き）、カワハギ刺し（肝付き）、カワハギの煮付け、高菜の油炒め、豚足の唐揚げ、カワハギの味噌汁、ウニたっぷりクリームパスタ,"https://www.google.com/maps/place/%E6%B4%BB%E6%B5%B7%E9%85%92/@33.5857549,130.3866026,15.88z/data=!4m15!1m8!3m7!1s0x3541922aa6a2752f:0x959febc89c47aef3!2z44CSODEwLTAwMjMg56aP5bKh55yM56aP5bKh5biC5Lit5aSu5Yy66K2m5Zu677yS5LiB55uu77yV4oiS77yR77yT!3b1!8m2!3d33.5831452!4d130.3901794!16s%2Fg%2F12hlbmzt_!3m5!1s0x3541922aa698b045:0xd514aefa4f8533c3!8m2!3d33.583147!4d130.390191!16s%2Fg%2F1tdl8hf4?entry=ttu","<iframe src=""https://www.google.com/maps/embed?pb=!1m18!1m12!1m3!1d7231.751051415971!2d130.38660264498424!3d33.58575493343237!2m3!1f0!2f0!3f0!3m2!1i1024!2i768!4f13.1!3m3!1m2!1s0x3541922aa698b045%3A0xd514aefa4f8533c3!2z5rS75rW36YWS!5e0!3m2!1sja!2sjp!4v1711037629517!5m2!1sja!2sjp"" width=""600"" height=""450"" style=""border:0;"" allowfullscreen="""" loading=""lazy"" referrerpolicy=""no-referrer-when-downgrade""></iframe>",福岡県,福岡市中央区,警固2丁目5-13,赤坂駅,・地下鉄赤坂駅より徒歩9分,092-716-6787,,https://tabelog.com/fukuoka/A4001/A400104/40003961/,33.58325601336657,130.3902208982283
純ちゃん,じゅんちゃん,ラーメン,"https://www.google.com/maps/place/%E7%B4%94%E3%81%A1%E3%82%83%E3%82%93/@33.6011558,130.4008636,15.59z/data=!3m1!5s0x354191ef028e2be5:0x199cdd56178b1c92!4m15!1m8!3m7!1s0x354191ef02e6ba3b:0xa7214986c470ae9b!2z44CSODEyLTAwMzIg56aP5bKh55yM56aP5bKh5biC5Y2a5aSa5Yy655-z5Z-O55S677yR4oiS77yRIO-8ru-8pO-8s-ODk-ODqw!3b1!8m2!3d33.6029081!4d130.4037495!16s%2Fg%2F12hqnl0vn!3m5!1s0x354191ef02fa4763:0x48847a89dc56c3b1!8m2!3d33.6028154!4d130.4038121!16s%2Fg%2F11c3v12z4x?entry=ttu","<iframe src=""https://www.google.com/maps/embed?pb=!1m18!1m12!1m3!1d8801.448944551923!2d130.40086361249297!3d33.6011558103397!2m3!1f0!2f0!3f0!3m2!1i1024!2i768!4f13.1!3m3!1m2!1s0x354191ef02fa4763%3A0x48847a89dc56c3b1!2z57SU44Gh44KD44KT!5e0!3m2!1sja!2sjp!4v1711037898604!5m2!1sja!2sjp"" width=""600"" height=""450"" style=""border:0;"" allowfullscreen="""" loading=""lazy"" referrerpolicy=""no-referrer-when-downgrade""></iframe>",福岡県,福岡市博多区,石城町1-1 NDSビル,呉服町駅,"・福岡市地下鉄 呉服町駅より徒歩9分
・呉服町駅から765m",090-8628-0708,,https://tabelog.com/fukuoka/A4001/A400106/40039152/,33.603368699660614,130.40387565692689
焼肉 清月苑,やきにくせいげつえん,塩ヒレ、塩カルビ、しその葉漬け、コムタン、ハラミ、塩ハラミ,"https://www.google.com/maps/place/%E7%84%BC%E8%82%89+%E6%B8%85%E6%9C%88%E8%8B%91/@35.5673494,139.5898257,15z/data=!4m6!3m5!1s0x6018f66e2b51f033:0x17ab8d775e07f8aa!8m2!3d35.570653!4d139.5990384!16s%2Fg%2F1tpn2lzk?entry=ttu","<iframe src=""https://www.google.com/maps/embed?pb=!1m18!1m12!1m3!1d12981.789289603761!2d139.58982565939445!3d35.56734943492495!2m3!1f0!2f0!3f0!3m2!1i1024!2i768!4f13.1!3m3!1m2!1s0x6018f66e2b51f033%3A0x17ab8d775e07f8aa!2z54S86IKJIOa4heaciOiLkQ!5e0!3m2!1sja!2sjp!4v1711038598965!5m2!1sja!2sjp"" width=""600"" height=""450"" style=""border:0;"" allowfullscreen="""" loading=""lazy"" referrerpolicy=""no-referrer-when-downgrade""></iframe>",神奈川県,川崎市宮前区,野川4179,北山田駅,"・北山田駅から1,220m",044-788-5235,,https://tabelog.com/kanagawa/A1401/A140203/14018576/,35.57159073323406,139.59900954226913
餃子菜苑,ぎょうざさいえん,餃子、チャーハン（かきたまスープ付き）、ムースーロー（肉・玉子キクラゲ炒め）,"https://www.google.com/maps/place/%E9%A4%83%E5%AD%90%E8%8F%9C%E8%8B%91/@35.9920498,139.0826711,18.28z/data=!4m15!1m8!3m7!1s0x601ecbd505dbd2bd:0x8e3c296a7618b607!2z44CSMzY4LTAwNDIg5Z-8546J55yM56ep54i25biC5p2x55S677yS77yU4oiS77yV!3b1!8m2!3d35.9916239!4d139.083893!16s%2Fg%2F12hy863sd!3m5!1s0x601ecbd505d0a579:0x7f8db4a110dc0c32!8m2!3d35.9915922!4d139.0838922!16s%2Fg%2F1tj6txpq?entry=ttu","<iframe src=""https://www.google.com/maps/embed?pb=!1m18!1m12!1m3!1d1333.1425057696222!2d139.08267113299797!3d35.99204981840823!2m3!1f0!2f0!3f0!3m2!1i1024!2i768!4f13.1!3m3!1m2!1s0x601ecbd505d0a579%3A0x7f8db4a110dc0c32!2z6aSD5a2Q6I-c6IuR!5e0!3m2!1sja!2sjp!4v1711038906957!5m2!1sja!2sjp"" width=""600"" height=""450"" style=""border:0;"" allowfullscreen="""" loading=""lazy"" referrerpolicy=""no-referrer-when-downgrade""></iframe>",埼玉県,秩父市,東町24-5,御花畑駅,・御花畑駅から89m,0494-22-3008,,https://tabelog.com/saitama/A1107/A110701/11019456/,35.99166802650413,139.08389844328846
魚たつ,うおたつ,舞鶴かに刺身、舞鶴かに焼き、京鰆,"https://www.google.com/maps/place/%E9%AD%9A%E3%81%9F%E3%81%A4/@35.4480499,135.3059457,14.69z/data=!3m1!5s0x5fff8bb591887f65:0xade96dd415db859f!4m6!3m5!1s0x5fff8bb592711495:0xe704080e3770cd3b!8m2!3d35.450379!4d135.3144849!16s%2Fg%2F1tgws3hb?entry=ttu","<iframe src=""https://www.google.com/maps/embed?pb=!1m18!1m12!1m3!1d16128.393668410501!2d135.30594570420612!3d35.44804992327559!2m3!1f0!2f0!3f0!3m2!1i1024!2i768!4f13.1!3m3!1m2!1s0x5fff8bb592711495%3A0xe704080e3770cd3b!2z6a2a44Gf44Gk!5e0!3m2!1sja!2sjp!4v1711039349956!5m2!1sja!2sjp"" width=""600"" height=""450"" style=""border:0;"" allowfullscreen="""" loading=""lazy"" referrerpolicy=""no-referrer-when-downgrade""></iframe>",京都府,舞鶴市,下福井905 舞鶴港とれとれセンター,西舞鶴駅,"・西舞鶴駅から1,741m",0773-75-9932,,https://tabelog.com/kyoto/A2609/A260902/26028008/,35.45097735294277,135.31467678031828
丹波篠山 猪料理専門店 奥栄,たんばささやまいのししりょうりせんもんてんおくえい,猪肉（ロース・バラ・モモ・赤身）、〆ごはん,"https://www.google.com/maps/place/%E4%B8%B9%E6%B3%A2%E7%AF%A0%E5%B1%B1+%E7%8C%AA%E6%96%99%E7%90%86%E5%B0%82%E9%96%80%E5%BA%97+%E5%A5%A5%E6%A0%84/@35.10627,135.2161626,16.13z/data=!4m15!1m8!3m7!1s0x60001366800d86ef:0x776f785aead279b4!2z44CSNjY5LTIzNjkg5YW15bqr55yM5Li55rOi56-g5bGx5biC6Jek5bKh5aWl77yU77yZ77yS4oiS77yV!3b1!8m2!3d35.1064138!4d135.2173484!16s%2Fg%2F11h6bf1nk6!3m5!1s0x600013668015ab1b:0xc6ae14348a3824bf!8m2!3d35.1064413!4d135.2173501!16s%2Fg%2F1td47v8r?entry=ttu","<iframe src=""https://www.google.com/maps/embed?pb=!1m18!1m12!1m3!1d5967.884604336371!2d135.2161625837341!3d35.10627002747355!2m3!1f0!2f0!3f0!3m2!1i1024!2i768!4f13.1!3m3!1m2!1s0x600013668015ab1b%3A0xc6ae14348a3824bf!2z5Li55rOi56-g5bGxIOeMquaWmeeQhuWwgumWgOW6lyDlpaXmoIQ!5e0!3m2!1sja!2sjp!4v1711039940855!5m2!1sja!2sjp"" width=""600"" height=""450"" style=""border:0;"" allowfullscreen="""" loading=""lazy"" referrerpolicy=""no-referrer-when-downgrade""></iframe>",兵庫県,丹波篠山市,藤岡奥492-5,,・JR西日本福知山線丹波篠山口駅からタクシー,079-552-4441,https://www.okuei.com/,https://tabelog.com/hyogo/A2807/A280702/28023086/,35.10666320160347,135.2172611051209
前島食堂,まえしましょくどう,若どり、親どり、とり野菜、きも,"https://www.google.com/maps/place/%E5%89%8D%E5%B3%B6%E9%A3%9F%E5%A0%82/@34.5310378,136.4659032,14.88z/data=!4m15!1m8!3m7!1s0x6004159e1128d5ad:0x20669adc8e55769a!2z44CSNTE1LTExMDUg5LiJ6YeN55yM5p2-6Ziq5biC5aSn5rKz5YaF55S677yW77yR77yS4oiS77yR!3b1!8m2!3d34.5307034!4d136.4770187!16s%2Fg%2F11c3x1c7lb!3m5!1s0x6004159e10d3ffff:0x4d8c6a7dcc51f1fe!8m2!3d34.5307082!4d136.4770413!16s%2Fg%2F11fzj0lmzg?entry=ttu","<iframe src=""https://www.google.com/maps/embed?pb=!1m18!1m12!1m3!1d14297.41640541349!2d136.46590318431222!3d34.53103780720106!2m3!1f0!2f0!3f0!3m2!1i1024!2i768!4f13.1!3m3!1m2!1s0x6004159e10d3ffff%3A0x4d8c6a7dcc51f1fe!2z5YmN5bO26aOf5aCC!5e0!3m2!1sja!2sjp!4v1711040301203!5m2!1sja!2sjp"" width=""600"" height=""450"" style=""border:0;"" allowfullscreen="""" loading=""lazy"" referrerpolicy=""no-referrer-when-downgrade""></iframe>",三重県,松阪市,大河内町612-1,,・松阪駅より三重交通道の駅飯高駅ゆき乗車、大河内小学校前下車、徒歩1分,0598-36-0057,,https://tabelog.com/mie/A2401/A240102/24001314/,34.53163372614367,136.47719699370037
ちとせ,ちとせ,肉月見伊勢うどん（えび天トッピング）,"https://www.google.com/maps/place/%E3%81%A1%E3%81%A8%E3%81%9B/@34.4875284,136.7107122,16.84z/data=!4m15!1m8!3m7!1s0x60045a630936db95:0x1c5865617019f6ed!2z44CSNTE2LTAwMzcg5LiJ6YeN55yM5LyK5Yui5biC5bKp5riV77yR5LiB55uu77yR77yV4oiS77yR77yR!3b1!8m2!3d34.4871213!4d136.7123855!16s%2Fg%2F11cnkwqtr0!3m5!1s0x60045a630ebaca63:0xd42f809bd46b4aaf!8m2!3d34.4870843!4d136.7124693!16s%2Fg%2F1thsfwdt?entry=ttu","<iframe src=""https://www.google.com/maps/embed?pb=!1m18!1m12!1m3!1d3678.0709944631994!2d136.7107121530906!3d34.487528431315546!2m3!1f0!2f0!3f0!3m2!1i1024!2i768!4f13.1!3m3!1m2!1s0x60045a630ebaca63%3A0xd42f809bd46b4aaf!2z44Gh44Go44Gb!5e0!3m2!1sja!2sjp!4v1711040501059!5m2!1sja!2sjp"" width=""600"" height=""450"" style=""border:0;"" allowfullscreen="""" loading=""lazy"" referrerpolicy=""no-referrer-when-downgrade""></iframe>",三重県,伊勢市,岩渕1-15-11,宇治山田駅,"・近鉄 宇治山田駅より徒歩1分
・宇治山田駅から165m",090-5631-7561,,https://tabelog.com/mie/A2403/A240301/24001056/,34.487315784637865,136.71250006928085
うなぎ・和食処 松の家,うなぎわしょくどころまつのや,うなぎまぶし丼、白焼きまぶし丼、ミニ牡蠣カバ丼,"https://www.google.com/maps/place/%E3%81%86%E3%81%AA%E3%81%8E%E3%83%BB%E5%92%8C%E9%A3%9F%E5%87%A6+%E6%9D%BE%E3%81%AE%E5%AE%B6/@34.7645889,137.6128784,17.84z/data=!4m15!1m8!3m7!1s0x601b262e55afb081:0xe600cddfa8d8629c!2z44CSNDMxLTEyMDkg6Z2Z5bKh55yM5rWc5p2-5biC5Lit5aSu5Yy66IiY5bGx5a-655S677yS77yT77yQ77yW4oiS77yUIOS4uOadvuOCsuODvOODoOOCu-ODs-OCv-ODvA!3b1!8m2!3d34.7646998!4d137.6136353!16s%2Fg%2F11dxmbdn7r!3m5!1s0x601b262e55aeb1cf:0xb1ee30a178b93563!8m2!3d34.7647222!4d137.6136111!16s%2Fg%2F1tjkfw7q?entry=ttu","<iframe src=""https://www.google.com/maps/embed?pb=!1m18!1m12!1m3!1d1836.0678575051138!2d137.61287835871906!3d34.76458886926878!2m3!1f0!2f0!3f0!3m2!1i1024!2i768!4f13.1!3m3!1m2!1s0x601b262e55aeb1cf%3A0xb1ee30a178b93563!2z44GG44Gq44GO44O75ZKM6aOf5YemIOadvuOBruWutg!5e0!3m2!1sja!2sjp!4v1711040793821!5m2!1sja!2sjp"" width=""600"" height=""450"" style=""border:0;"" allowfullscreen="""" loading=""lazy"" referrerpolicy=""no-referrer-when-downgrade""></iframe>",静岡県,浜松市中央区,舘山寺町2306-4,,・JR浜松駅より遠鉄バス舘山寺温泉行き(1番)で舘山寺温泉バス停下車、徒歩約1分,050-5890-2446,,https://tabelog.com/shizuoka/A2202/A220201/22002638/,34.76551671419575,137.61346065647976
いも工房 かくたに,いもこうぼうかくたに,やきいも,"https://www.google.com/maps/place/%E3%81%84%E3%82%82%E5%B7%A5%E6%88%BF+%E3%81%8B%E3%81%8F%E3%81%9F%E3%81%AB/@35.4120008,138.5875693,16.33z/data=!4m6!3m5!1s0x601bdd73da0b3683:0x50913b632204f4ff!8m2!3d35.411737!4d138.5917852!16s%2Fg%2F1hhghd091?entry=ttu","<iframe src=""https://www.google.com/maps/embed?pb=!1m18!1m12!1m3!1d5175.585083668703!2d138.5875693361792!3d35.412000846196705!2m3!1f0!2f0!3f0!3m2!1i1024!2i768!4f13.1!3m3!1m2!1s0x601bdd73da0b3683%3A0x50913b632204f4ff!2z44GE44KC5bel5oi_IOOBi-OBj-OBn-OBqw!5e0!3m2!1sja!2sjp!4v1711067858257!5m2!1sja!2sjp"" width=""600"" height=""450"" style=""border:0;"" allowfullscreen="""" loading=""lazy"" referrerpolicy=""no-referrer-when-downgrade""></iframe>",静岡県,富士宮市,根原449-11 あさぎりフードパーク,,,0544-52-0102,,https://tabelog.com/shizuoka/A2204/A220401/22022695/,35.411952135189594,138.5917872219527
軽食 下総屋,けいしょくしもふさや,焼き肉ラーメン,"https://www.google.com/maps/place/%E8%BB%BD%E9%A3%9F+%E4%B8%8B%E7%B7%8F%E5%B1%8B/@35.7086134,139.8046029,17.27z/data=!4m15!1m8!3m7!1s0x60188ed10fefa98b:0x759d5a8134c9e239!2z44CSMTMwLTAwMDEg5p2x5Lqs6YO95aKo55Sw5Yy65ZC-5aa75qmL77yT5LiB55uu77yS4oiS77yZ!3b1!8m2!3d35.7084906!4d139.8067035!16s%2Fg%2F11clp5zqtp!3m5!1s0x60188ed10fee516b:0xecf6e990b4d1b539!8m2!3d35.7085265!4d139.8067035!16s%2Fg%2F1pty_b1t2?entry=ttu","<iframe src=""https://www.google.com/maps/embed?pb=!1m18!1m12!1m3!1d2691.012855699095!2d139.80460292669628!3d35.70861340549706!2m3!1f0!2f0!3f0!3m2!1i1024!2i768!4f13.1!3m3!1m2!1s0x60188ed10fee516b%3A0xecf6e990b4d1b539!2z6Lu96aOfIOS4i-e3j-Wxiw!5e0!3m2!1sja!2sjp!4v1711068670429!5m2!1sja!2sjp"" width=""600"" height=""450"" style=""border:0;"" allowfullscreen="""" loading=""lazy"" referrerpolicy=""no-referrer-when-downgrade""></iframe>",東京都,墨田区,吾妻橋3-2-9,本所吾妻橋駅,・本所吾妻橋駅から204m,03-3622-5355,,https://tabelog.com/tokyo/A1312/A131203/13158708/,35.70863149619042,139.80671500390963
味の五十番,あじのごじゅうばん,カレーもやしラーメン定食（目玉焼き・ご飯・漬物）,"https://www.google.com/maps/place/%E5%91%B3%E3%81%AE%E4%BA%94%E5%8D%81%E7%95%AA/@42.6472378,141.5952813,14.64z/data=!4m15!1m8!3m7!1s0x5f7510b1e9cb2fbf:0x493296463fca16db!2z44CSMDUzLTAwNDUg5YyX5rW36YGT6Iur5bCP54mn5biC5Y-M6JGJ55S677yS5LiB55uu77yR4oiS77yU!3b1!8m2!3d42.6480399!4d141.6120562!16s%2Fg%2F11h6b_n3yv!3m5!1s0x5f7510b1e9c819b1:0xa03706e50a12a5ad!8m2!3d42.6480699!4d141.6122743!16s%2Fg%2F1tk22r89?entry=ttu","<iframe src=""https://www.google.com/maps/embed?pb=!1m18!1m12!1m3!1d15043.726485442327!2d141.5952812559398!3d42.64723783446965!2m3!1f0!2f0!3f0!3m2!1i1024!2i768!4f13.1!3m3!1m2!1s0x5f7510b1e9c819b1%3A0xa03706e50a12a5ad!2z5ZGz44Gu5LqU5Y2B55Wq!5e0!3m2!1sja!2sjp!4v1711069036746!5m2!1sja!2sjp"" width=""600"" height=""450"" style=""border:0;"" allowfullscreen="""" loading=""lazy"" referrerpolicy=""no-referrer-when-downgrade""></iframe>",北海道,苫小牧市,双葉町2-1-4,苫小牧駅,"・苫小牧駅から1,606m",0144-84-1111,,https://tabelog.com/hokkaido/A0108/A010802/1034322/,42.648916627453836,141.6121657355158
花茶,かちゃ,ジェラート（ハスカップヨーグルト＆北海道ミルク）,"https://www.google.com/maps/place/%E8%8A%B1%E8%8C%B6/@42.9183038,141.7223161,16.23z/data=!4m15!1m8!3m7!1s0x5f74da5a4ca2bc69:0x550bddc66ad7abf3!2z44CSMDY2LTAwMDQg5YyX5rW36YGT5Y2D5q2z5biC5rOJ6YO377yU77yX77yZ!3b1!8m2!3d42.9184643!4d141.7256346!16s%2Fg%2F11h6d9zv3p!3m5!1s0x5f74da5a8ca431c3:0xe15c2cd87c39a243!8m2!3d42.9184464!4d141.7256555!16s%2Fg%2F1tf07gqy?entry=ttu","<iframe src=""https://www.google.com/maps/embed?pb=!1m18!1m12!1m3!1d4970.462648273492!2d141.72231606627392!3d42.918303754795865!2m3!1f0!2f0!3f0!3m2!1i1024!2i768!4f13.1!3m3!1m2!1s0x5f74da5a8ca431c3%3A0xe15c2cd87c39a243!2z6Iqx6Iy2!5e0!3m2!1sja!2sjp!4v1711069241221!5m2!1sja!2sjp"" width=""600"" height=""450"" style=""border:0;"" allowfullscreen="""" loading=""lazy"" referrerpolicy=""no-referrer-when-downgrade""></iframe>",北海道,千歳市,泉郷479,,,0123-29-2888,,https://tabelog.com/hokkaido/A0107/A010701/1005624/,42.918631217033706,141.72582030269066
浅鞍,あさくら,お通し（ボタン海老・しいたけ）、牛トロ黄身、ジンギスカン、和牛サガリ、Bシチュー,"https://www.google.com/maps/place/%E6%B5%85%E9%9E%8D/@43.0510776,141.3135448,15.31z/data=!4m14!1m7!3m6!1s0x5f0b29eed758c267:0xa6449a2c8a7c7fc6!2z44CSMDY0LTA4MDUg5YyX5rW36YGT5pyt5bmM5biC5Lit5aSu5Yy65Y2X77yV5p2h6KW_77yS77yV5LiB55uu77yS4oiS77yR77ySIOeCreeBq-mFkuaIvyDmtYXpno0gMmY!3b1!8m2!3d43.0509292!4d141.320836!3m5!1s0x5f0b29eed76369a5:0xc5b4828571d7da06!8m2!3d43.0509102!4d141.3208338!16s%2Fg%2F1tfbhjb7?entry=ttu","<iframe src=""https://www.google.com/maps/embed?pb=!1m18!1m12!1m3!1d9411.388892736037!2d141.31354479814!3d43.05107756643964!2m3!1f0!2f0!3f0!3m2!1i1024!2i768!4f13.1!3m3!1m2!1s0x5f0b29eed76369a5%3A0xc5b4828571d7da06!2z5rWF6Z6N!5e0!3m2!1sja!2sjp!4v1711069553016!5m2!1sja!2sjp"" width=""600"" height=""450"" style=""border:0;"" allowfullscreen="""" loading=""lazy"" referrerpolicy=""no-referrer-when-downgrade""></iframe>",北海道,札幌市中央区,南5条西25丁目2-12 2F,円山公園駅,・円山公園駅から556m,050-5595-2706,https://asakura-susukino.com/index.html,https://tabelog.com/hokkaido/A0101/A010105/1030343/,43.051469835007055,141.32092157534709
鮨爽醇鳥 ひだか,すしそうじゅんちょうひだか,イクラ、エンガワ、カニ、さばガリ巻、ホタテ、タコ、ボタンエビ、ウニ、石狩鍋,"https://www.google.com/maps/place/%E9%AE%A8%E7%88%BD%E9%86%87%E9%B3%A5+%E3%81%B2%E3%81%A0%E3%81%8B/@43.1349988,141.2484529,13.25z/data=!4m15!1m8!3m7!1s0x5f0b26645e2455ff:0x2feb175e857c9807!2z44CSMDYxLTMyMDkg5YyX5rW36YGT55-z54up5biC6Iqx5bed5Y2X77yZ5p2h77yT5LiB55uu77yZ77yS4oiS77yWIOOCpOODvOOCueODtOOCo-ODrOODg-ODgg!3b1!8m2!3d43.1398177!4d141.2839279!16s%2Fg%2F11cln81l7q!3m5!1s0x5f0b26645e2501ef:0x241a88c72cd183b1!8m2!3d43.1397988!4d141.2838826!16s%2Fg%2F1tls2mqn?entry=ttu","<iframe src=""https://www.google.com/maps/embed?pb=!1m18!1m12!1m3!1d39148.61415276477!2d141.24845289115882!3d43.134998769537425!2m3!1f0!2f0!3f0!3m2!1i1024!2i768!4f13.1!3m3!1m2!1s0x5f0b26645e2501ef%3A0x241a88c72cd183b1!2z6a6o54i96YaH6bOlIOOBsuOBoOOBiw!5e0!3m2!1sja!2sjp!4v1711069824857!5m2!1sja!2sjp"" width=""600"" height=""450"" style=""border:0;"" allowfullscreen="""" loading=""lazy"" referrerpolicy=""no-referrer-when-downgrade""></iframe>",北海道,石狩市,花川南9条3-92-6,稲積公園駅,"・稲積公園駅から3,767m",0133-73-2266,,https://tabelog.com/hokkaido/A0107/A010702/1013302/,43.14157796102314,141.28379650385023
おでん・焼物 はつ花,おでんやきものはつはな,おにぎり（たらこ）、お通し（ホッケスティック）、とりめん,"https://www.google.com/maps/place/%E3%81%8A%E3%81%A7%E3%82%93%E3%83%BB%E7%84%BC%E7%89%A9+%E3%81%AF%E3%81%A4%E8%8A%B1/@43.1952501,140.9945208,15.82z/data=!4m15!1m8!3m7!1s0x5f0ae051676d73e3:0x2b1afe0eb6f363f4!2z44CSMDQ3LTAwMjQg5YyX5rW36YGT5bCP5qi95biC6Iqx5ZyS77yR5LiB55uu77yR4oiS77yY!3b1!8m2!3d43.1940161!4d140.9996672!16s%2Fg%2F11smrqtcct!3m5!1s0x5f0ae05167667af1:0xa271cf252d8f492b!8m2!3d43.1939946!4d140.9998167!16s%2Fg%2F1tm12d3c?entry=ttu","<iframe src=""https://www.google.com/maps/embed?pb=!1m18!1m12!1m3!1d6574.624531121023!2d140.99452076126485!3d43.195250118859875!2m3!1f0!2f0!3f0!3m2!1i1024!2i768!4f13.1!3m3!1m2!1s0x5f0ae05167667af1%3A0xa271cf252d8f492b!2z44GK44Gn44KT44O754S854mpIOOBr-OBpOiKsQ!5e0!3m2!1sja!2sjp!4v1711070138549!5m2!1sja!2sjp"" width=""600"" height=""450"" style=""border:0;"" allowfullscreen="""" loading=""lazy"" referrerpolicy=""no-referrer-when-downgrade""></iframe>",北海道,小樽市,花園1-1-8,小樽駅,"・JR小樽駅より徒歩約10分
・小樽駅から608m",0134-23-7823,,https://tabelog.com/hokkaido/A0106/A010601/1010187/,43.19419817843405,140.99990445984818
ちまぐー,ちまぐー,ちまぐ定食、ふーちゃんぷる,"https://www.google.com/maps/place/%E3%81%A1%E3%81%BE%E3%81%90%E3%83%BC/@26.6428635,127.9586197,16.09z/data=!4m15!1m8!3m7!1s0x34e4f8960aa0785f:0x806aa7fae570a50b!2z44CSOTA1LTA0MTMg5rKW57iE55yM5Zu96aCt6YOh5LuK5biw5LuB5p2R5ZGJ5oiR5bGx77yV77yY77yQ4oiS77yR!3b1!8m2!3d26.6430712!4d127.962509!16s%2Fg%2F11cln_4ncq!3m5!1s0x34e4f895e0200d95:0xc2bc824a792fdd8c!8m2!3d26.6433272!4d127.9623917!16s%2Fg%2F1tfb8xb8?entry=ttu","<iframe src=""https://www.google.com/maps/embed?pb=!1m18!1m12!1m3!1d6706.799350678703!2d127.95861967479418!3d26.642863458602648!2m3!1f0!2f0!3f0!3m2!1i1024!2i768!4f13.1!3m3!1m2!1s0x34e4f895e0200d95%3A0xc2bc824a792fdd8c!2z44Gh44G-44GQ44O8!5e0!3m2!1sja!2sjp!4v1711072048139!5m2!1sja!2sjp"" width=""600"" height=""450"" style=""border:0;"" allowfullscreen="""" loading=""lazy"" referrerpolicy=""no-referrer-when-downgrade""></iframe>",沖縄県,国頭郡今帰仁村,字呉我山580-1,,,0980-56-2324,,https://tabelog.com/okinawa/A4702/A470202/47009741/,26.64375618483322,127.96231213875888
金城パーラー,きんじょうぱーらー,黒糖ミルクぜんざい,"https://www.google.com/maps/place/%E9%87%91%E5%9F%8E%E3%83%91%E3%83%BC%E3%83%A9%E3%83%BC/@26.4398909,127.7116857,17z/data=!3m1!4b1!4m6!3m5!1s0x34e51748696628fd:0xea2eaa8d5e3e1792!8m2!3d26.4398861!4d127.7142606!16s%2Fg%2F12qg90htd?entry=ttu","<iframe src=""https://www.google.com/maps/embed?pb=!1m18!1m12!1m3!1d3572.4912081857774!2d127.71168567547612!3d26.439890880249852!2m3!1f0!2f0!3f0!3m2!1i1024!2i768!4f13.1!3m3!1m2!1s0x34e51748696628fd%3A0xea2eaa8d5e3e1792!2z6YeR5Z-O44OR44O844Op44O8!5e0!3m2!1sja!2sjp!4v1711076219937!5m2!1sja!2sjp"" width=""600"" height=""450"" style=""border:0;"" allowfullscreen="""" loading=""lazy"" referrerpolicy=""no-referrer-when-downgrade""></iframe>",沖縄県,中頭郡読谷村,宇座1861,,,090-1139-4743,,https://tabelog.com/okinawa/A4703/A470304/47011126/,26.440102369738522,127.71428379535776
マイハウス,まいはうす,タコス（チリソース付き）、ステーキ・２００ｇ,"https://www.google.com/maps/place/%E3%83%9E%E3%82%A4%E3%83%8F%E3%82%A6%E3%82%B9/@26.2800613,127.7405336,15.6z/data=!4m15!1m8!3m7!1s0x34e56cc85f5035c9:0x1f363c7c23abc7e1!2z44CSOTAxLTIyMjMg5rKW57iE55yM5a6c6YeO5rm-5biC5aSn5bGx77yS5LiB55uu77yR4oiS77yS77yX!3b1!8m2!3d26.2788134!4d127.7476643!16s%2Fg%2F12hlzyp1s!3m5!1s0x34e56cc85f524527:0x2aa3be95d0a8c24d!8m2!3d26.278813!4d127.7476528!16s%2Fg%2F1tf55ms8?entry=ttu","<iframe src=""https://www.google.com/maps/embed?pb=!1m18!1m12!1m3!1d9424.859461252468!2d127.74053358788407!3d26.280061347575117!2m3!1f0!2f0!3f0!3m2!1i1024!2i768!4f13.1!3m3!1m2!1s0x34e56cc85f524527%3A0x2aa3be95d0a8c24d!2z44Oe44Kk44OP44Km44K5!5e0!3m2!1sja!2sjp!4v1711076316432!5m2!1sja!2sjp"" width=""600"" height=""450"" style=""border:0;"" allowfullscreen="""" loading=""lazy"" referrerpolicy=""no-referrer-when-downgrade""></iframe>",沖縄県,宜野湾市,大山2-1-27,,,098-898-4447,,https://tabelog.com/okinawa/A4703/A470404/47002905/,26.278857503537814,127.74768474753442
ミッキー飯店,みっきーはんてん,ニンニクチャーハン、レバニラ炒め,"https://www.google.com/maps/place/%E3%83%9F%E3%83%83%E3%82%AD%E3%83%BC%E9%A3%AF%E5%BA%97/@35.69507,139.6766953,16.47z/data=!4m15!1m8!3m7!1s0x6018f2da5ccca241:0xd2ece1eda984066!2z44CSMTY0LTAwMTIg5p2x5Lqs6YO95Lit6YeO5Yy65pys55S677yS5LiB55uu77yR77yX4oiS77yU!3b1!8m2!3d35.6942199!4d139.6794227!16s%2Fg%2F12ht3lxnf!3m5!1s0x6018f2da5cc4abc3:0x76384bce2aec20e6!8m2!3d35.6942179!4d139.6794189!16s%2Fg%2F1tdlv9j2?entry=ttu","<iframe src=""https://www.google.com/maps/embed?pb=!1m18!1m12!1m3!1d4673.328846998185!2d139.67669525211136!3d35.69506999482352!2m3!1f0!2f0!3f0!3m2!1i1024!2i768!4f13.1!3m3!1m2!1s0x6018f2da5cc4abc3%3A0x76384bce2aec20e6!2z44Of44OD44Kt44O86aOv5bqX!5e0!3m2!1sja!2sjp!4v1711160719659!5m2!1sja!2sjp"" width=""600"" height=""450"" style=""border:0;"" allowfullscreen="""" loading=""lazy"" referrerpolicy=""no-referrer-when-downgrade""></iframe>",東京都,中野区,本町2-17-4,,"・中野坂上駅より徒歩７分
・中野坂上駅から384m",,,https://tabelog.com/tokyo/A1319/A131903/13073445/,35.694397666456965,139.67937222729992
末ぜん,すえぜん,銀さけ切身定食,"https://www.google.com/maps/place/%E5%AD%A3%E7%AF%80%E6%96%99%E7%90%86+%E6%9C%AB%E3%81%9C%E3%82%93(%E3%81%99%E3%81%88%E3%81%9C%E3%82%93)/@35.6485811,139.7012257,17.89z/data=!4m15!1m8!3m7!1s0x60188b457c2dd051:0xfa27e48ef98e21f!2z44CSMTUwLTAwMzMg5p2x5Lqs6YO95riL6LC35Yy654y_5qW955S677yS77yQ4oiS77yYIOacq-OBnOOCkw!3b1!8m2!3d35.6489252!4d139.7015679!16s%2Fg%2F12hp0_glz!3m5!1s0x60188b457c2f7abb:0x4837d5f80d9a39dd!8m2!3d35.6489232!4d139.7015457!16s%2Fg%2F1tdqzq2q?entry=ttu","<iframe src=""https://www.google.com/maps/embed?pb=!1m18!1m12!1m3!1d1751.9239748558903!2d139.70122574357123!3d35.64858111563864!2m3!1f0!2f0!3f0!3m2!1i1024!2i768!4f13.1!3m3!1m2!1s0x60188b457c2f7abb%3A0x4837d5f80d9a39dd!2z5a2j56-A5paZ55CGIOacq-OBnOOCkyjjgZnjgYjjgZzjgpMp!5e0!3m2!1sja!2sjp!4v1711171326594!5m2!1sja!2sjp"" width=""600"" height=""450"" style=""border:0;"" allowfullscreen="""" loading=""lazy"" referrerpolicy=""no-referrer-when-downgrade""></iframe>",東京都,渋谷区,猿楽町20-8,代官山駅,・代官山駅から193m,03-3461-8234,,https://tabelog.com/tokyo/A1303/A130303/13007258/,35.64901688358791,139.7016025753893
社食堂,しゃしょくどう,日替わり 肉定食,"https://www.google.com/maps/place/%E7%A4%BE%E9%A3%9F%E5%A0%82/@35.6674263,139.6717686,16.59z/data=!3m1!5s0x6018f33f14a815bf:0xfe4530adc452cd2c!4m6!3m5!1s0x6018f33f13422737:0xf287a0ac392c093e!8m2!3d35.6686317!4d139.6742312!16s%2Fg%2F11g6yhdxyf?entry=ttu","<iframe src=""https://www.google.com/maps/embed?pb=!1m18!1m12!1m3!1d4320.621667248371!2d139.6717686231524!3d35.66742633058329!2m3!1f0!2f0!3f0!3m2!1i1024!2i768!4f13.1!3m3!1m2!1s0x6018f33f13422737%3A0xf287a0ac392c093e!2z56S-6aOf5aCC!5e0!3m2!1sja!2sjp!4v1711180043712!5m2!1sja!2sjp"" width=""600"" height=""450"" style=""border:0;"" allowfullscreen="""" loading=""lazy"" referrerpolicy=""no-referrer-when-downgrade""></iframe>",東京都,渋谷区,大山町18-23 B1F,東北沢駅,・東北沢駅から371m,03-5738-8480,,https://tabelog.com/tokyo/A1318/A131802/13208112/,35.6689889879134,139.67428560651834
かっぱ焼きそば 喜八,かっぱやきそばきはち,塩焼きそば（細麺・大盛り）,"https://www.google.com/maps/place/%E3%81%8B%E3%81%A3%E3%81%B1%E7%84%BC%E3%81%8D%E3%81%9D%E3%81%B0+%E5%96%9C%E5%85%AB/@35.7139719,139.7902735,17.62z/data=!4m14!1m7!3m6!1s0x60188e9589045f33:0x21a13f44e3fda4af!2z44CSMTExLTAwMzUg5p2x5Lqs6YO95Y-w5p2x5Yy66KW_5rWF6I2J77yS5LiB55uu77yS77yT4oiS77yUIO-8ku-8k-KIku-8lCAyZg!3b1!8m2!3d35.7140694!4d139.7899544!3m5!1s0x60188f6582992755:0x6c0b91e05cf271db!8m2!3d35.7140699!4d139.789962!16s%2Fg%2F11h4cz3bn_?entry=ttu","<iframe src=""https://www.google.com/maps/embed?pb=!1m18!1m12!1m3!1d2104.9554466456957!2d139.79027351763293!3d35.71397194558577!2m3!1f0!2f0!3f0!3m2!1i1024!2i768!4f13.1!3m3!1m2!1s0x60188f6582992755%3A0x6c0b91e05cf271db!2z44GL44Gj44Gx54S844GN44Gd44GwIOWWnOWFqw!5e0!3m2!1sja!2sjp!4v1711180659742!5m2!1sja!2sjp"" width=""600"" height=""450"" style=""border:0;"" allowfullscreen="""" loading=""lazy"" referrerpolicy=""no-referrer-when-downgrade""></iframe>",東京都,台東区,西浅草2-23-4 2F,浅草駅（TX）,・TX 浅草駅から233m,03-3843-3078,,https://tabelog.com/tokyo/A1311/A131102/13237175/,35.71414458571702,139.78996677760307
焼肉ホルモン 木じま,やきにくほるもんきじま,焼肉弁当（デリバリー）,"https://www.google.com/maps/place/%E7%84%BC%E8%82%89%E3%83%9B%E3%83%AB%E3%83%A2%E3%83%B3+%E6%9C%A8%E3%81%98%E3%81%BE/@35.6986064,139.8247082,17.12z/data=!4m15!1m8!3m7!1s0x601888c50de6b631:0xda00df26f18aac72!2z44CSMTM2LTAwNzEg5p2x5Lqs6YO95rGf5p2x5Yy65LqA5oi477yV5LiB55uu77yR77yU4oiS77yZ!3b1!8m2!3d35.6993777!4d139.8259981!16s%2Fg%2F11dxmf0w0c!3m5!1s0x601889c59cbf1e19:0x183f6099ce1612bc!8m2!3d35.6993688!4d139.8260504!16s%2Fg%2F11fd7lp3ph?entry=ttu","<iframe src=""https://www.google.com/maps/embed?pb=!1m18!1m12!1m3!1d2989.637276250636!2d139.8247081623961!3d35.69860635760704!2m3!1f0!2f0!3f0!3m2!1i1024!2i768!4f13.1!3m3!1m2!1s0x601889c59cbf1e19%3A0x183f6099ce1612bc!2z54S86IKJ44Ob44Or44Oi44OzIOacqOOBmOOBvg!5e0!3m2!1sja!2sjp!4v1711181661546!5m2!1sja!2sjp"" width=""600"" height=""450"" style=""border:0;"" allowfullscreen="""" loading=""lazy"" referrerpolicy=""no-referrer-when-downgrade""></iframe>",東京都,江東区,亀戸5-14-9,亀戸駅,"・ＪＲ亀戸駅北口より徒歩２分
・亀戸駅から210m",03-5875-4100,,https://tabelog.com/tokyo/A1312/A131202/13226570/,35.69958312600103,139.8259752878923
菓子工房 福どら,かしこうぼうふくどら,生ちょこもち（デリバリー）,"https://www.google.com/maps/place/%E8%8F%93%E5%AD%90%E5%B7%A5%E6%88%BF+%E7%A6%8F%E3%81%A9%E3%82%89/@35.6885771,139.8143784,17.94z/data=!4m15!1m8!3m7!1s0x601888dff2aba02f:0xb1485351ff38d496!2z44CSMTM1LTAwMDIg5p2x5Lqs6YO95rGf5p2x5Yy65L2P5ZCJ77yS5LiB55uu77yT4oiS77yR77yYIOS6leWwvuODk-ODqw!3b1!8m2!3d35.688139!4d139.8145465!16s%2Fg%2F12hnsyls3!3m5!1s0x601888df8d54b3bf:0xa1e1105fae585f02!8m2!3d35.6880978!4d139.814531!16s%2Fg%2F1ts3l5n3?entry=ttu","<iframe src=""https://www.google.com/maps/embed?pb=!1m18!1m12!1m3!1d1687.5111692193527!2d139.81437837058235!3d35.68857710019075!2m3!1f0!2f0!3f0!3m2!1i1024!2i768!4f13.1!3m3!1m2!1s0x601888df8d54b3bf%3A0xa1e1105fae585f02!2z6I-T5a2Q5bel5oi_IOemj-OBqeOCiQ!5e0!3m2!1sja!2sjp!4v1711182260078!5m2!1sja!2sjp"" width=""600"" height=""450"" style=""border:0;"" allowfullscreen="""" loading=""lazy"" referrerpolicy=""no-referrer-when-downgrade""></iframe>",東京都,江東区,住吉2-3-18,住吉駅,・住吉駅から146m,03-3634-5731,https://fukudora.jp/,https://tabelog.com/tokyo/A1312/A131201/13018927/,35.68820273013493,139.81452922115628
もつ焼き ばん 高田馬場店,もつやきばんたかだのばばてん,激辛とんび豆腐、しゅうまい、もつ焼き定食（たれ）、レバカツ,"https://www.google.com/maps/place/%E3%82%82%E3%81%A4%E7%84%BC%E3%81%8D+%E3%81%B0%E3%82%93+%E9%AB%98%E7%94%B0%E9%A6%AC%E5%A0%B4%E5%BA%97/@35.7131291,139.7037145,17.3z/data=!4m14!1m7!3m6!1s0x60188d393bb870b1:0xb74ce44729c3c710!2z44CSMTY5LTAwNzUg5p2x5Lqs6YO95paw5a6_5Yy66auY55Sw6aas5aC077yS5LiB55uu77yR77yW4oiS77yTIOafj-ODk-ODqyAxZg!3b1!8m2!3d35.713707!4d139.7055959!3m5!1s0x60188d5c076747af:0x2b5846b59e103946!8m2!3d35.7137145!4d139.705726!16s%2Fg%2F11q8gxrc39?entry=ttu","<iframe src=""https://www.google.com/maps/embed?pb=!1m18!1m12!1m3!1d2639.060826457533!2d139.70371451371676!3d35.71312911935474!2m3!1f0!2f0!3f0!3m2!1i1024!2i768!4f13.1!3m3!1m2!1s0x60188d5c076747af%3A0x2b5846b59e103946!2z44KC44Gk54S844GNIOOBsOOCkyDpq5jnlLDppqzloLTlupc!5e0!3m2!1sja!2sjp!4v1711182897243!5m2!1sja!2sjp"" width=""600"" height=""450"" style=""border:0;"" allowfullscreen="""" loading=""lazy"" referrerpolicy=""no-referrer-when-downgrade""></iframe>",東京都,新宿区,高田馬場2‐16‐3 柏ビル 1F,高田馬場駅,・高田馬場駅から218m,050-5570-2286,,https://tabelog.com/tokyo/A1305/A130503/13260598/dtlrvwlst/B463730139/,35.71380683951637,139.70572475188345
龍朋,りゅうほう,回鍋肉、トマトたまご麺、東京ラーメン、チャーシューとかまぼこの辛子和え,"https://www.google.com/maps/place/%E9%BE%8D%E6%9C%8B+The+Lahmen/@35.7039929,139.7334143,18.96z/data=!4m14!1m7!3m6!1s0x60188c566c756c49:0x8e680dcf9bf8f82a!2z44CSMTYyLTA4MDUg5p2x5Lqs6YO95paw5a6_5Yy655-i5p2l55S677yR77yS77yTIOesrOS4gOefouadpeODk-ODqyBiMQ!3b1!8m2!3d35.7042163!4d139.7335254!3m5!1s0x60188c566dcdb16f:0x31fe50b626dc294d!8m2!3d35.7042143!4d139.7335579!16s%2Fg%2F1tctxk3t?entry=ttu","<iframe src=""https://www.google.com/maps/embed?pb=!1m18!1m12!1m3!1d834.7449105181057!2d139.73341427363988!3d35.703992853180516!2m3!1f0!2f0!3f0!3m2!1i1024!2i768!4f13.1!3m3!1m2!1s0x60188c566dcdb16f%3A0x31fe50b626dc294d!2z6b6N5pyLIFRoZSBMYWhtZW4!5e0!3m2!1sja!2sjp!4v1711184467066!5m2!1sja!2sjp"" width=""600"" height=""450"" style=""border:0;"" allowfullscreen="""" loading=""lazy"" referrerpolicy=""no-referrer-when-downgrade""></iframe>",東京都,新宿区,矢来町123 第一矢来ビル Ｂ１,神楽坂駅,"・東京メトロ東西線 神楽坂駅2番出口より徒歩1分
・神楽坂駅から83m",03-3267-6917,,https://tabelog.com/tokyo/A1309/A130905/13006446/,35.70424986792987,139.73357183478757